{
 "type": "FeatureCollection",
 "features": [
  {
   "type": "Feature",
   "id": "BLD-001",
   "properties": {
    "id": "BLD-001",
    "layer": "BUILDING_FOOTPRINT",
    "source_type": "agent_generated_design",
    "confidence": "medium",
    "geometry_role": "design_proposal",
    "area_sqm_declared": 168543.067,
    "bld_type_zh": "概念体量基底（非现状测绘）"
   },
   "geometry": {
    "type": "Polygon",
    "coordinates": [
     [
      [
       116.341494,
       39.939674
      ],
      [
       116.341494,
       39.943737
      ],
      [
       116.345865,
       39.943737
      ],
      [
       116.345865,
       39.939674
      ],
      [
       116.341494,
       39.939674
      ]
     ]
    ]
   }
  },
  {
   "type": "Feature",
   "id": "BLD-002",
   "properties": {
    "id": "BLD-002",
    "layer": "BUILDING_FOOTPRINT",
    "source_type": "agent_generated_design",
    "confidence": "medium",
    "geometry_role": "design_proposal",
    "area_sqm_declared": 159567.66,
    "bld_type_zh": "概念体量基底（非现状测绘）"
   },
   "geometry": {
    "type": "Polygon",
    "coordinates": [
     [
      [
       116.346456,
       39.9396
      ],
      [
       116.346456,
       39.943679
      ],
      [
       116.350578,
       39.943679
      ],
      [
       116.350578,
       39.9396
      ],
      [
       116.346456,
       39.9396
      ]
     ]
    ]
   }
  },
  {
   "type": "Feature",
   "id": "BLD-003",
   "properties": {
    "id": "BLD-003",
    "layer": "BUILDING_FOOTPRINT",
    "source_type": "agent_generated_design",
    "confidence": "medium",
    "geometry_role": "design_proposal",
    "area_sqm_declared": 168877.534,
    "bld_type_zh": "概念体量基底（非现状测绘）"
   },
   "geometry": {
    "type": "Polygon",
    "coordinates": [
     [
      [
       116.350308,
       39.939707
      ],
      [
       116.350308,
       39.943754
      ],
      [
       116.354705,
       39.943754
      ],
      [
       116.354705,
       39.939707
      ],
      [
       116.350308,
       39.939707
      ]
     ]
    ]
   }
  },
  {
   "type": "Feature",
   "id": "BLD-004",
   "properties": {
    "id": "BLD-004",
    "layer": "BUILDING_FOOTPRINT",
    "source_type": "agent_generated_design",
    "confidence": "medium",
    "geometry_role": "design_proposal",
    "area_sqm_declared": 162862.833,
    "bld_type_zh": "概念体量基底（非现状测绘）"
   },
   "geometry": {
    "type": "Polygon",
    "coordinates": [
     [
      [
       116.341494,
       39.943715
      ],
      [
       116.341494,
       39.947807
      ],
      [
       116.345688,
       39.947807
      ],
      [
       116.345688,
       39.943715
      ],
      [
       116.341494,
       39.943715
      ]
     ]
    ]
   }
  },
  {
   "type": "Feature",
   "id": "BLD-005",
   "properties": {
    "id": "BLD-005",
    "layer": "BUILDING_FOOTPRINT",
    "source_type": "agent_generated_design",
    "confidence": "medium",
    "geometry_role": "design_proposal",
    "area_sqm_declared": 160554.819,
    "bld_type_zh": "概念体量基底（非现状测绘）"
   },
   "geometry": {
    "type": "Polygon",
    "coordinates": [
     [
      [
       116.346068,
       39.94406
      ],
      [
       116.346068,
       39.94798
      ],
      [
       116.350384,
       39.94798
      ],
      [
       116.350384,
       39.94406
      ],
      [
       116.346068,
       39.94406
      ]
     ]
    ]
   }
  },
  {
   "type": "Feature",
   "id": "BLD-006",
   "properties": {
    "id": "BLD-006",
    "layer": "BUILDING_FOOTPRINT",
    "source_type": "agent_generated_design",
    "confidence": "medium",
    "geometry_role": "design_proposal",
    "area_sqm_declared": 156099.639,
    "bld_type_zh": "概念体量基底（非现状测绘）"
   },
   "geometry": {
    "type": "Polygon",
    "coordinates": [
     [
      [
       116.350298,
       39.9437
      ],
      [
       116.350298,
       39.947679
      ],
      [
       116.354432,
       39.947679
      ],
      [
       116.354432,
       39.9437
      ],
      [
       116.350298,
       39.9437
      ]
     ]
    ]
   }
  },
  {
   "type": "Feature",
   "id": "BLD-007",
   "properties": {
    "id": "BLD-007",
    "layer": "BUILDING_FOOTPRINT",
    "source_type": "agent_generated_design",
    "confidence": "medium",
    "geometry_role": "design_proposal",
    "area_sqm_declared": 65049.229,
    "bld_type_zh": "概念体量基底（非现状测绘）"
   },
   "geometry": {
    "type": "Polygon",
    "coordinates": [
     [
      [
       116.345626,
       39.948181
      ],
      [
       116.341494,
       39.948181
      ],
      [
       116.341494,
       39.94984
      ],
      [
       116.3417,
       39.94984
      ],
      [
       116.341773,
       39.94984
      ],
      [
       116.3427,
       39.94984
      ],
      [
       116.3455,
       39.94984
      ],
      [
       116.345626,
       39.94984
      ],
      [
       116.345626,
       39.948181
      ]
     ]
    ]
   }
  },
  {
   "type": "Feature",
   "id": "BLD-008",
   "properties": {
    "id": "BLD-008",
    "layer": "BUILDING_FOOTPRINT",
    "source_type": "agent_generated_design",
    "confidence": "medium",
    "geometry_role": "design_proposal",
    "area_sqm_declared": 123687.263,
    "bld_type_zh": "概念体量基底（非现状测绘）"
   },
   "geometry": {
    "type": "Polygon",
    "coordinates": [
     [
      [
       116.350426,
       39.951618
      ],
      [
       116.350426,
       39.9478
      ],
      [
       116.346151,
       39.9478
      ],
      [
       116.346151,
       39.94984
      ],
      [
       116.348,
       39.94984
      ],
      [
       116.348,
       39.951618
      ],
      [
       116.350426,
       39.951618
      ]
     ]
    ]
   }
  },
  {
   "type": "Feature",
   "id": "BLD-009",
   "properties": {
    "id": "BLD-009",
    "layer": "BUILDING_FOOTPRINT",
    "source_type": "agent_generated_design",
    "confidence": "medium",
    "geometry_role": "design_proposal",
    "area_sqm_declared": 147770.864,
    "bld_type_zh": "概念体量基底（非现状测绘）"
   },
   "geometry": {
    "type": "Polygon",
    "coordinates": [
     [
      [
       116.350935,
       39.948372
      ],
      [
       116.350935,
       39.952186
      ],
      [
       116.355018,
       39.952186
      ],
      [
       116.355018,
       39.948372
      ],
      [
       116.350935,
       39.948372
      ]
     ]
    ]
   }
  },
  {
   "type": "Feature",
   "id": "BLD-010",
   "properties": {
    "id": "BLD-010",
    "layer": "BUILDING_FOOTPRINT",
    "source_type": "agent_generated_design",
    "confidence": "medium",
    "geometry_role": "design_proposal",
    "area_sqm_declared": 5384.158,
    "bld_type_zh": "概念体量基底（非现状测绘）"
   },
   "geometry": {
    "type": "Polygon",
    "coordinates": [
     [
      [
       116.350632,
       39.9906
      ],
      [
       116.350632,
       39.991359
      ],
      [
       116.35138,
       39.991359
      ],
      [
       116.35138,
       39.9906
      ],
      [
       116.350632,
       39.9906
      ]
     ]
    ]
   }
  },
  {
   "type": "Feature",
   "id": "BLD-011",
   "properties": {
    "id": "BLD-011",
    "layer": "BUILDING_FOOTPRINT",
    "source_type": "agent_generated_design",
    "confidence": "medium",
    "geometry_role": "design_proposal",
    "area_sqm_declared": 5025.023,
    "bld_type_zh": "概念体量基底（非现状测绘）"
   },
   "geometry": {
    "type": "Polygon",
    "coordinates": [
     [
      [
       116.351415,
       39.9906
      ],
      [
       116.351415,
       39.991317
      ],
      [
       116.352154,
       39.991317
      ],
      [
       116.352154,
       39.9906
      ],
      [
       116.351415,
       39.9906
      ]
     ]
    ]
   }
  },
  {
   "type": "Feature",
   "id": "BLD-012",
   "properties": {
    "id": "BLD-012",
    "layer": "BUILDING_FOOTPRINT",
    "source_type": "agent_generated_design",
    "confidence": "medium",
    "geometry_role": "design_proposal",
    "area_sqm_declared": 5291.71,
    "bld_type_zh": "概念体量基底（非现状测绘）"
   },
   "geometry": {
    "type": "Polygon",
    "coordinates": [
     [
      [
       116.352173,
       39.9906
      ],
      [
       116.352173,
       39.991352
      ],
      [
       116.352915,
       39.991352
      ],
      [
       116.352915,
       39.9906
      ],
      [
       116.352173,
       39.9906
      ]
     ]
    ]
   }
  },
  {
   "type": "Feature",
   "id": "BLD-013",
   "properties": {
    "id": "BLD-013",
    "layer": "BUILDING_FOOTPRINT",
    "source_type": "agent_generated_design",
    "confidence": "medium",
    "geometry_role": "design_proposal",
    "area_sqm_declared": 5184.907,
    "bld_type_zh": "概念体量基底（非现状测绘）"
   },
   "geometry": {
    "type": "Polygon",
    "coordinates": [
     [
      [
       116.350625,
       39.991367
      ],
      [
       116.350625,
       39.992095
      ],
      [
       116.351376,
       39.992095
      ],
      [
       116.351376,
       39.991367
      ],
      [
       116.350625,
       39.991367
      ]
     ]
    ]
   }
  },
  {
   "type": "Feature",
   "id": "BLD-014",
   "properties": {
    "id": "BLD-014",
    "layer": "BUILDING_FOOTPRINT",
    "source_type": "agent_generated_design",
    "confidence": "medium",
    "geometry_role": "design_proposal",
    "area_sqm_declared": 5235.282,
    "bld_type_zh": "概念体量基底（非现状测绘）"
   },
   "geometry": {
    "type": "Polygon",
    "coordinates": [
     [
      [
       116.351364,
       39.991367
      ],
      [
       116.351364,
       39.992107
      ],
      [
       116.35211,
       39.992107
      ],
      [
       116.35211,
       39.991367
      ],
      [
       116.351364,
       39.991367
      ]
     ]
    ]
   }
  },
  {
   "type": "Feature",
   "id": "BLD-015",
   "properties": {
    "id": "BLD-015",
    "layer": "BUILDING_FOOTPRINT",
    "source_type": "agent_generated_design",
    "confidence": "medium",
    "geometry_role": "design_proposal",
    "area_sqm_declared": 5221.242,
    "bld_type_zh": "概念体量基底（非现状测绘）"
   },
   "geometry": {
    "type": "Polygon",
    "coordinates": [
     [
      [
       116.352128,
       39.991419
      ],
      [
       116.352128,
       39.992159
      ],
      [
       116.352872,
       39.992159
      ],
      [
       116.352872,
       39.991419
      ],
      [
       116.352128,
       39.991419
      ]
     ]
    ]
   }
  },
  {
   "type": "Feature",
   "id": "BLD-016",
   "properties": {
    "id": "BLD-016",
    "layer": "BUILDING_FOOTPRINT",
    "source_type": "agent_generated_design",
    "confidence": "medium",
    "geometry_role": "design_proposal",
    "area_sqm_declared": 5145.629,
    "bld_type_zh": "概念体量基底（非现状测绘）"
   },
   "geometry": {
    "type": "Polygon",
    "coordinates": [
     [
      [
       116.3506,
       39.99224
      ],
      [
       116.3506,
       39.992953
      ],
      [
       116.351361,
       39.992953
      ],
      [
       116.351361,
       39.99224
      ],
      [
       116.3506,
       39.99224
      ]
     ]
    ]
   }
  },
  {
   "type": "Feature",
   "id": "BLD-017",
   "properties": {
    "id": "BLD-017",
    "layer": "BUILDING_FOOTPRINT",
    "source_type": "agent_generated_design",
    "confidence": "medium",
    "geometry_role": "design_proposal",
    "area_sqm_declared": 5255.614,
    "bld_type_zh": "概念体量基底（非现状测绘）"
   },
   "geometry": {
    "type": "Polygon",
    "coordinates": [
     [
      [
       116.351383,
       39.992133
      ],
      [
       116.351383,
       39.992868
      ],
      [
       116.352137,
       39.992868
      ],
      [
       116.352137,
       39.992133
      ],
      [
       116.351383,
       39.992133
      ]
     ]
    ]
   }
  },
  {
   "type": "Feature",
   "id": "BLD-018",
   "properties": {
    "id": "BLD-018",
    "layer": "BUILDING_FOOTPRINT",
    "source_type": "agent_generated_design",
    "confidence": "medium",
    "geometry_role": "design_proposal",
    "area_sqm_declared": 5434.118,
    "bld_type_zh": "概念体量基底（非现状测绘）"
   },
   "geometry": {
    "type": "Polygon",
    "coordinates": [
     [
      [
       116.352154,
       39.99214
      ],
      [
       116.352154,
       39.992903
      ],
      [
       116.352905,
       39.992903
      ],
      [
       116.352905,
       39.99214
      ],
      [
       116.352154,
       39.99214
      ]
     ]
    ]
   }
  },
  {
   "type": "Feature",
   "id": "BLD-019",
   "properties": {
    "id": "BLD-019",
    "layer": "BUILDING_FOOTPRINT",
    "source_type": "agent_generated_design",
    "confidence": "medium",
    "geometry_role": "design_proposal",
    "area_sqm_declared": 59461.403,
    "bld_type_zh": "概念体量基底（非现状测绘）"
   },
   "geometry": {
    "type": "Polygon",
    "coordinates": [
     [
      [
       116.3506,
       40.0066
      ],
      [
       116.3506,
       40.012828
      ],
      [
       116.351607,
       40.012828
      ],
      [
       116.351607,
       40.0066
      ],
      [
       116.3506,
       40.0066
      ]
     ]
    ]
   }
  },
  {
   "type": "Feature",
   "id": "BLD-020",
   "properties": {
    "id": "BLD-020",
    "layer": "BUILDING_FOOTPRINT",
    "source_type": "agent_generated_design",
    "confidence": "medium",
    "geometry_role": "design_proposal",
    "area_sqm_declared": 58483.798,
    "bld_type_zh": "概念体量基底（非现状测绘）"
   },
   "geometry": {
    "type": "Polygon",
    "coordinates": [
     [
      [
       116.351725,
       40.0066
      ],
      [
       116.351725,
       40.012979
      ],
      [
       116.352692,
       40.012979
      ],
      [
       116.352692,
       40.0066
      ],
      [
       116.351725,
       40.0066
      ]
     ]
    ]
   }
  },
  {
   "type": "Feature",
   "id": "BLD-021",
   "properties": {
    "id": "BLD-021",
    "layer": "BUILDING_FOOTPRINT",
    "source_type": "agent_generated_design",
    "confidence": "medium",
    "geometry_role": "design_proposal",
    "area_sqm_declared": 61434.833,
    "bld_type_zh": "概念体量基底（非现状测绘）"
   },
   "geometry": {
    "type": "Polygon",
    "coordinates": [
     [
      [
       116.352648,
       40.006699
      ],
      [
       116.352648,
       40.013083
      ],
      [
       116.353663,
       40.013083
      ],
      [
       116.353663,
       40.006699
      ],
      [
       116.352648,
       40.006699
      ]
     ]
    ]
   }
  },
  {
   "type": "Feature",
   "id": "BLD-022",
   "properties": {
    "id": "BLD-022",
    "layer": "BUILDING_FOOTPRINT",
    "source_type": "agent_generated_design",
    "confidence": "medium",
    "geometry_role": "design_proposal",
    "area_sqm_declared": 59407.408,
    "bld_type_zh": "概念体量基底（非现状测绘）"
   },
   "geometry": {
    "type": "Polygon",
    "coordinates": [
     [
      [
       116.3506,
       40.013303
      ],
      [
       116.3506,
       40.019601
      ],
      [
       116.351595,
       40.019601
      ],
      [
       116.351595,
       40.013303
      ],
      [
       116.3506,
       40.013303
      ]
     ]
    ]
   }
  },
  {
   "type": "Feature",
   "id": "BLD-023",
   "properties": {
    "id": "BLD-023",
    "layer": "BUILDING_FOOTPRINT",
    "source_type": "agent_generated_design",
    "confidence": "medium",
    "geometry_role": "design_proposal",
    "area_sqm_declared": 54739.969,
    "bld_type_zh": "概念体量基底（非现状测绘）"
   },
   "geometry": {
    "type": "Polygon",
    "coordinates": [
     [
      [
       116.351742,
       40.013033
      ],
      [
       116.351742,
       40.019054
      ],
      [
       116.352701,
       40.019054
      ],
      [
       116.352701,
       40.013033
      ],
      [
       116.351742,
       40.013033
      ]
     ]
    ]
   }
  },
  {
   "type": "Feature",
   "id": "BLD-024",
   "properties": {
    "id": "BLD-024",
    "layer": "BUILDING_FOOTPRINT",
    "source_type": "agent_generated_design",
    "confidence": "medium",
    "geometry_role": "design_proposal",
    "area_sqm_declared": 59422.345,
    "bld_type_zh": "概念体量基底（非现状测绘）"
   },
   "geometry": {
    "type": "Polygon",
    "coordinates": [
     [
      [
       116.352658,
       40.013033
      ],
      [
       116.352658,
       40.019239
      ],
      [
       116.353668,
       40.019239
      ],
      [
       116.353668,
       40.013033
      ],
      [
       116.352658,
       40.013033
      ]
     ]
    ]
   }
  },
  {
   "type": "Feature",
   "id": "BLD-025",
   "properties": {
    "id": "BLD-025",
    "layer": "BUILDING_FOOTPRINT",
    "source_type": "agent_generated_design",
    "confidence": "medium",
    "geometry_role": "design_proposal",
    "area_sqm_declared": 59552.824,
    "bld_type_zh": "概念体量基底（非现状测绘）"
   },
   "geometry": {
    "type": "Polygon",
    "coordinates": [
     [
      [
       116.350648,
       40.019705
      ],
      [
       116.350648,
       40.026019
      ],
      [
       116.351643,
       40.026019
      ],
      [
       116.351643,
       40.019705
      ],
      [
       116.350648,
       40.019705
      ]
     ]
    ]
   }
  },
  {
   "type": "Feature",
   "id": "BLD-026",
   "properties": {
    "id": "BLD-026",
    "layer": "BUILDING_FOOTPRINT",
    "source_type": "agent_generated_design",
    "confidence": "medium",
    "geometry_role": "design_proposal",
    "area_sqm_declared": 54563.404,
    "bld_type_zh": "概念体量基底（非现状测绘）"
   },
   "geometry": {
    "type": "Polygon",
    "coordinates": [
     [
      [
       116.35162,
       40.019467
      ],
      [
       116.35162,
       40.025526
      ],
      [
       116.35257,
       40.025526
      ],
      [
       116.35257,
       40.019467
      ],
      [
       116.35162,
       40.019467
      ]
     ]
    ]
   }
  },
  {
   "type": "Feature",
   "id": "BLD-027",
   "properties": {
    "id": "BLD-027",
    "layer": "BUILDING_FOOTPRINT",
    "source_type": "agent_generated_design",
    "confidence": "medium",
    "geometry_role": "design_proposal",
    "area_sqm_declared": 58565.481,
    "bld_type_zh": "概念体量基底（非现状测绘）"
   },
   "geometry": {
    "type": "Polygon",
    "coordinates": [
     [
      [
       116.352648,
       40.020159
      ],
      [
       116.352648,
       40.026246
      ],
      [
       116.353663,
       40.026246
      ],
      [
       116.353663,
       40.020159
      ],
      [
       116.352648,
       40.020159
      ]
     ]
    ]
   }
  },
  {
   "type": "Feature",
   "id": "BLD-028",
   "properties": {
    "id": "BLD-028",
    "layer": "BUILDING_FOOTPRINT",
    "source_type": "agent_generated_design",
    "confidence": "medium",
    "geometry_role": "design_proposal",
    "area_sqm_declared": 64100.71,
    "bld_type_zh": "概念体量基底（非现状测绘）"
   },
   "geometry": {
    "type": "Polygon",
    "coordinates": [
     [
      [
       116.341494,
       39.984134
      ],
      [
       116.341494,
       39.985884
      ],
      [
       116.345356,
       39.985884
      ],
      [
       116.345356,
       39.984134
      ],
      [
       116.341494,
       39.984134
      ]
     ]
    ]
   }
  },
  {
   "type": "Feature",
   "id": "BLD-029",
   "properties": {
    "id": "BLD-029",
    "layer": "BUILDING_FOOTPRINT",
    "source_type": "agent_generated_design",
    "confidence": "medium",
    "geometry_role": "design_proposal",
    "area_sqm_declared": 64042.615,
    "bld_type_zh": "概念体量基底（非现状测绘）"
   },
   "geometry": {
    "type": "Polygon",
    "coordinates": [
     [
      [
       116.345471,
       39.984147
      ],
      [
       116.345471,
       39.98589
      ],
      [
       116.349345,
       39.98589
      ],
      [
       116.349345,
       39.984147
      ],
      [
       116.345471,
       39.984147
      ]
     ]
    ]
   }
  },
  {
   "type": "Feature",
   "id": "BLD-030",
   "properties": {
    "id": "BLD-030",
    "layer": "BUILDING_FOOTPRINT",
    "source_type": "agent_generated_design",
    "confidence": "medium",
    "geometry_role": "design_proposal",
    "area_sqm_declared": 58155.38,
    "bld_type_zh": "概念体量基底（非现状测绘）"
   },
   "geometry": {
    "type": "Polygon",
    "coordinates": [
     [
      [
       116.349664,
       39.984347
      ],
      [
       116.349664,
       39.98599
      ],
      [
       116.353396,
       39.98599
      ],
      [
       116.353396,
       39.984347
      ],
      [
       116.349664,
       39.984347
      ]
     ]
    ]
   }
  },
  {
   "type": "Feature",
   "id": "BLD-031",
   "properties": {
    "id": "BLD-031",
    "layer": "BUILDING_FOOTPRINT",
    "source_type": "agent_generated_design",
    "confidence": "medium",
    "geometry_role": "design_proposal",
    "area_sqm_declared": 60855.199,
    "bld_type_zh": "概念体量基底（非现状测绘）"
   },
   "geometry": {
    "type": "Polygon",
    "coordinates": [
     [
      [
       116.341696,
       39.98603
      ],
      [
       116.341696,
       39.987715
      ],
      [
       116.345504,
       39.987715
      ],
      [
       116.345504,
       39.98603
      ],
      [
       116.341696,
       39.98603
      ]
     ]
    ]
   }
  },
  {
   "type": "Feature",
   "id": "BLD-032",
   "properties": {
    "id": "BLD-032",
    "layer": "BUILDING_FOOTPRINT",
    "source_type": "agent_generated_design",
    "confidence": "medium",
    "geometry_role": "design_proposal",
    "area_sqm_declared": 64528.794,
    "bld_type_zh": "概念体量基底（非现状测绘）"
   },
   "geometry": {
    "type": "Polygon",
    "coordinates": [
     [
      [
       116.345485,
       39.985867
      ],
      [
       116.345485,
       39.987626
      ],
      [
       116.349353,
       39.987626
      ],
      [
       116.349353,
       39.985867
      ],
      [
       116.345485,
       39.985867
      ]
     ]
    ]
   }
  },
  {
   "type": "Feature",
   "id": "BLD-033",
   "properties": {
    "id": "BLD-033",
    "layer": "BUILDING_FOOTPRINT",
    "source_type": "agent_generated_design",
    "confidence": "medium",
    "geometry_role": "design_proposal",
    "area_sqm_declared": 57529.584,
    "bld_type_zh": "概念体量基底（非现状测绘）"
   },
   "geometry": {
    "type": "Polygon",
    "coordinates": [
     [
      [
       116.349708,
       39.98613
      ],
      [
       116.349708,
       39.987765
      ],
      [
       116.353418,
       39.987765
      ],
      [
       116.353418,
       39.98613
      ],
      [
       116.349708,
       39.98613
      ]
     ]
    ]
   }
  },
  {
   "type": "Feature",
   "id": "BLD-034",
   "properties": {
    "id": "BLD-034",
    "layer": "BUILDING_FOOTPRINT",
    "source_type": "agent_generated_design",
    "confidence": "medium",
    "geometry_role": "design_proposal",
    "area_sqm_declared": 63503.838,
    "bld_type_zh": "概念体量基底（非现状测绘）"
   },
   "geometry": {
    "type": "Polygon",
    "coordinates": [
     [
      [
       116.341579,
       39.987703
      ],
      [
       116.341579,
       39.989435
      ],
      [
       116.345445,
       39.989435
      ],
      [
       116.345445,
       39.987703
      ],
      [
       116.341579,
       39.987703
      ]
     ]
    ]
   }
  },
  {
   "type": "Feature",
   "id": "BLD-035",
   "properties": {
    "id": "BLD-035",
    "layer": "BUILDING_FOOTPRINT",
    "source_type": "agent_generated_design",
    "confidence": "medium",
    "geometry_role": "design_proposal",
    "area_sqm_declared": 57875.733,
    "bld_type_zh": "概念体量基底（非现状测绘）"
   },
   "geometry": {
    "type": "Polygon",
    "coordinates": [
     [
      [
       116.345403,
       39.987825
      ],
      [
       116.345403,
       39.989496
      ],
      [
       116.349055,
       39.989496
      ],
      [
       116.349055,
       39.987825
      ],
      [
       116.345403,
       39.987825
      ]
     ]
    ]
   }
  },
  {
   "type": "Feature",
   "id": "BLD-036",
   "properties": {
    "id": "BLD-036",
    "layer": "BUILDING_FOOTPRINT",
    "source_type": "agent_generated_design",
    "confidence": "medium",
    "geometry_role": "design_proposal",
    "area_sqm_declared": 62793.969,
    "bld_type_zh": "概念体量基底（非现状测绘）"
   },
   "geometry": {
    "type": "Polygon",
    "coordinates": [
     [
      [
       116.349478,
       39.987704
      ],
      [
       116.349478,
       39.989435
      ],
      [
       116.353303,
       39.989435
      ],
      [
       116.353303,
       39.987704
      ],
      [
       116.349478,
       39.987704
      ]
     ]
    ]
   }
  },
  {
   "type": "Feature",
   "id": "BLD-037",
   "properties": {
    "id": "BLD-037",
    "layer": "BUILDING_FOOTPRINT",
    "source_type": "agent_generated_design",
    "confidence": "medium",
    "geometry_role": "design_proposal",
    "area_sqm_declared": 17501.498,
    "bld_type_zh": "概念体量基底（非现状测绘）"
   },
   "geometry": {
    "type": "Polygon",
    "coordinates": [
     [
      [
       116.341645,
       39.9906
      ],
      [
       116.341645,
       39.99133
      ],
      [
       116.344173,
       39.99133
      ],
      [
       116.344173,
       39.9906
      ],
      [
       116.341645,
       39.9906
      ]
     ]
    ]
   }
  },
  {
   "type": "Feature",
   "id": "BLD-038",
   "properties": {
    "id": "BLD-038",
    "layer": "BUILDING_FOOTPRINT",
    "source_type": "agent_generated_design",
    "confidence": "medium",
    "geometry_role": "design_proposal",
    "area_sqm_declared": 18680.582,
    "bld_type_zh": "概念体量基底（非现状测绘）"
   },
   "geometry": {
    "type": "Polygon",
    "coordinates": [
     [
      [
       116.34423,
       39.990609
      ],
      [
       116.34423,
       39.991371
      ],
      [
       116.346815,
       39.991371
      ],
      [
       116.346815,
       39.990609
      ],
      [
       116.34423,
       39.990609
      ]
     ]
    ]
   }
  },
  {
   "type": "Feature",
   "id": "BLD-039",
   "properties": {
    "id": "BLD-039",
    "layer": "BUILDING_FOOTPRINT",
    "source_type": "agent_generated_design",
    "confidence": "medium",
    "geometry_role": "design_proposal",
    "area_sqm_declared": 18093.124,
    "bld_type_zh": "概念体量基底（非现状测绘）"
   },
   "geometry": {
    "type": "Polygon",
    "coordinates": [
     [
      [
       116.347087,
       39.990612
      ],
      [
       116.347087,
       39.991373
      ],
      [
       116.349594,
       39.991373
      ],
      [
       116.349594,
       39.990612
      ],
      [
       116.347087,
       39.990612
      ]
     ]
    ]
   }
  },
  {
   "type": "Feature",
   "id": "BLD-040",
   "properties": {
    "id": "BLD-040",
    "layer": "BUILDING_FOOTPRINT",
    "source_type": "agent_generated_design",
    "confidence": "medium",
    "geometry_role": "design_proposal",
    "area_sqm_declared": 18200.946,
    "bld_type_zh": "概念体量基底（非现状测绘）"
   },
   "geometry": {
    "type": "Polygon",
    "coordinates": [
     [
      [
       116.3413,
       39.991367
      ],
      [
       116.3413,
       39.992085
      ],
      [
       116.343973,
       39.992085
      ],
      [
       116.343973,
       39.991367
      ],
      [
       116.3413,
       39.991367
      ]
     ]
    ]
   }
  },
  {
   "type": "Feature",
   "id": "BLD-041",
   "properties": {
    "id": "BLD-041",
    "layer": "BUILDING_FOOTPRINT",
    "source_type": "agent_generated_design",
    "confidence": "medium",
    "geometry_role": "design_proposal",
    "area_sqm_declared": 18085.967,
    "bld_type_zh": "概念体量基底（非现状测绘）"
   },
   "geometry": {
    "type": "Polygon",
    "coordinates": [
     [
      [
       116.344,
       39.991473
      ],
      [
       116.344,
       39.992187
      ],
      [
       116.346671,
       39.992187
      ],
      [
       116.346671,
       39.991473
      ],
      [
       116.344,
       39.991473
      ]
     ]
    ]
   }
  },
  {
   "type": "Feature",
   "id": "BLD-042",
   "properties": {
    "id": "BLD-042",
    "layer": "BUILDING_FOOTPRINT",
    "source_type": "agent_generated_design",
    "confidence": "medium",
    "geometry_role": "design_proposal",
    "area_sqm_declared": 17511.106,
    "bld_type_zh": "概念体量基底（非现状测绘）"
   },
   "geometry": {
    "type": "Polygon",
    "coordinates": [
     [
      [
       116.347097,
       39.991367
      ],
      [
       116.347097,
       39.992105
      ],
      [
       116.349599,
       39.992105
      ],
      [
       116.349599,
       39.991367
      ],
      [
       116.347097,
       39.991367
      ]
     ]
    ]
   }
  },
  {
   "type": "Feature",
   "id": "BLD-043",
   "properties": {
    "id": "BLD-043",
    "layer": "BUILDING_FOOTPRINT",
    "source_type": "agent_generated_design",
    "confidence": "medium",
    "geometry_role": "design_proposal",
    "area_sqm_declared": 17917.207,
    "bld_type_zh": "概念体量基底（非现状测绘）"
   },
   "geometry": {
    "type": "Polygon",
    "coordinates": [
     [
      [
       116.341552,
       39.992133
      ],
      [
       116.341552,
       39.992867
      ],
      [
       116.344126,
       39.992867
      ],
      [
       116.344126,
       39.992133
      ],
      [
       116.341552,
       39.992133
      ]
     ]
    ]
   }
  },
  {
   "type": "Feature",
   "id": "BLD-044",
   "properties": {
    "id": "BLD-044",
    "layer": "BUILDING_FOOTPRINT",
    "source_type": "agent_generated_design",
    "confidence": "medium",
    "geometry_role": "design_proposal",
    "area_sqm_declared": 19120.981,
    "bld_type_zh": "概念体量基底（非现状测绘）"
   },
   "geometry": {
    "type": "Polygon",
    "coordinates": [
     [
      [
       116.344067,
       39.992133
      ],
      [
       116.344067,
       39.992889
      ],
      [
       116.346734,
       39.992889
      ],
      [
       116.346734,
       39.992133
      ],
      [
       116.344067,
       39.992133
      ]
     ]
    ]
   }
  },
  {
   "type": "Feature",
   "id": "BLD-045",
   "properties": {
    "id": "BLD-045",
    "layer": "BUILDING_FOOTPRINT",
    "source_type": "agent_generated_design",
    "confidence": "medium",
    "geometry_role": "design_proposal",
    "area_sqm_declared": 18721.784,
    "bld_type_zh": "概念体量基底（非现状测绘）"
   },
   "geometry": {
    "type": "Polygon",
    "coordinates": [
     [
      [
       116.3467,
       39.992133
      ],
      [
       116.3467,
       39.992892
      ],
      [
       116.349301,
       39.992892
      ],
      [
       116.349301,
       39.992133
      ],
      [
       116.3467,
       39.992133
      ]
     ]
    ]
   }
  },
  {
   "type": "Feature",
   "id": "BLD-046",
   "properties": {
    "id": "BLD-046",
    "layer": "BUILDING_FOOTPRINT",
    "source_type": "agent_generated_design",
    "confidence": "medium",
    "geometry_role": "design_proposal",
    "area_sqm_declared": 132537.351,
    "bld_type_zh": "概念体量基底（非现状测绘）"
   },
   "geometry": {
    "type": "Polygon",
    "coordinates": [
     [
      [
       116.342373,
       40.006838
      ],
      [
       116.342373,
       40.013152
      ],
      [
       116.344587,
       40.013152
      ],
      [
       116.344587,
       40.006838
      ],
      [
       116.342373,
       40.006838
      ]
     ]
    ]
   }
  },
  {
   "type": "Feature",
   "id": "BLD-047",
   "properties": {
    "id": "BLD-047",
    "layer": "BUILDING_FOOTPRINT",
    "source_type": "agent_generated_design",
    "confidence": "medium",
    "geometry_role": "design_proposal",
    "area_sqm_declared": 128065.29,
    "bld_type_zh": "概念体量基底（非现状测绘）"
   },
   "geometry": {
    "type": "Polygon",
    "coordinates": [
     [
      [
       116.344907,
       40.0066
      ],
      [
       116.344907,
       40.012614
      ],
      [
       116.347153,
       40.012614
      ],
      [
       116.347153,
       40.0066
      ],
      [
       116.344907,
       40.0066
      ]
     ]
    ]
   }
  },
  {
   "type": "Feature",
   "id": "BLD-048",
   "properties": {
    "id": "BLD-048",
    "layer": "BUILDING_FOOTPRINT",
    "source_type": "agent_generated_design",
    "confidence": "medium",
    "geometry_role": "design_proposal",
    "area_sqm_declared": 133053.002,
    "bld_type_zh": "概念体量基底（非现状测绘）"
   },
   "geometry": {
    "type": "Polygon",
    "coordinates": [
     [
      [
       116.347102,
       40.007369
      ],
      [
       116.347102,
       40.013418
      ],
      [
       116.349422,
       40.013418
      ],
      [
       116.349422,
       40.007369
      ],
      [
       116.347102,
       40.007369
      ]
     ]
    ]
   }
  },
  {
   "type": "Feature",
   "id": "BLD-049",
   "properties": {
    "id": "BLD-049",
    "layer": "BUILDING_FOOTPRINT",
    "source_type": "agent_generated_design",
    "confidence": "medium",
    "geometry_role": "design_proposal",
    "area_sqm_declared": 129962.605,
    "bld_type_zh": "概念体量基底（非现状测绘）"
   },
   "geometry": {
    "type": "Polygon",
    "coordinates": [
     [
      [
       116.342373,
       40.013033
      ],
      [
       116.342373,
       40.019022
      ],
      [
       116.344662,
       40.019022
      ],
      [
       116.344662,
       40.013033
      ],
      [
       116.342373,
       40.013033
      ]
     ]
    ]
   }
  },
  {
   "type": "Feature",
   "id": "BLD-050",
   "properties": {
    "id": "BLD-050",
    "layer": "BUILDING_FOOTPRINT",
    "source_type": "agent_generated_design",
    "confidence": "medium",
    "geometry_role": "design_proposal",
    "area_sqm_declared": 130933.232,
    "bld_type_zh": "概念体量基底（非现状测绘）"
   },
   "geometry": {
    "type": "Polygon",
    "coordinates": [
     [
      [
       116.345049,
       40.013033
      ],
      [
       116.345049,
       40.019383
      ],
      [
       116.347224,
       40.019383
      ],
      [
       116.347224,
       40.013033
      ],
      [
       116.345049,
       40.013033
      ]
     ]
    ]
   }
  },
  {
   "type": "Feature",
   "id": "BLD-051",
   "properties": {
    "id": "BLD-051",
    "layer": "BUILDING_FOOTPRINT",
    "source_type": "agent_generated_design",
    "confidence": "medium",
    "geometry_role": "design_proposal",
    "area_sqm_declared": 132301.801,
    "bld_type_zh": "概念体量基底（非现状测绘）"
   },
   "geometry": {
    "type": "Polygon",
    "coordinates": [
     [
      [
       116.347265,
       40.013433
      ],
      [
       116.347265,
       40.019666
      ],
      [
       116.349504,
       40.019666
      ],
      [
       116.349504,
       40.013433
      ],
      [
       116.347265,
       40.013433
      ]
     ]
    ]
   }
  },
  {
   "type": "Feature",
   "id": "BLD-052",
   "properties": {
    "id": "BLD-052",
    "layer": "BUILDING_FOOTPRINT",
    "source_type": "agent_generated_design",
    "confidence": "medium",
    "geometry_role": "design_proposal",
    "area_sqm_declared": 121189.735,
    "bld_type_zh": "概念体量基底（非现状测绘）"
   },
   "geometry": {
    "type": "Polygon",
    "coordinates": [
     [
      [
       116.344689,
       40.026363
      ],
      [
       116.344689,
       40.020393
      ],
      [
       116.342402,
       40.020393
      ],
      [
       116.342693,
       40.026363
      ],
      [
       116.344689,
       40.026363
      ]
     ]
    ]
   }
  },
  {
   "type": "Feature",
   "id": "BLD-053",
   "properties": {
    "id": "BLD-053",
    "layer": "BUILDING_FOOTPRINT",
    "source_type": "agent_generated_design",
    "confidence": "medium",
    "geometry_role": "design_proposal",
    "area_sqm_declared": 124900.935,
    "bld_type_zh": "概念体量基底（非现状测绘）"
   },
   "geometry": {
    "type": "Polygon",
    "coordinates": [
     [
      [
       116.345024,
       40.019467
      ],
      [
       116.345024,
       40.025489
      ],
      [
       116.347212,
       40.025489
      ],
      [
       116.347212,
       40.019467
      ],
      [
       116.345024,
       40.019467
      ]
     ]
    ]
   }
  },
  {
   "type": "Feature",
   "id": "BLD-054",
   "properties": {
    "id": "BLD-054",
    "layer": "BUILDING_FOOTPRINT",
    "source_type": "agent_generated_design",
    "confidence": "medium",
    "geometry_role": "design_proposal",
    "area_sqm_declared": 124711.4,
    "bld_type_zh": "概念体量基底（非现状测绘）"
   },
   "geometry": {
    "type": "Polygon",
    "coordinates": [
     [
      [
       116.347058,
       40.020263
      ],
      [
       116.347058,
       40.026298
      ],
      [
       116.349238,
       40.026298
      ],
      [
       116.349238,
       40.020263
      ],
      [
       116.347058,
       40.020263
      ]
     ]
    ]
   }
  }
 ]
}