{
 "type": "FeatureCollection",
 "features": [
  {
   "type": "Feature",
   "id": "CON-001",
   "properties": {
    "id": "CON-001",
    "layer": "HERITAGE_PROTECTION",
    "constraint_type": "heritage_corridor",
    "name_zh": "京张铁路遗址走廊（示意）",
    "source_type": "agent_inferred_from_public_data",
    "confidence": "low",
    "geometry_role": "existing_condition",
    "usage_note": "仅示意走向；精确文保控制线须以文物部门资料核实。"
   },
   "geometry": {
    "type": "LineString",
    "coordinates": [
     [
      116.3435,
      39.942
     ],
     [
      116.3445,
      39.958
     ],
     [
      116.344,
      39.976
     ],
     [
      116.3446,
      39.992
     ],
     [
      116.3452,
      40.008
     ],
     [
      116.346,
      40.022
     ]
    ]
   }
  },
  {
   "type": "Feature",
   "id": "CON-002",
   "properties": {
    "id": "CON-002",
    "layer": "HERITAGE_PROTECTION",
    "constraint_type": "heritage_site",
    "name_zh": "清华园车站旧址（位置示意）",
    "source_type": "agent_inferred_from_public_data",
    "confidence": "low",
    "geometry_role": "existing_condition",
    "usage_note": "位置为公开常识示意，保护范围以文物部门公布为准。"
   },
   "geometry": {
    "type": "Point",
    "coordinates": [
     116.3452,
     39.9925
    ]
   }
  },
  {
   "type": "Feature",
   "id": "CON-003",
   "properties": {
    "id": "CON-003",
    "layer": "EXISTING_WATER",
    "constraint_type": "water_blue_line",
    "name_zh": "小月河蓝线（示意）",
    "source_type": "agent_inferred_from_public_data",
    "confidence": "low",
    "geometry_role": "existing_condition",
    "usage_note": "蓝线走向示意；工程与蓝线管控以水务部门资料为准。"
   },
   "geometry": {
    "type": "LineString",
    "coordinates": [
     [
      116.3407,
      39.956
     ],
     [
      116.343,
      39.964
     ],
     [
      116.3445,
      39.972
     ]
    ]
   }
  }
 ]
}