{
 "type": "FeatureCollection",
 "features": [
  {
   "type": "Feature",
   "id": "GRN-001",
   "properties": {
    "id": "GRN-001",
    "layer": "GREEN_SPACE",
    "source_type": "agent_generated_design",
    "confidence": "medium",
    "geometry_role": "design_proposal",
    "area_sqm_declared": 1108510.68,
    "name_zh": "小月河滨水绿带（场景赋能翼）"
   },
   "geometry": {
    "type": "Polygon",
    "coordinates": [
     [
      [
       116.3407,
       39.955
      ],
      [
       116.3407,
       39.9835
      ],
      [
       116.3448,
       39.9835
      ],
      [
       116.3448,
       39.955
      ],
      [
       116.3407,
       39.955
      ]
     ]
    ]
   }
  },
  {
   "type": "Feature",
   "id": "GRN-002",
   "properties": {
    "id": "GRN-002",
    "layer": "GREEN_SPACE",
    "source_type": "agent_generated_design",
    "confidence": "medium",
    "geometry_role": "design_proposal",
    "area_sqm_declared": 775146.527,
    "name_zh": "清河南岸绿带"
   },
   "geometry": {
    "type": "Polygon",
    "coordinates": [
     [
      [
       116.354944,
       40.02
      ],
      [
       116.342383,
       40.02
      ],
      [
       116.3427,
       40.0265
      ],
      [
       116.3553,
       40.0265
      ],
      [
       116.354944,
       40.02
      ]
     ]
    ]
   }
  },
  {
   "type": "Feature",
   "id": "GRN-003",
   "properties": {
    "id": "GRN-003",
    "layer": "GREEN_SPACE",
    "source_type": "agent_generated_design",
    "confidence": "medium",
    "geometry_role": "design_proposal",
    "area_sqm_declared": 1335430.333,
    "name_zh": "京张遗址公园合辙活力脉绿带"
   },
   "geometry": {
    "type": "Polygon",
    "coordinates": [
     [
      [
       116.344,
       39.962
      ],
      [
       116.344,
       40.006
      ],
      [
       116.3472,
       40.006
      ],
      [
       116.3472,
       39.962
      ],
      [
       116.344,
       39.962
      ]
     ]
    ]
   }
  },
  {
   "type": "Feature",
   "id": "GRN-004",
   "properties": {
    "id": "GRN-004",
    "layer": "GREEN_SPACE",
    "source_type": "agent_generated_design",
    "confidence": "medium",
    "geometry_role": "design_proposal",
    "area_sqm_declared": 56882.465,
    "name_zh": "合辙试场口袋公园"
   },
   "geometry": {
    "type": "Polygon",
    "coordinates": [
     [
      [
       116.3495,
       40.013
      ],
      [
       116.3495,
       40.016
      ],
      [
       116.3515,
       40.016
      ],
      [
       116.3515,
       40.013
      ],
      [
       116.3495,
       40.013
      ]
     ]
    ]
   }
  },
  {
   "type": "Feature",
   "id": "GRN-005",
   "properties": {
    "id": "GRN-005",
    "layer": "GREEN_SPACE",
    "source_type": "agent_generated_design",
    "confidence": "medium",
    "geometry_role": "design_proposal",
    "area_sqm_declared": 56904.692,
    "name_zh": "合辙学园疗愈花园"
   },
   "geometry": {
    "type": "Polygon",
    "coordinates": [
     [
      [
       116.3435,
       39.986
      ],
      [
       116.3435,
       39.989
      ],
      [
       116.3455,
       39.989
      ],
      [
       116.3455,
       39.986
      ],
      [
       116.3435,
       39.986
      ]
     ]
    ]
   }
  }
 ]
}