{
  "type": "FeatureCollection",
  "features": [
    {
      "type": "Feature",
      "id": "LU-001",
      "properties": {
        "id": "LU-001",
        "layer": "LAND_USE",
        "source_type": "agent_generated_design",
        "confidence": "medium",
        "geometry_role": "design_proposal",
        "area_sqm_declared": 228224.741,
        "land_use_code": "07",
        "name_zh": "居住用地",
        "name_en_note": "MNR 2023 classification subset",
        "name_en": "Residential land",
        "classification_standard": "MNR 2023 numeric code system (自然资发〔2023〕234号 project subset)"
      },
      "geometry": {
        "type": "Polygon",
        "coordinates": [
          [
            [
              116.34066799999998,
              39.9525
            ],
            [
              116.34070000000001,
              39.952499999999986
            ],
            [
              116.34089400000002,
              39.952499999999986
            ],
            [
              116.34131299999999,
              39.952499999999986
            ],
            [
              116.34169999999999,
              39.9525
            ],
            [
              116.341773,
              39.95249999999999
            ],
            [
              116.34270000000001,
              39.9525
            ],
            [
              116.3455,
              39.95249999999999
            ],
            [
              116.348,
              39.95249999999999
            ],
            [
              116.348,
              39.94984
            ],
            [
              116.3455,
              39.94983999999999
            ],
            [
              116.34270000000001,
              39.94984
            ],
            [
              116.341773,
              39.94984
            ],
            [
              116.34169999999999,
              39.94984
            ],
            [
              116.34131299999999,
              39.94983999999998
            ],
            [
              116.34089400000002,
              39.94984
            ],
            [
              116.34089400000003,
              39.93900001205315
            ],
            [
              116.34070000000001,
              39.93899999999999
            ],
            [
              116.34068991555536,
              39.93936327631728
            ],
            [
              116.34032515405839,
              39.952500000000036
            ],
            [
              116.34039900000002,
              39.95249999999999
            ],
            [
              116.34066799999998,
              39.9525
            ]
          ]
        ]
      }
    },
    {
      "type": "Feature",
      "id": "LU-002",
      "properties": {
        "id": "LU-002",
        "layer": "LAND_USE",
        "source_type": "agent_generated_design",
        "confidence": "medium",
        "geometry_role": "design_proposal",
        "area_sqm_declared": 25279.264,
        "land_use_code": "07",
        "name_zh": "居住用地",
        "name_en_note": "MNR 2023 classification subset",
        "name_en": "Residential land",
        "classification_standard": "MNR 2023 numeric code system (自然资发〔2023〕234号 project subset)"
      },
      "geometry": {
        "type": "Polygon",
        "coordinates": [
          [
            [
              116.34070000000001,
              39.99049999999999
            ],
            [
              116.34070000000001,
              39.99
            ],
            [
              116.34089400000002,
              39.98999999999999
            ],
            [
              116.34089400000002,
              39.98349999999999
            ],
            [
              116.34070000000001,
              39.9835
            ],
            [
              116.34066799999998,
              39.9835
            ],
            [
              116.34039900000002,
              39.9835
            ],
            [
              116.34039900000002,
              39.98583500000001
            ],
            [
              116.34066799999998,
              39.98999999999999
            ],
            [
              116.34066799999998,
              39.990004000000006
            ],
            [
              116.34070000000001,
              39.99049999999999
            ]
          ]
        ]
      }
    },
    {
      "type": "Feature",
      "id": "LU-003",
      "properties": {
        "id": "LU-003",
        "layer": "LAND_USE",
        "source_type": "agent_generated_design",
        "confidence": "medium",
        "geometry_role": "design_proposal",
        "area_sqm_declared": 166841.456,
        "land_use_code": "07",
        "name_zh": "居住用地",
        "name_en_note": "MNR 2023 classification subset",
        "name_en": "Residential land",
        "classification_standard": "MNR 2023 numeric code system (自然资发〔2023〕234号 project subset)"
      },
      "geometry": {
        "type": "Polygon",
        "coordinates": [
          [
            [
              116.34169999999999,
              40.00600000000001
            ],
            [
              116.34177300000003,
              40.00749685958838
            ],
            [
              116.341773,
              40.00600000000002
            ],
            [
              116.34270000000001,
              40.006
            ],
            [
              116.34270000000001,
              40.0
            ],
            [
              116.34270000000001,
              39.9935
            ],
            [
              116.341773,
              39.99349999999999
            ],
            [
              116.34169999999999,
              39.99349999999999
            ],
            [
              116.34131299999999,
              39.99349999999998
            ],
            [
              116.34089400000002,
              39.99349999999998
            ],
            [
              116.34089400000002,
              39.993507
            ],
            [
              116.34131299999999,
              40.0
            ],
            [
              116.34131299999999,
              40.00000099999998
            ],
            [
              116.34169999999999,
              40.00600000000001
            ]
          ]
        ]
      }
    },
    {
      "type": "Feature",
      "id": "LU-004",
      "properties": {
        "id": "LU-004",
        "layer": "LAND_USE",
        "source_type": "agent_generated_design",
        "confidence": "medium",
        "geometry_role": "design_proposal",
        "area_sqm_declared": 1666204.827,
        "land_use_code": "09",
        "name_zh": "商业服务业用地",
        "name_en_note": "MNR 2023 classification subset",
        "name_en": "Commercial and service land",
        "classification_standard": "MNR 2023 numeric code system (自然资发〔2023〕234号 project subset)"
      },
      "geometry": {
        "type": "Polygon",
        "coordinates": [
          [
            [
              116.348,
              39.95249999999999
            ],
            [
              116.35,
              39.95249999999999
            ],
            [
              116.352,
              39.9525
            ],
            [
              116.3533,
              39.952499999999986
            ],
            [
              116.353492,
              39.9525
            ],
            [
              116.35382,
              39.952499999999986
            ],
            [
              116.35384800000001,
              39.95250000000001
            ],
            [
              116.35417700000002,
              39.952499999999986
            ],
            [
              116.35425900000001,
              39.9525
            ],
            [
              116.3545,
              39.952499999999986
            ],
            [
              116.3553,
              39.952499999999986
            ],
            [
              116.3553,
              39.94984
            ],
            [
              116.3553,
              39.939
            ],
            [
              116.34089400000003,
              39.93900001205315
            ],
            [
              116.34089400000002,
              39.94984
            ],
            [
              116.34131299999999,
              39.94983999999998
            ],
            [
              116.34169999999999,
              39.94984
            ],
            [
              116.341773,
              39.94984
            ],
            [
              116.34270000000001,
              39.94984
            ],
            [
              116.3455,
              39.94983999999999
            ],
            [
              116.348,
              39.94984
            ],
            [
              116.348,
              39.95249999999999
            ]
          ]
        ]
      }
    },
    {
      "type": "Feature",
      "id": "LU-005",
      "properties": {
        "id": "LU-005",
        "layer": "LAND_USE",
        "source_type": "agent_generated_design",
        "confidence": "medium",
        "geometry_role": "design_proposal",
        "area_sqm_declared": 112716.027,
        "land_use_code": "09",
        "name_zh": "商业服务业用地",
        "name_en_note": "MNR 2023 classification subset",
        "name_en": "Commercial and service land",
        "classification_standard": "MNR 2023 numeric code system (自然资发〔2023〕234号 project subset)"
      },
      "geometry": {
        "type": "Polygon",
        "coordinates": [
          [
            [
              116.35349169920853,
              39.99350000000024
            ],
            [
              116.3533,
              39.989999999999995
            ],
            [
              116.3533,
              39.989999999999995
            ],
            [
              116.352,
              39.99
            ],
            [
              116.35,
              39.99
            ],
            [
              116.35,
              39.99349999999998
            ],
            [
              116.352,
              39.99349999999999
            ],
            [
              116.3533,
              39.9935
            ],
            [
              116.35349169920853,
              39.99350000000024
            ]
          ]
        ]
      }
    },
    {
      "type": "Feature",
      "id": "LU-006",
      "properties": {
        "id": "LU-006",
        "layer": "LAND_USE",
        "source_type": "agent_generated_design",
        "confidence": "medium",
        "geometry_role": "design_proposal",
        "area_sqm_declared": 812349.616,
        "land_use_code": "09",
        "name_zh": "商业服务业用地",
        "name_en_note": "MNR 2023 classification subset",
        "name_en": "Commercial and service land",
        "classification_standard": "MNR 2023 numeric code system (自然资发〔2023〕234号 project subset)"
      },
      "geometry": {
        "type": "Polygon",
        "coordinates": [
          [
            [
              116.35,
              40.026500000000006
            ],
            [
              116.352,
              40.0265
            ],
            [
              116.3533,
              40.0265
            ],
            [
              116.353492,
              40.026499999999984
            ],
            [
              116.35382,
              40.026499999999984
            ],
            [
              116.35384800000001,
              40.02649999999999
            ],
            [
              116.35417700000002,
              40.02650000000001
            ],
            [
              116.35417700000002,
              40.0075
            ],
            [
              116.3542586690726,
              40.007500000000114
            ],
            [
              116.35417648048221,
              40.006000000000725
            ],
            [
              116.35384800000001,
              40.006
            ],
            [
              116.35382,
              40.006000000000014
            ],
            [
              116.353492,
              40.006000000000014
            ],
            [
              116.3533,
              40.006
            ],
            [
              116.352,
              40.00600000000002
            ],
            [
              116.35,
              40.00600000000001
            ],
            [
              116.35,
              40.00749999999999
            ],
            [
              116.35,
              40.026500000000006
            ]
          ]
        ]
      }
    },
    {
      "type": "Feature",
      "id": "LU-007",
      "properties": {
        "id": "LU-007",
        "layer": "LAND_USE",
        "source_type": "agent_generated_design",
        "confidence": "medium",
        "geometry_role": "design_proposal",
        "area_sqm_declared": 2017737.218,
        "land_use_code": "14",
        "name_zh": "绿地与开敞空间用地",
        "name_en_note": "MNR 2023 classification subset",
        "name_en": "Green and open space land",
        "classification_standard": "MNR 2023 numeric code system (自然资发〔2023〕234号 project subset)"
      },
      "geometry": {
        "type": "Polygon",
        "coordinates": [
          [
            [
              116.34169999999999,
              39.965
            ],
            [
              116.341773,
              39.965
            ],
            [
              116.34270000000001,
              39.96500000000001
            ],
            [
              116.3455,
              39.96500000000002
            ],
            [
              116.348,
              39.965
            ],
            [
              116.35,
              39.965
            ],
            [
              116.352,
              39.96500000000001
            ],
            [
              116.3533,
              39.96499999999999
            ],
            [
              116.3533,
              39.975
            ],
            [
              116.3533,
              39.983499999999985
            ],
            [
              116.353492,
              39.98349999999999
            ],
            [
              116.35382,
              39.9835
            ],
            [
              116.35384800000001,
              39.98314999999999
            ],
            [
              116.35417700000002,
              39.979037
            ],
            [
              116.35425900000001,
              39.978013000000004
            ],
            [
              116.3545,
              39.97499999999999
            ],
            [
              116.3553,
              39.965
            ],
            [
              116.3553,
              39.952499999999986
            ],
            [
              116.3545,
              39.952499999999986
            ],
            [
              116.35425900000001,
              39.9525
            ],
            [
              116.35417700000002,
              39.952499999999986
            ],
            [
              116.35384800000001,
              39.95250000000001
            ],
            [
              116.35382,
              39.952499999999986
            ],
            [
              116.353492,
              39.9525
            ],
            [
              116.3533,
              39.952499999999986
            ],
            [
              116.352,
              39.9525
            ],
            [
              116.35,
              39.95249999999999
            ],
            [
              116.348,
              39.95249999999999
            ],
            [
              116.3455,
              39.95249999999999
            ],
            [
              116.34270000000001,
              39.9525
            ],
            [
              116.341773,
              39.95249999999999
            ],
            [
              116.34169999999999,
              39.9525
            ],
            [
              116.34131299999999,
              39.952499999999986
            ],
            [
              116.34089400000002,
              39.952499999999986
            ],
            [
              116.34070000000001,
              39.952499999999986
            ],
            [
              116.34066799999998,
              39.9525
            ],
            [
              116.34039900000002,
              39.95249999999999
            ],
            [
              116.34032515405839,
              39.952500000000036
            ],
            [
              116.34006907696129,
              39.961718739794506
            ],
            [
              116.339978,
              39.96499674953664
            ],
            [
              116.339978,
              39.965
            ],
            [
              116.340248,
              39.964999999999996
            ],
            [
              116.340325,
              39.96500000000001
            ],
            [
              116.34039900000002,
              39.965
            ],
            [
              116.34066799999998,
              39.965
            ],
            [
              116.34070000000001,
              39.96500000000002
            ],
            [
              116.34089400000002,
              39.965
            ],
            [
              116.34131299999999,
              39.96499999999999
            ],
            [
              116.34169999999999,
              39.965
            ]
          ]
        ]
      }
    },
    {
      "type": "Feature",
      "id": "LU-008",
      "properties": {
        "id": "LU-008",
        "layer": "LAND_USE",
        "source_type": "agent_generated_design",
        "confidence": "medium",
        "geometry_role": "design_proposal",
        "area_sqm_declared": 2353033.953,
        "land_use_code": "1207",
        "name_zh": "城镇村道路用地",
        "name_en_note": "MNR 2023 classification subset",
        "name_en": "Urban and rural road land",
        "classification_standard": "MNR 2023 numeric code system (自然资发〔2023〕234号 project subset)"
      },
      "geometry": {
        "type": "Polygon",
        "coordinates": [
          [
            [
              116.34039900000002,
              39.965
            ],
            [
              116.340325,
              39.96500000000001
            ],
            [
              116.340248,
              39.964999999999996
            ],
            [
              116.339978,
              39.965
            ],
            [
              116.3397,
              39.975
            ],
            [
              116.339978,
              39.979309
            ],
            [
              116.340248,
              39.983494
            ],
            [
              116.340248,
              39.98349651064173
            ],
            [
              116.34029512874577,
              39.98422713362253
            ],
            [
              116.340325,
              39.98468800000001
            ],
            [
              116.34039900000002,
              39.98583500000001
            ],
            [
              116.34039900000002,
              39.9835
            ],
            [
              116.34066799999998,
              39.9835
            ],
            [
              116.34070000000001,
              39.9835
            ],
            [
              116.34089400000002,
              39.98349999999999
            ],
            [
              116.34131299999999,
              39.98349999999999
            ],
            [
              116.34169999999999,
              39.98350000000001
            ],
            [
              116.341773,
              39.9835
            ],
            [
              116.34270000000001,
              39.9835
            ],
            [
              116.3455,
              39.983499999999985
            ],
            [
              116.348,
              39.98350000000001
            ],
            [
              116.35,
              39.9835
            ],
            [
              116.352,
              39.98349999999999
            ],
            [
              116.3533,
              39.983499999999985
            ],
            [
              116.3533,
              39.975
            ],
            [
              116.3533,
              39.96499999999999
            ],
            [
              116.352,
              39.96500000000001
            ],
            [
              116.35,
              39.965
            ],
            [
              116.348,
              39.965
            ],
            [
              116.3455,
              39.96500000000002
            ],
            [
              116.34270000000001,
              39.96500000000001
            ],
            [
              116.341773,
              39.965
            ],
            [
              116.34169999999999,
              39.965
            ],
            [
              116.34131299999999,
              39.96499999999999
            ],
            [
              116.34089400000002,
              39.965
            ],
            [
              116.34070000000001,
              39.96500000000002
            ],
            [
              116.34066799999998,
              39.965
            ],
            [
              116.34039900000002,
              39.965
            ]
          ]
        ]
      }
    },
    {
      "type": "Feature",
      "id": "LU-009",
      "properties": {
        "id": "LU-009",
        "layer": "LAND_USE",
        "source_type": "agent_generated_design",
        "confidence": "medium",
        "geometry_role": "design_proposal",
        "area_sqm_declared": 1319724.716,
        "land_use_code": "1207",
        "name_zh": "城镇村道路用地",
        "name_en_note": "MNR 2023 classification subset",
        "name_en": "Urban and rural road land",
        "classification_standard": "MNR 2023 numeric code system (自然资发〔2023〕234号 project subset)"
      },
      "geometry": {
        "type": "Polygon",
        "coordinates": [
          [
            [
              116.348,
              40.00600000000002
            ],
            [
              116.35,
              40.00600000000001
            ],
            [
              116.352,
              40.00600000000002
            ],
            [
              116.3533,
              40.006
            ],
            [
              116.353492,
              40.006000000000014
            ],
            [
              116.35382,
              40.006000000000014
            ],
            [
              116.35384800000001,
              40.006
            ],
            [
              116.35417648048221,
              40.006000000000725
            ],
            [
              116.35349169920853,
              39.99350000000024
            ],
            [
              116.3533,
              39.9935
            ],
            [
              116.352,
              39.99349999999999
            ],
            [
              116.35,
              39.99349999999998
            ],
            [
              116.348,
              39.99349999999998
            ],
            [
              116.3455,
              39.9935
            ],
            [
              116.34270000000001,
              39.9935
            ],
            [
              116.34270000000001,
              40.0
            ],
            [
              116.34270000000001,
              40.006
            ],
            [
              116.3455,
              40.006
            ],
            [
              116.348,
              40.00600000000002
            ]
          ]
        ]
      }
    },
    {
      "type": "Feature",
      "id": "LU-010",
      "properties": {
        "id": "LU-010",
        "layer": "LAND_USE",
        "source_type": "agent_generated_design",
        "confidence": "medium",
        "geometry_role": "design_proposal",
        "area_sqm_declared": 780826.039,
        "land_use_code": "0803",
        "name_zh": "文化用地",
        "name_en_note": "MNR 2023 classification subset",
        "name_en": "Cultural land",
        "classification_standard": "MNR 2023 numeric code system (自然资发〔2023〕234号 project subset)"
      },
      "geometry": {
        "type": "Polygon",
        "coordinates": [
          [
            [
              116.34270000000001,
              39.989999999999995
            ],
            [
              116.3455,
              39.98999999999999
            ],
            [
              116.348,
              39.99000000000001
            ],
            [
              116.35,
              39.99
            ],
            [
              116.352,
              39.99
            ],
            [
              116.3533,
              39.989999999999995
            ],
            [
              116.353492,
              39.9876
            ],
            [
              116.35382,
              39.9835
            ],
            [
              116.353492,
              39.98349999999999
            ],
            [
              116.3533,
              39.983499999999985
            ],
            [
              116.352,
              39.98349999999999
            ],
            [
              116.35,
              39.9835
            ],
            [
              116.348,
              39.98350000000001
            ],
            [
              116.3455,
              39.983499999999985
            ],
            [
              116.34270000000001,
              39.9835
            ],
            [
              116.341773,
              39.9835
            ],
            [
              116.34169999999999,
              39.98350000000001
            ],
            [
              116.34131299999999,
              39.98349999999999
            ],
            [
              116.34089400000002,
              39.98349999999999
            ],
            [
              116.34089400000002,
              39.98999999999999
            ],
            [
              116.34131299999999,
              39.99
            ],
            [
              116.34169999999999,
              39.989999999999995
            ],
            [
              116.341773,
              39.99
            ],
            [
              116.34270000000001,
              39.989999999999995
            ]
          ]
        ]
      }
    },
    {
      "type": "Feature",
      "id": "LU-011",
      "properties": {
        "id": "LU-011",
        "layer": "LAND_USE",
        "source_type": "agent_generated_design",
        "confidence": "medium",
        "geometry_role": "design_proposal",
        "area_sqm_declared": 305929.346,
        "land_use_code": "08",
        "name_zh": "公共管理与公共服务用地",
        "name_en_note": "MNR 2023 classification subset",
        "name_en": "Public administration and public services land",
        "classification_standard": "MNR 2023 numeric code system (自然资发〔2023〕234号 project subset)"
      },
      "geometry": {
        "type": "Polygon",
        "coordinates": [
          [
            [
              116.34169999999999,
              39.99349999999999
            ],
            [
              116.341773,
              39.99349999999999
            ],
            [
              116.34270000000001,
              39.9935
            ],
            [
              116.3455,
              39.9935
            ],
            [
              116.348,
              39.99349999999998
            ],
            [
              116.35,
              39.99349999999998
            ],
            [
              116.35,
              39.99
            ],
            [
              116.348,
              39.99000000000001
            ],
            [
              116.3455,
              39.98999999999999
            ],
            [
              116.34270000000001,
              39.989999999999995
            ],
            [
              116.341773,
              39.99
            ],
            [
              116.34169999999999,
              39.989999999999995
            ],
            [
              116.34131299999999,
              39.99
            ],
            [
              116.34089400000002,
              39.98999999999999
            ],
            [
              116.34070000000001,
              39.99
            ],
            [
              116.34070000000001,
              39.99049999999999
            ],
            [
              116.34089400000002,
              39.99349999999998
            ],
            [
              116.34131299999999,
              39.99349999999998
            ],
            [
              116.34169999999999,
              39.99349999999999
            ]
          ]
        ]
      }
    },
    {
      "type": "Feature",
      "id": "LU-012",
      "properties": {
        "id": "LU-012",
        "layer": "LAND_USE",
        "source_type": "agent_generated_design",
        "confidence": "medium",
        "geometry_role": "design_proposal",
        "area_sqm_declared": 1515377.207,
        "land_use_code": "08",
        "name_zh": "公共管理与公共服务用地",
        "name_en_note": "MNR 2023 classification subset",
        "name_en": "Public administration and public services land",
        "classification_standard": "MNR 2023 numeric code system (自然资发〔2023〕234号 project subset)"
      },
      "geometry": {
        "type": "Polygon",
        "coordinates": [
          [
            [
              116.348,
              40.0265
            ],
            [
              116.35,
              40.026500000000006
            ],
            [
              116.35,
              40.00749999999999
            ],
            [
              116.35,
              40.00600000000001
            ],
            [
              116.348,
              40.00600000000002
            ],
            [
              116.3455,
              40.006
            ],
            [
              116.34270000000001,
              40.006
            ],
            [
              116.341773,
              40.00600000000002
            ],
            [
              116.34177300000003,
              40.00749685958838
            ],
            [
              116.34270000000001,
              40.0265
            ],
            [
              116.3455,
              40.0265
            ],
            [
              116.348,
              40.0265
            ]
          ]
        ]
      }
    },
    {
      "type": "Feature",
      "id": "LU-013",
      "properties": {
        "id": "LU-013",
        "layer": "LAND_USE",
        "source_type": "agent_generated_design",
        "confidence": "medium",
        "geometry_role": "design_proposal",
        "area_sqm_declared": 108480.175,
        "land_use_code": "1401",
        "name_zh": "公园绿地",
        "name_en_note": "MNR 2023 classification subset",
        "name_en": "Park green space",
        "classification_standard": "MNR 2023 numeric code system (自然资发〔2023〕234号 project subset)"
      },
      "geometry": {
        "type": "Polygon",
        "coordinates": [
          [
            [
              116.35417700000002,
              40.02650000000001
            ],
            [
              116.35425900000001,
              40.0265
            ],
            [
              116.3545,
              40.026500000000006
            ],
            [
              116.3553,
              40.0265
            ],
            [
              116.3542586690726,
              40.007500000000114
            ],
            [
              116.35417700000002,
              40.0075
            ],
            [
              116.35417700000002,
              40.02650000000001
            ]
          ]
        ]
      }
    }
  ]
}
