{
 "type": "FeatureCollection",
 "features": [
  {
   "type": "Feature",
   "id": "PH-001",
   "properties": {
    "id": "PH-001",
    "layer": "PHASE",
    "source_type": "agent_generated_design",
    "confidence": "medium",
    "geometry_role": "design_proposal",
    "area_sqm_declared": 1594087.441,
    "phase_id": "phase_near",
    "name_zh": "近期试点（2026-2028）：三处交接站试点+绿波示范段",
    "timing_note": "分期为概念建议，不构成开发时序承诺。"
   },
   "geometry": {
    "type": "Polygon",
    "coordinates": [
     [
      [
       116.344,
       39.944
      ],
      [
       116.344,
       39.965
      ],
      [
       116.352,
       39.965
      ],
      [
       116.352,
       39.944
      ],
      [
       116.344,
       39.944
      ]
     ]
    ]
   }
  },
  {
   "type": "Feature",
   "id": "PH-002",
   "properties": {
    "id": "PH-002",
    "layer": "PHASE",
    "source_type": "agent_generated_design",
    "confidence": "medium",
    "geometry_role": "design_proposal",
    "area_sqm_declared": 2973621.394,
    "phase_id": "phase_mid",
    "name_zh": "中期成网（2028-2030）：双环贯通+九站网络成型",
    "timing_note": "分期为概念建议，不构成开发时序承诺。"
   },
   "geometry": {
    "type": "Polygon",
    "coordinates": [
     [
      [
       116.342,
       39.965
      ],
      [
       116.342,
       39.9935
      ],
      [
       116.353,
       39.9935
      ],
      [
       116.353,
       39.965
      ],
      [
       116.342,
       39.965
      ]
     ]
    ]
   }
  },
  {
   "type": "Feature",
   "id": "PH-003",
   "properties": {
    "id": "PH-003",
    "layer": "PHASE",
    "source_type": "agent_generated_design",
    "confidence": "medium",
    "geometry_role": "design_proposal",
    "area_sqm_declared": 3922799.348,
    "phase_id": "phase_long",
    "name_zh": "远期全面合辙（2030-2035）：全域人机协作城区",
    "timing_note": "分期为概念建议，不构成开发时序承诺。"
   },
   "geometry": {
    "type": "Polygon",
    "coordinates": [
     [
      [
       116.3553,
       40.0265
      ],
      [
       116.353492,
       39.9935
      ],
      [
       116.340894,
       39.9935
      ],
      [
       116.3417,
       40.006
      ],
      [
       116.3427,
       40.0265
      ],
      [
       116.3553,
       40.0265
      ]
     ]
    ]
   }
  }
 ]
}