{
 "type": "FeatureCollection",
 "features": [
  {
   "type": "Feature",
   "id": "PUB-001",
   "properties": {
    "id": "PUB-001",
    "layer": "PUBLIC_SPACE",
    "source_type": "agent_generated_design",
    "confidence": "medium",
    "geometry_role": "design_proposal",
    "area_sqm_declared": 119494.197,
    "name_zh": "百年道岔广场（朝圣地标）"
   },
   "geometry": {
    "type": "Polygon",
    "coordinates": [
     [
      [
       116.3452,
       39.9885
      ],
      [
       116.3452,
       39.993
      ],
      [
       116.348,
       39.993
      ],
      [
       116.348,
       39.9885
      ],
      [
       116.3452,
       39.9885
      ]
     ]
    ]
   }
  },
  {
   "type": "Feature",
   "id": "PUB-002",
   "properties": {
    "id": "PUB-002",
    "layer": "PUBLIC_SPACE",
    "source_type": "agent_generated_design",
    "confidence": "medium",
    "geometry_role": "design_proposal",
    "area_sqm_declared": 62582.493,
    "name_zh": "人机交接总站前广场"
   },
   "geometry": {
    "type": "Polygon",
    "coordinates": [
     [
      [
       116.346,
       40.0
      ],
      [
       116.346,
       40.003
      ],
      [
       116.3482,
       40.003
      ],
      [
       116.3482,
       40.0
      ],
      [
       116.346,
       40.0
      ]
     ]
    ]
   }
  },
  {
   "type": "Feature",
   "id": "PUB-003",
   "properties": {
    "id": "PUB-003",
    "layer": "PUBLIC_SPACE",
    "source_type": "agent_generated_design",
    "confidence": "medium",
    "geometry_role": "design_proposal",
    "area_sqm_declared": 52137.94,
    "name_zh": "守望塔无人机巢公共观景台"
   },
   "geometry": {
    "type": "Polygon",
    "coordinates": [
     [
      [
       116.349,
       40.019
      ],
      [
       116.349,
       40.0215
      ],
      [
       116.3512,
       40.0215
      ],
      [
       116.3512,
       40.019
      ],
      [
       116.349,
       40.019
      ]
     ]
    ]
   }
  },
  {
   "type": "Feature",
   "id": "PUB-004",
   "properties": {
    "id": "PUB-004",
    "layer": "PUBLIC_SPACE",
    "source_type": "agent_generated_design",
    "confidence": "medium",
    "geometry_role": "design_proposal",
    "area_sqm_declared": 59310.034,
    "name_zh": "绿波光带路口·大钟寺四象限步行连通"
   },
   "geometry": {
    "type": "Polygon",
    "coordinates": [
     [
      [
       116.347,
       39.946
      ],
      [
       116.347,
       39.9485
      ],
      [
       116.3495,
       39.9485
      ],
      [
       116.3495,
       39.946
      ],
      [
       116.347,
       39.946
      ]
     ]
    ]
   }
  },
  {
   "type": "Feature",
   "id": "PUB-005",
   "properties": {
    "id": "PUB-005",
    "layer": "PUBLIC_SPACE",
    "source_type": "agent_generated_design",
    "confidence": "medium",
    "geometry_role": "design_proposal",
    "area_sqm_declared": 142303.803,
    "name_zh": "滨水步道开放段（小月河）"
   },
   "geometry": {
    "type": "Polygon",
    "coordinates": [
     [
      [
       116.3415,
       39.964
      ],
      [
       116.3415,
       39.97
      ],
      [
       116.344,
       39.97
      ],
      [
       116.344,
       39.964
      ],
      [
       116.3415,
       39.964
      ]
     ]
    ]
   }
  },
  {
   "type": "Feature",
   "id": "PUB-006",
   "properties": {
    "id": "PUB-006",
    "layer": "PUBLIC_SPACE",
    "source_type": "agent_generated_design",
    "confidence": "medium",
    "geometry_role": "design_proposal",
    "area_sqm_declared": 66397.204,
    "name_zh": "社区合辙园地（西居住片区）"
   },
   "geometry": {
    "type": "Polygon",
    "coordinates": [
     [
      [
       116.3418,
       39.977
      ],
      [
       116.3418,
       39.9805
      ],
      [
       116.3438,
       39.9805
      ],
      [
       116.3438,
       39.977
      ],
      [
       116.3418,
       39.977
      ]
     ]
    ]
   }
  }
 ]
}