{
 "type": "FeatureCollection",
 "features": [
  {
   "type": "Feature",
   "id": "RD-001",
   "properties": {
    "id": "RD-001",
    "layer": "ROAD_CENTERLINE",
    "road_class": "arterial",
    "name_zh": "北五环路（南侧辅道范围线）",
    "source_type": "agent_inferred_from_public_data",
    "confidence": "low",
    "geometry_role": "existing_condition",
    "length_m_declared": 1256.0,
    "usage_note": "现状道路仅为公开资料粗略示意，不代表道路红线；规划线路为概念建议。"
   },
   "geometry": {
    "type": "LineString",
    "coordinates": [
     [
      116.3407,
      40.0265
     ],
     [
      116.348,
      40.0272
     ],
     [
      116.3553,
      40.0265
     ]
    ]
   }
  },
  {
   "type": "Feature",
   "id": "RD-002",
   "properties": {
    "id": "RD-002",
    "layer": "ROAD_CENTERLINE",
    "road_class": "arterial",
    "name_zh": "京藏高速（G6辅线）",
    "source_type": "agent_inferred_from_public_data",
    "confidence": "low",
    "geometry_role": "existing_condition",
    "length_m_declared": 9718.1,
    "usage_note": "现状道路仅为公开资料粗略示意，不代表道路红线；规划线路为概念建议。"
   },
   "geometry": {
    "type": "LineString",
    "coordinates": [
     [
      116.3553,
      39.939
     ],
     [
      116.356,
      39.965
     ],
     [
      116.3565,
      39.99
     ],
     [
      116.3553,
      40.0265
     ]
    ]
   }
  },
  {
   "type": "Feature",
   "id": "RD-003",
   "properties": {
    "id": "RD-003",
    "layer": "ROAD_CENTERLINE",
    "road_class": "arterial",
    "name_zh": "学院路—西土城路",
    "source_type": "agent_inferred_from_public_data",
    "confidence": "low",
    "geometry_role": "existing_condition",
    "length_m_declared": 9722.5,
    "usage_note": "现状道路仅为公开资料粗略示意，不代表道路红线；规划线路为概念建议。"
   },
   "geometry": {
    "type": "LineString",
    "coordinates": [
     [
      116.3553,
      39.939
     ],
     [
      116.3548,
      39.962
     ],
     [
      116.3533,
      39.99
     ],
     [
      116.3553,
      40.0265
     ]
    ]
   }
  },
  {
   "type": "Feature",
   "id": "RD-004",
   "properties": {
    "id": "RD-004",
    "layer": "ROAD_CENTERLINE",
    "road_class": "arterial",
    "name_zh": "西直门外大街",
    "source_type": "agent_inferred_from_public_data",
    "confidence": "low",
    "geometry_role": "existing_condition",
    "length_m_declared": 1252.8,
    "usage_note": "现状道路仅为公开资料粗略示意，不代表道路红线；规划线路为概念建议。"
   },
   "geometry": {
    "type": "LineString",
    "coordinates": [
     [
      116.3407,
      39.939
     ],
     [
      116.348,
      39.9385
     ],
     [
      116.3553,
      39.939
     ]
    ]
   }
  },
  {
   "type": "Feature",
   "id": "RD-005",
   "properties": {
    "id": "RD-005",
    "layer": "ROAD_CENTERLINE",
    "road_class": "arterial",
    "name_zh": "中关村大街南延",
    "source_type": "agent_inferred_from_public_data",
    "confidence": "low",
    "geometry_role": "existing_condition",
    "length_m_declared": 9716.7,
    "usage_note": "现状道路仅为公开资料粗略示意，不代表道路红线；规划线路为概念建议。"
   },
   "geometry": {
    "type": "LineString",
    "coordinates": [
     [
      116.348,
      39.939
     ],
     [
      116.3475,
      39.962
     ],
     [
      116.348,
      39.99
     ],
     [
      116.3478,
      40.0075
     ],
     [
      116.348,
      40.0265
     ]
    ]
   }
  },
  {
   "type": "Feature",
   "id": "RD-006",
   "properties": {
    "id": "RD-006",
    "layer": "ROAD_CENTERLINE",
    "road_class": "secondary",
    "name_zh": "荷清路—大钟寺东路",
    "source_type": "agent_inferred_from_public_data",
    "confidence": "low",
    "geometry_role": "existing_condition",
    "length_m_declared": 1056.6,
    "usage_note": "现状道路仅为公开资料粗略示意，不代表道路红线；规划线路为概念建议。"
   },
   "geometry": {
    "type": "LineString",
    "coordinates": [
     [
      116.3407,
      39.975
     ],
     [
      116.347,
      39.9745
     ],
     [
      116.353,
      39.975
     ]
    ]
   }
  },
  {
   "type": "Feature",
   "id": "RD-007",
   "properties": {
    "id": "RD-007",
    "layer": "ROAD_CENTERLINE",
    "road_class": "secondary",
    "name_zh": "成府路—清华东路西口连线",
    "source_type": "agent_inferred_from_public_data",
    "confidence": "low",
    "geometry_role": "existing_condition",
    "length_m_declared": 996.8,
    "usage_note": "现状道路仅为公开资料粗略示意，不代表道路红线；规划线路为概念建议。"
   },
   "geometry": {
    "type": "LineString",
    "coordinates": [
     [
      116.3417,
      40.006
     ],
     [
      116.348,
      40.0055
     ],
     [
      116.3533,
      40.006
     ]
    ]
   }
  },
  {
   "type": "Feature",
   "id": "RD-101",
   "properties": {
    "id": "RD-101",
    "layer": "ROAD_CENTERLINE",
    "road_class": "greenway",
    "name_zh": "人类慢行环：京张遗址公园人机合辙脉",
    "source_type": "agent_generated_design",
    "confidence": "medium",
    "geometry_role": "design_proposal",
    "length_m_declared": 8728.1,
    "usage_note": "概念建议线路，可供专业团队深化研究。"
   },
   "geometry": {
    "type": "LineString",
    "coordinates": [
     [
      116.344,
      39.946
     ],
     [
      116.3448,
      39.962
     ],
     [
      116.3442,
      39.978
     ],
     [
      116.345,
      39.99
     ],
     [
      116.3458,
      40.003
     ],
     [
      116.3465,
      40.018
     ],
     [
      116.3475,
      40.0245
     ]
    ]
   }
  },
  {
   "type": "Feature",
   "id": "RD-102",
   "properties": {
    "id": "RD-102",
    "layer": "ROAD_CENTERLINE",
    "road_class": "local_access",
    "name_zh": "机器人低速服务环·南环（大钟寺—西直门）",
    "source_type": "agent_generated_design",
    "confidence": "medium",
    "geometry_role": "design_proposal",
    "length_m_declared": 2611.3,
    "usage_note": "概念建议线路，可供专业团队深化研究。"
   },
   "geometry": {
    "type": "LineString",
    "coordinates": [
     [
      116.343,
      39.9445
     ],
     [
      116.348,
      39.9435
     ],
     [
      116.353,
      39.945
     ],
     [
      116.3535,
      39.948
     ],
     [
      116.348,
      39.95
     ],
     [
      116.3432,
      39.948
     ],
     [
      116.343,
      39.9445
     ]
    ]
   }
  },
  {
   "type": "Feature",
   "id": "RD-103",
   "properties": {
    "id": "RD-103",
    "layer": "ROAD_CENTERLINE",
    "road_class": "local_access",
    "name_zh": "机器人低速服务环·北环（众智园）",
    "source_type": "agent_generated_design",
    "confidence": "medium",
    "geometry_role": "design_proposal",
    "length_m_declared": 4602.2,
    "usage_note": "概念建议线路，可供专业团队深化研究。"
   },
   "geometry": {
    "type": "LineString",
    "coordinates": [
     [
      116.344,
      40.009
     ],
     [
      116.349,
      40.008
     ],
     [
      116.353,
      40.01
     ],
     [
      116.353,
      40.023
     ],
     [
      116.348,
      40.0245
     ],
     [
      116.3445,
      40.022
     ],
     [
      116.344,
      40.009
     ]
    ]
   }
  },
  {
   "type": "Feature",
   "id": "RD-104",
   "properties": {
    "id": "RD-104",
    "layer": "ROAD_CENTERLINE",
    "road_class": "local_access",
    "name_zh": "服务环联络线（原点社区段）",
    "source_type": "agent_generated_design",
    "confidence": "medium",
    "geometry_role": "design_proposal",
    "length_m_declared": 957.2,
    "usage_note": "概念建议线路，可供专业团队深化研究。"
   },
   "geometry": {
    "type": "LineString",
    "coordinates": [
     [
      116.3452,
      39.985
     ],
     [
      116.3465,
      39.99
     ],
     [
      116.347,
      39.9935
     ]
    ]
   }
  }
 ]
}