{
 "type": "FeatureCollection",
 "name": "public_space",
 "features": [
  {
   "type": "Feature",
   "id": "PS-LM00",
   "properties": {
    "id": "PS-LM00",
    "layer": "PUBLIC_SPACE",
    "scenario_type": "ai_landmark",
    "label_zh": "Z1 记忆档案亭",
    "landmark_id": "JZMA-Z1",
    "official_boundary": false,
    "geometry_role": "design_proposal",
    "confidence": "low",
    "source_type": "agent_generated_design"
   },
   "geometry": {
    "type": "Polygon",
    "coordinates": [
     [
      [
       116.3480835085505,
       40.01658337165542
      ],
      [
       116.34808038737675,
       40.01691136931259
      ],
      [
       116.34891650450878,
       40.01691606997159
      ],
      [
       116.34891962168014,
       40.016588072260134
      ],
      [
       116.3480835085505,
       40.01658337165542
      ]
     ]
    ]
   }
  },
  {
   "type": "Feature",
   "id": "PS-LM01",
   "properties": {
    "id": "PS-LM01",
    "layer": "PUBLIC_SPACE",
    "scenario_type": "ai_landmark",
    "label_zh": "Z2 记忆影壁",
    "landmark_id": "JZMA-Z2",
    "official_boundary": false,
    "geometry_role": "design_proposal",
    "confidence": "low",
    "source_type": "agent_generated_design"
   },
   "geometry": {
    "type": "Polygon",
    "coordinates": [
     [
      [
       116.34708367573384,
       39.988333658223034
      ],
      [
       116.34708055289676,
       39.9886616574185
      ],
      [
       116.34791632534458,
       39.98866636255013
      ],
      [
       116.34791944418492,
       39.9883383633003
      ],
      [
       116.34708367573384,
       39.988333658223034
      ]
     ]
    ]
   }
  },
  {
   "type": "Feature",
   "id": "PS-LM02",
   "properties": {
    "id": "PS-LM02",
    "layer": "PUBLIC_SPACE",
    "scenario_type": "ai_landmark",
    "label_zh": "Z3 记忆回廊",
    "landmark_id": "JZMA-Z3",
    "official_boundary": false,
    "geometry_role": "design_proposal",
    "confidence": "low",
    "source_type": "agent_generated_design"
   },
   "geometry": {
    "type": "Polygon",
    "coordinates": [
     [
      [
       116.34808392126078,
       39.946753793075914
      ],
      [
       116.34808080779305,
       39.947081794696565
      ],
      [
       116.34891607420919,
       39.94708648858543
      ],
      [
       116.34891918368847,
       39.94675848691055
      ],
      [
       116.34808392126078,
       39.946753793075914
      ]
     ]
    ]
   }
  },
  {
   "type": "Feature",
   "id": "PS-SN00",
   "properties": {
    "id": "PS-SN00",
    "layer": "PUBLIC_SPACE",
    "scenario_type": "scenario_node",
    "label_zh": "AI场景节点",
    "official_boundary": false,
    "geometry_role": "design_proposal",
    "confidence": "low",
    "source_type": "agent_generated_design"
   },
   "geometry": {
    "type": "Polygon",
    "coordinates": [
     [
      [
       116.3471628000596,
       40.007608688376465
      ],
      [
       116.3471576526605,
       40.00814902442265
      ],
      [
       116.347860317203,
       40.00815298060114
      ],
      [
       116.34786545906283,
       40.00761264447967
      ],
      [
       116.3471628000596,
       40.007608688376465
      ]
     ]
    ]
   }
  },
  {
   "type": "Feature",
   "id": "PS-SN01",
   "properties": {
    "id": "PS-SN01",
    "layer": "PUBLIC_SPACE",
    "scenario_type": "scenario_node",
    "label_zh": "AI场景节点",
    "official_boundary": false,
    "geometry_role": "design_proposal",
    "confidence": "low",
    "source_type": "agent_generated_design"
   },
   "geometry": {
    "type": "Polygon",
    "coordinates": [
     [
      [
       116.34729664256439,
       39.99876861845891
      ],
      [
       116.34728935414991,
       39.999534095700845
      ],
      [
       116.34828467054668,
       39.99953969690382
      ],
      [
       116.34829194784898,
       39.998774219510906
      ],
      [
       116.34729664256439,
       39.99876861845891
      ]
     ]
    ]
   }
  },
  {
   "type": "Feature",
   "id": "PS-SN02",
   "properties": {
    "id": "PS-SN02",
    "layer": "PUBLIC_SPACE",
    "scenario_type": "scenario_node",
    "label_zh": "AI场景节点",
    "official_boundary": false,
    "geometry_role": "design_proposal",
    "confidence": "low",
    "source_type": "agent_generated_design"
   },
   "geometry": {
    "type": "Polygon",
    "coordinates": [
     [
      [
       116.34743043508149,
       39.98992853467242
      ],
      [
       116.34742100784565,
       39.99091915380204
      ],
      [
       116.34870890261422,
       39.99092639804125
      ],
      [
       116.34871831124818,
       39.989935778658925
      ],
      [
       116.34743043508149,
       39.98992853467242
      ]
     ]
    ]
   }
  },
  {
   "type": "Feature",
   "id": "PS-SN03",
   "properties": {
    "id": "PS-SN03",
    "layer": "PUBLIC_SPACE",
    "scenario_type": "scenario_node",
    "label_zh": "AI场景节点",
    "official_boundary": false,
    "geometry_role": "design_proposal",
    "confidence": "low",
    "source_type": "agent_generated_design"
   },
   "geometry": {
    "type": "Polygon",
    "coordinates": [
     [
      [
       116.34795193759608,
       39.98142781288355
      ],
      [
       116.34794680117993,
       39.98196815146289
      ],
      [
       116.34864919757644,
       39.98197210072395
      ],
      [
       116.34865432846055,
       39.98143176206946
      ],
      [
       116.34795193759608,
       39.98142781288355
      ]
     ]
    ]
   }
  },
  {
   "type": "Feature",
   "id": "PS-SN04",
   "properties": {
    "id": "PS-SN04",
    "layer": "PUBLIC_SPACE",
    "scenario_type": "scenario_node",
    "label_zh": "AI场景节点",
    "official_boundary": false,
    "geometry_role": "design_proposal",
    "confidence": "low",
    "source_type": "agent_generated_design"
   },
   "geometry": {
    "type": "Polygon",
    "coordinates": [
     [
      [
       116.34802273836544,
       39.97258664629353
      ],
      [
       116.34801546480138,
       39.97335212711441
      ],
      [
       116.34901040146023,
       39.97335771906121
      ],
      [
       116.34901766392669,
       39.972592238089575
      ],
      [
       116.34802273836544,
       39.97258664629353
      ]
     ]
    ]
   }
  },
  {
   "type": "Feature",
   "id": "PS-SN05",
   "properties": {
    "id": "PS-SN05",
    "layer": "PUBLIC_SPACE",
    "scenario_type": "scenario_node",
    "label_zh": "AI场景节点",
    "official_boundary": false,
    "geometry_role": "design_proposal",
    "confidence": "low",
    "source_type": "agent_generated_design"
   },
   "geometry": {
    "type": "Polygon",
    "coordinates": [
     [
      [
       116.34809350543114,
       39.963745466075096
      ],
      [
       116.34808409649698,
       39.964736089823795
      ],
      [
       116.34937150001554,
       39.96474332278736
      ],
      [
       116.34938089037212,
       39.9637526987863
      ],
      [
       116.34809350543114,
       39.963745466075096
      ]
     ]
    ]
   }
  },
  {
   "type": "Feature",
   "id": "PS-SN06",
   "properties": {
    "id": "PS-SN06",
    "layer": "PUBLIC_SPACE",
    "scenario_type": "scenario_node",
    "label_zh": "AI场景节点",
    "official_boundary": false,
    "geometry_role": "design_proposal",
    "confidence": "low",
    "source_type": "agent_generated_design"
   },
   "geometry": {
    "type": "Polygon",
    "coordinates": [
     [
      [
       116.34859985944674,
       39.95524445202546
      ],
      [
       116.34859473288748,
       39.95578479312251
      ],
      [
       116.34929686144456,
       39.95578873632553
      ],
      [
       116.34930198247903,
       39.95524839515343
      ],
      [
       116.34859985944674,
       39.95524445202546
      ]
     ]
    ]
   }
  }
 ]
}