{
  "type": "FeatureCollection",
  "name": "seasonal_civic_building_concept_envelopes",
  "metadata": {
    "design_status": "concept_proposal",
    "no_statutory_scale_claim": true
  },
  "features": [
    {
      "type": "Feature",
      "id": "BLDG-01",
      "properties": {
        "id": "BLDG-01",
        "layer": "BUILDING_FOOTPRINT",
        "source_type": "agent_generated_design",
        "confidence": "low",
        "geometry_role": "design_proposal",
        "name_zh": "存量建筑适配包 A",
        "building_type": "existing_retained",
        "intervention_logic": "保留优先、适配可逆、具体拆改留待专业调查",
        "area_sqm_declared": 9384.865
      },
      "geometry": {
        "type": "Polygon",
        "coordinates": [
          [
            [
              116.34854999999999,
              40.01955
            ],
            [
              116.34854999999999,
              40.020450000000004
            ],
            [
              116.34965,
              40.020450000000004
            ],
            [
              116.34965,
              40.01955
            ],
            [
              116.34854999999999,
              40.01955
            ]
          ]
        ]
      }
    },
    {
      "type": "Feature",
      "id": "BLDG-02",
      "properties": {
        "id": "BLDG-02",
        "layer": "BUILDING_FOOTPRINT",
        "source_type": "agent_generated_design",
        "confidence": "low",
        "geometry_role": "design_proposal",
        "name_zh": "有人服务房间 B",
        "building_type": "community_service",
        "intervention_logic": "保留优先、适配可逆、具体拆改留待专业调查",
        "area_sqm_declared": 9386.225
      },
      "geometry": {
        "type": "Polygon",
        "coordinates": [
          [
            [
              116.34564999999999,
              40.00955
            ],
            [
              116.34564999999999,
              40.01045
            ],
            [
              116.34675,
              40.01045
            ],
            [
              116.34675,
              40.00955
            ],
            [
              116.34564999999999,
              40.00955
            ]
          ]
        ]
      }
    },
    {
      "type": "Feature",
      "id": "BLDG-03",
      "properties": {
        "id": "BLDG-03",
        "layer": "BUILDING_FOOTPRINT",
        "source_type": "agent_generated_design",
        "confidence": "low",
        "geometry_role": "design_proposal",
        "name_zh": "秋声展廊概念包 C",
        "building_type": "cultural",
        "intervention_logic": "保留优先、适配可逆、具体拆改留待专业调查",
        "area_sqm_declared": 9389.197
      },
      "geometry": {
        "type": "Polygon",
        "coordinates": [
          [
            [
              116.34814999999999,
              39.98755
            ],
            [
              116.34814999999999,
              39.98845
            ],
            [
              116.34925,
              39.98845
            ],
            [
              116.34925,
              39.98755
            ],
            [
              116.34814999999999,
              39.98755
            ]
          ]
        ]
      }
    },
    {
      "type": "Feature",
      "id": "BLDG-04",
      "properties": {
        "id": "BLDG-04",
        "layer": "BUILDING_FOOTPRINT",
        "source_type": "agent_generated_design",
        "confidence": "low",
        "geometry_role": "design_proposal",
        "name_zh": "共测课堂概念包 D",
        "building_type": "education",
        "intervention_logic": "保留优先、适配可逆、具体拆改留待专业调查",
        "area_sqm_declared": 9389.744
      },
      "geometry": {
        "type": "Polygon",
        "coordinates": [
          [
            [
              116.34554999999999,
              39.98355
            ],
            [
              116.34554999999999,
              39.98445
            ],
            [
              116.34665,
              39.98445
            ],
            [
              116.34665,
              39.98355
            ],
            [
              116.34554999999999,
              39.98355
            ]
          ]
        ]
      }
    },
    {
      "type": "Feature",
      "id": "BLDG-05",
      "properties": {
        "id": "BLDG-05",
        "layer": "BUILDING_FOOTPRINT",
        "source_type": "agent_generated_design",
        "confidence": "low",
        "geometry_role": "design_proposal",
        "name_zh": "服务与小商业概念包 E",
        "building_type": "mixed_use",
        "intervention_logic": "保留优先、适配可逆、具体拆改留待专业调查",
        "area_sqm_declared": 9390.55
      },
      "geometry": {
        "type": "Polygon",
        "coordinates": [
          [
            [
              116.34814999999999,
              39.97755
            ],
            [
              116.34814999999999,
              39.97845
            ],
            [
              116.34925,
              39.97845
            ],
            [
              116.34925,
              39.97755
            ],
            [
              116.34814999999999,
              39.97755
            ]
          ]
        ]
      }
    },
    {
      "type": "Feature",
      "id": "BLDG-06",
      "properties": {
        "id": "BLDG-06",
        "layer": "BUILDING_FOOTPRINT",
        "source_type": "agent_generated_design",
        "confidence": "low",
        "geometry_role": "design_proposal",
        "name_zh": "模型校准概念包 F",
        "building_type": "ai_r_and_d",
        "intervention_logic": "保留优先、适配可逆、具体拆改留待专业调查",
        "area_sqm_declared": 9391.638
      },
      "geometry": {
        "type": "Polygon",
        "coordinates": [
          [
            [
              116.34564999999999,
              39.96955
            ],
            [
              116.34564999999999,
              39.97045
            ],
            [
              116.34675,
              39.97045
            ],
            [
              116.34675,
              39.96955
            ],
            [
              116.34564999999999,
              39.96955
            ]
          ]
        ]
      }
    },
    {
      "type": "Feature",
      "id": "BLDG-07",
      "properties": {
        "id": "BLDG-07",
        "layer": "BUILDING_FOOTPRINT",
        "source_type": "agent_generated_design",
        "confidence": "low",
        "geometry_role": "design_proposal",
        "name_zh": "匿名聚合实验室概念包 G",
        "building_type": "lab",
        "intervention_logic": "保留优先、适配可逆、具体拆改留待专业调查",
        "area_sqm_declared": 9392.714
      },
      "geometry": {
        "type": "Polygon",
        "coordinates": [
          [
            [
              116.34835,
              39.96155
            ],
            [
              116.34835,
              39.962450000000004
            ],
            [
              116.34945,
              39.962450000000004
            ],
            [
              116.34945,
              39.96155
            ],
            [
              116.34835,
              39.96155
            ]
          ]
        ]
      }
    },
    {
      "type": "Feature",
      "id": "BLDG-08",
      "properties": {
        "id": "BLDG-08",
        "layer": "BUILDING_FOOTPRINT",
        "source_type": "agent_generated_design",
        "confidence": "low",
        "geometry_role": "design_proposal",
        "name_zh": "适老服务概念包 H",
        "building_type": "community_service",
        "intervention_logic": "保留优先、适配可逆、具体拆改留待专业调查",
        "area_sqm_declared": 9394.071
      },
      "geometry": {
        "type": "Polygon",
        "coordinates": [
          [
            [
              116.34575,
              39.95155
            ],
            [
              116.34575,
              39.95245
            ],
            [
              116.34685,
              39.95245
            ],
            [
              116.34685,
              39.95155
            ],
            [
              116.34575,
              39.95155
            ]
          ]
        ]
      }
    },
    {
      "type": "Feature",
      "id": "BLDG-09",
      "properties": {
        "id": "BLDG-09",
        "layer": "BUILDING_FOOTPRINT",
        "source_type": "agent_generated_design",
        "confidence": "low",
        "geometry_role": "design_proposal",
        "name_zh": "冬灯市集概念包 I",
        "building_type": "retail",
        "intervention_logic": "保留优先、适配可逆、具体拆改留待专业调查",
        "area_sqm_declared": 9394.742
      },
      "geometry": {
        "type": "Polygon",
        "coordinates": [
          [
            [
              116.34814999999999,
              39.94655
            ],
            [
              116.34814999999999,
              39.94745
            ],
            [
              116.34925,
              39.94745
            ],
            [
              116.34925,
              39.94655
            ],
            [
              116.34814999999999,
              39.94655
            ]
          ]
        ]
      }
    },
    {
      "type": "Feature",
      "id": "BLDG-10",
      "properties": {
        "id": "BLDG-10",
        "layer": "BUILDING_FOOTPRINT",
        "source_type": "agent_generated_design",
        "confidence": "low",
        "geometry_role": "design_proposal",
        "name_zh": "慢行接驳信息包 J",
        "building_type": "mobility_hub",
        "intervention_logic": "保留优先、适配可逆、具体拆改留待专业调查",
        "area_sqm_declared": 9394.95
      },
      "geometry": {
        "type": "Polygon",
        "coordinates": [
          [
            [
              116.34594999999999,
              39.94505
            ],
            [
              116.34594999999999,
              39.94595
            ],
            [
              116.34705,
              39.94595
            ],
            [
              116.34705,
              39.94505
            ],
            [
              116.34594999999999,
              39.94505
            ]
          ]
        ]
      }
    }
  ]
}
