{
  "type": "FeatureCollection",
  "name": "seasonal_civic_constraint_notes",
  "metadata": {
    "locked_layer_notice": "These are analysis notes, not official constraints."
  },
  "features": [
    {
      "type": "Feature",
      "id": "CON-001",
      "properties": {
        "id": "CON-001",
        "layer": "REGULATORY_CONTROL",
        "source_type": "agent_inferred_from_public_data",
        "confidence": "low",
        "geometry_role": "analysis_helper",
        "name_zh": "临时边界约束提示",
        "constraint_status": "unknown",
        "usage_note": "不是法定红线，官方资料发布后替换"
      },
      "geometry": {
        "type": "LineString",
        "coordinates": [
          [
            116.3407,
            39.939
          ],
          [
            116.3553,
            39.939
          ],
          [
            116.3553,
            39.965
          ],
          [
            116.3533,
            39.99
          ],
          [
            116.3553,
            40.0265
          ],
          [
            116.3427,
            40.0265
          ],
          [
            116.3417,
            40.006
          ],
          [
            116.3397,
            39.975
          ],
          [
            116.3407,
            39.939
          ]
        ]
      }
    },
    {
      "type": "Feature",
      "id": "CON-002",
      "properties": {
        "id": "CON-002",
        "layer": "HERITAGE_PROTECTION",
        "source_type": "agent_inferred_from_public_data",
        "confidence": "low",
        "geometry_role": "analysis_helper",
        "name_zh": "遗产文化线索提示",
        "constraint_status": "to_verify",
        "usage_note": "不代表文保范围或建设控制地带"
      },
      "geometry": {
        "type": "LineString",
        "coordinates": [
          [
            116.3475,
            39.939
          ],
          [
            116.34734999999999,
            40.0265
          ]
        ]
      }
    }
  ]
}
