{
  "type": "FeatureCollection",
  "name": "seasonal_civic_green_space",
  "metadata": {
    "design_status": "concept_proposal"
  },
  "features": [
    {
      "type": "Feature",
      "id": "GR-01",
      "properties": {
        "id": "GR-01",
        "layer": "GREEN_SPACE",
        "source_type": "agent_generated_design",
        "confidence": "low",
        "geometry_role": "design_proposal",
        "name_zh": "四时绿带主廊",
        "green_system": "四时绿带 / seasonal green ribbon",
        "area_sqm_declared": 962704.059
      },
      "geometry": {
        "type": "Polygon",
        "coordinates": [
          [
            [
              116.34691999914774,
              39.939
            ],
            [
              116.34677000085223,
              40.02649900571574
            ],
            [
              116.34677004798982,
              40.0265
            ],
            [
              116.34793000085224,
              40.0265
            ],
            [
              116.34807999914776,
              39.93900099428426
            ],
            [
              116.34807995201017,
              39.939
            ],
            [
              116.34691999914774,
              39.939
            ]
          ]
        ]
      }
    },
    {
      "type": "Feature",
      "id": "GR-02",
      "properties": {
        "id": "GR-02",
        "layer": "GREEN_SPACE",
        "source_type": "agent_generated_design",
        "confidence": "low",
        "geometry_role": "design_proposal",
        "name_zh": "夏谱台绿荫节点",
        "green_system": "四时绿带 / seasonal green ribbon",
        "area_sqm_declared": 2144149.552
      },
      "geometry": {
        "type": "Polygon",
        "coordinates": [
          [
            [
              116.35424289943168,
              40.007207914628275
            ],
            [
              116.35424106944798,
              40.00720625602772
            ],
            [
              116.35421111668855,
              40.007184041547326
            ],
            [
              116.35417913075999,
              40.00716486991955
            ],
            [
              116.3541454197043,
              40.00714892577765
            ],
            [
              116.35411030817735,
              40.00713636267242
            ],
            [
              116.35407413432236,
              40.00712730159345
            ],
            [
              116.35403724651333,
              40.007121829803864
            ],
            [
              116.354,
              40.00712
            ],
            [
              116.343,
              40.00712
            ],
            [
              116.34296275348667,
              40.007121829803864
            ],
            [
              116.34292586567764,
              40.00712730159345
            ],
            [
              116.34288969182265,
              40.00713636267242
            ],
            [
              116.34285458029571,
              40.00714892577765
            ],
            [
              116.34282086924001,
              40.00716486991955
            ],
            [
              116.34278888331146,
              40.007184041547326
            ],
            [
              116.34275893055202,
              40.00720625602772
            ],
            [
              116.34273129942315,
              40.00723129942315
            ],
            [
              116.34270625602772,
              40.00725893055202
            ],
            [
              116.34268404154733,
              40.00728888331145
            ],
            [
              116.34266486991955,
              40.007320869240004
            ],
            [
              116.34264892577765,
              40.007354580295704
            ],
            [
              116.34263636267242,
              40.007389691822645
            ],
            [
              116.34262730159345,
              40.00742586567763
            ],
            [
              116.34262182980387,
              40.00746275348668
            ],
            [
              116.34262,
              40.0075
            ],
            [
              116.34262,
              40.02486000000005
            ],
            [
              116.3426860395452,
              40.02621381067682
            ],
            [
              116.34270625602772,
              40.026241069447984
            ],
            [
              116.34273129942315,
              40.02626870057686
            ],
            [
              116.34275893055202,
              40.02629374397228
            ],
            [
              116.34278888331146,
              40.02631595845268
            ],
            [
              116.34282086924001,
              40.026335130080454
            ],
            [
              116.34285458029571,
              40.026351074222354
            ],
            [
              116.34288969182265,
              40.026363637327584
            ],
            [
              116.34292586567764,
              40.026372698406554
            ],
            [
              116.34296275348667,
              40.02637817019614
            ],
            [
              116.343,
              40.02638
            ],
            [
              116.354,
              40.02638
            ],
            [
              116.35403724651333,
              40.02637817019614
            ],
            [
              116.35407413432236,
              40.026372698406554
            ],
            [
              116.35411030817735,
              40.026363637327584
            ],
            [
              116.3541454197043,
              40.026351074222354
            ],
            [
              116.35417913075999,
              40.026335130080454
            ],
            [
              116.35421111668855,
              40.02631595845268
            ],
            [
              116.35424106944798,
              40.02629374397228
            ],
            [
              116.35426870057685,
              40.02626870057686
            ],
            [
              116.35429374397228,
              40.026241069447984
            ],
            [
              116.35431595845267,
              40.02621111668855
            ],
            [
              116.35433513008046,
              40.02617913076
            ],
            [
              116.35435107422235,
              40.0261454197043
            ],
            [
              116.35436363732758,
              40.02611030817736
            ],
            [
              116.35437269840655,
              40.02607413432237
            ],
            [
              116.35437817019613,
              40.026037246513326
            ],
            [
              116.35438,
              40.026
            ],
            [
              116.35438,
              40.00971000000008
            ],
            [
              116.35424289943168,
              40.007207914628275
            ]
          ]
        ]
      }
    },
    {
      "type": "Feature",
      "id": "GR-03",
      "properties": {
        "id": "GR-03",
        "layer": "GREEN_SPACE",
        "source_type": "agent_generated_design",
        "confidence": "low",
        "geometry_role": "design_proposal",
        "name_zh": "秋声庭静谧花园",
        "green_system": "四时绿带 / seasonal green ribbon",
        "area_sqm_declared": 1197963.23
      },
      "geometry": {
        "type": "Polygon",
        "coordinates": [
          [
            [
              116.3533,
              39.99
            ],
            [
              116.35338,
              39.98900000000004
            ],
            [
              116.35338,
              39.9835
            ],
            [
              116.35337817019612,
              39.98346275348668
            ],
            [
              116.35337269840655,
              39.98342586567763
            ],
            [
              116.35336363732758,
              39.983389691822644
            ],
            [
              116.35335107422235,
              39.9833545802957
            ],
            [
              116.35333513008045,
              39.98332086924
            ],
            [
              116.35331595845267,
              39.98328888331145
            ],
            [
              116.35329374397227,
              39.98325893055202
            ],
            [
              116.35326870057685,
              39.983231299423146
            ],
            [
              116.35324106944798,
              39.98320625602772
            ],
            [
              116.35321111668854,
              39.983184041547325
            ],
            [
              116.35317913075998,
              39.98316486991955
            ],
            [
              116.35314541970429,
              39.98314892577765
            ],
            [
              116.35311030817735,
              39.98313636267242
            ],
            [
              116.35307413432236,
              39.98312730159345
            ],
            [
              116.35303724651332,
              39.98312182980386
            ],
            [
              116.353,
              39.98312
            ],
            [
              116.342,
              39.98312
            ],
            [
              116.34196275348667,
              39.98312182980386
            ],
            [
              116.34192586567764,
              39.98312730159345
            ],
            [
              116.34188969182264,
              39.98313636267242
            ],
            [
              116.3418545802957,
              39.98314892577765
            ],
            [
              116.34182086924001,
              39.98316486991955
            ],
            [
              116.34178888331145,
              39.983184041547325
            ],
            [
              116.34175893055202,
              39.98320625602772
            ],
            [
              116.34173129942315,
              39.983231299423146
            ],
            [
              116.34170625602772,
              39.98325893055202
            ],
            [
              116.34168404154732,
              39.98328888331145
            ],
            [
              116.34166486991954,
              39.98332086924
            ],
            [
              116.34164892577765,
              39.9833545802957
            ],
            [
              116.34163636267242,
              39.983389691822644
            ],
            [
              116.34162730159345,
              39.98342586567763
            ],
            [
              116.34162182980387,
              39.98346275348668
            ],
            [
              116.34161999999999,
              39.9835
            ],
            [
              116.34161999999999,
              39.9935
            ],
            [
              116.34162182980387,
              39.99353724651332
            ],
            [
              116.34162730159345,
              39.993574134322365
            ],
            [
              116.34163636267242,
              39.99361030817735
            ],
            [
              116.34164892577765,
              39.99364541970429
            ],
            [
              116.34166486991954,
              39.99367913075999
            ],
            [
              116.34168404154732,
              39.993711116688544
            ],
            [
              116.34170625602772,
              39.99374106944798
            ],
            [
              116.34173129942315,
              39.99376870057685
            ],
            [
              116.34175893055202,
              39.993793743972276
            ],
            [
              116.34178888331145,
              39.99381595845267
            ],
            [
              116.34182086924001,
              39.99383513008045
            ],
            [
              116.3418545802957,
              39.99385107422235
            ],
            [
              116.34188969182264,
              39.99386363732758
            ],
            [
              116.34192586567764,
              39.99387269840655
            ],
            [
              116.34196275348667,
              39.99387817019613
            ],
            [
              116.342,
              39.99388
            ],
            [
              116.353,
              39.99388
            ],
            [
              116.35303724651332,
              39.99387817019613
            ],
            [
              116.35307413432236,
              39.99387269840655
            ],
            [
              116.35311030817735,
              39.99386363732758
            ],
            [
              116.35314541970429,
              39.99385107422235
            ],
            [
              116.35317913075998,
              39.99383513008045
            ],
            [
              116.35321111668854,
              39.99381595845267
            ],
            [
              116.35324106944798,
              39.993793743972276
            ],
            [
              116.35326870057685,
              39.99376870057685
            ],
            [
              116.35329374397227,
              39.99374106944798
            ],
            [
              116.35331595845267,
              39.993711116688544
            ],
            [
              116.35333513008045,
              39.99367913075999
            ],
            [
              116.35335107422235,
              39.99364541970429
            ],
            [
              116.35336363732758,
              39.99361030817735
            ],
            [
              116.35337269840655,
              39.993574134322365
            ],
            [
              116.35337817019612,
              39.99353724651332
            ],
            [
              116.35338,
              39.9935
            ],
            [
              116.35338,
              39.99145999999995
            ],
            [
              116.3533,
              39.99
            ]
          ]
        ]
      }
    },
    {
      "type": "Feature",
      "id": "GR-04",
      "properties": {
        "id": "GR-04",
        "layer": "GREEN_SPACE",
        "source_type": "agent_generated_design",
        "confidence": "low",
        "geometry_role": "design_proposal",
        "name_zh": "冬灯台暖光前场",
        "green_system": "四时绿带 / seasonal green ribbon",
        "area_sqm_declared": 855955.219
      },
      "geometry": {
        "type": "Polygon",
        "coordinates": [
          [
            [
              116.3553,
              39.94376736582892
            ],
            [
              116.35529374397228,
              39.94375893055202
            ],
            [
              116.35526870057686,
              39.94373129942315
            ],
            [
              116.35524106944798,
              39.943706256027724
            ],
            [
              116.35521111668855,
              39.94368404154733
            ],
            [
              116.35517913075999,
              39.94366486991955
            ],
            [
              116.3551454197043,
              39.94364892577765
            ],
            [
              116.35511030817736,
              39.94363636267242
            ],
            [
              116.35507413432236,
              39.94362730159345
            ],
            [
              116.35503724651333,
              39.94362182980387
            ],
            [
              116.355,
              39.94362
            ],
            [
              116.342,
              39.94362
            ],
            [
              116.34196275348667,
              39.94362182980387
            ],
            [
              116.34192586567764,
              39.94362730159345
            ],
            [
              116.34188969182264,
              39.94363636267242
            ],
            [
              116.3418545802957,
              39.94364892577765
            ],
            [
              116.34182086924001,
              39.94366486991955
            ],
            [
              116.34178888331145,
              39.94368404154733
            ],
            [
              116.34175893055202,
              39.943706256027724
            ],
            [
              116.34173129942315,
              39.94373129942315
            ],
            [
              116.34170625602772,
              39.94375893055202
            ],
            [
              116.34168404154732,
              39.943788883311456
            ],
            [
              116.34166486991954,
              39.94382086924001
            ],
            [
              116.34164892577765,
              39.94385458029571
            ],
            [
              116.34163636267242,
              39.94388969182265
            ],
            [
              116.34162730159345,
              39.943925865677635
            ],
            [
              116.34162182980387,
              39.94396275348668
            ],
            [
              116.34161999999999,
              39.944
            ],
            [
              116.34161999999999,
              39.94984
            ],
            [
              116.34162182980387,
              39.949877246513324
            ],
            [
              116.34162730159345,
              39.94991413432237
            ],
            [
              116.34163636267242,
              39.94995030817736
            ],
            [
              116.34164892577765,
              39.9499854197043
            ],
            [
              116.34166486991954,
              39.95001913076
            ],
            [
              116.34168404154732,
              39.95005111668855
            ],
            [
              116.34170625602772,
              39.95008106944798
            ],
            [
              116.34173129942315,
              39.950108700576855
            ],
            [
              116.34175893055202,
              39.95013374397228
            ],
            [
              116.34178888331145,
              39.950155958452676
            ],
            [
              116.34182086924001,
              39.95017513008045
            ],
            [
              116.3418545802957,
              39.95019107422235
            ],
            [
              116.34188969182264,
              39.95020363732758
            ],
            [
              116.34192586567764,
              39.95021269840655
            ],
            [
              116.34196275348667,
              39.95021817019614
            ],
            [
              116.342,
              39.95022
            ],
            [
              116.355,
              39.95022
            ],
            [
              116.35503724651333,
              39.95021817019614
            ],
            [
              116.35507413432236,
              39.95021269840655
            ],
            [
              116.35511030817736,
              39.95020363732758
            ],
            [
              116.3551454197043,
              39.95019107422235
            ],
            [
              116.35517913075999,
              39.95017513008045
            ],
            [
              116.35521111668855,
              39.950155958452676
            ],
            [
              116.35524106944798,
              39.95013374397228
            ],
            [
              116.35526870057686,
              39.950108700576855
            ],
            [
              116.35529374397228,
              39.95008106944798
            ],
            [
              116.3553,
              39.950072634171086
            ],
            [
              116.3553,
              39.94376736582892
            ]
          ]
        ]
      }
    }
  ]
}
