{
  "type": "FeatureCollection",
  "name": "seasonal_civic_land_use_partition",
  "metadata": {
    "topology_note": "Vertical strips are generated by intersection with the same provisional site polygon; not statutory land-use boundaries."
  },
  "features": [
    {
      "type": "Feature",
      "id": "LU-01",
      "properties": {
        "id": "LU-01",
        "layer": "LAND_USE",
        "source_type": "agent_generated_design",
        "confidence": "low",
        "geometry_role": "design_proposal",
        "design_iteration": "seasonal-civic-calibration-r1",
        "name_zh": "AI研发与验证概念分区",
        "land_use_code": "0802",
        "spatial_role": "研发与公共测试的概念邻接",
        "area_sqm_declared": 1222781.864
      },
      "geometry": {
        "type": "Polygon",
        "coordinates": [
          [
            [
              116.3407,
              39.939
            ],
            [
              116.3397,
              39.975
            ],
            [
              116.3417,
              40.006
            ],
            [
              116.3423,
              40.01829999999994
            ],
            [
              116.3423,
              39.939
            ],
            [
              116.3407,
              39.939
            ]
          ]
        ]
      }
    },
    {
      "type": "Feature",
      "id": "LU-02",
      "properties": {
        "id": "LU-02",
        "layer": "LAND_USE",
        "source_type": "agent_generated_design",
        "confidence": "low",
        "geometry_role": "design_proposal",
        "name_zh": "文化展示概念分区",
        "land_use_code": "0803",
        "spatial_role": "京张文化和AI新文化表达",
        "area_sqm_declared": 2142265.4
      },
      "geometry": {
        "type": "Polygon",
        "coordinates": [
          [
            [
              116.3423,
              39.939
            ],
            [
              116.3423,
              40.01829999999994
            ],
            [
              116.3427,
              40.0265
            ],
            [
              116.3449,
              40.0265
            ],
            [
              116.3449,
              39.939
            ],
            [
              116.3423,
              39.939
            ]
          ]
        ]
      }
    },
    {
      "type": "Feature",
      "id": "LU-03",
      "properties": {
        "id": "LU-03",
        "layer": "LAND_USE",
        "source_type": "agent_generated_design",
        "confidence": "low",
        "geometry_role": "design_proposal",
        "name_zh": "社区服务与轻商业概念分区",
        "land_use_code": "0901",
        "spatial_role": "日常服务与小型场景承载",
        "area_sqm_declared": 2157782.409
      },
      "geometry": {
        "type": "Polygon",
        "coordinates": [
          [
            [
              116.3449,
              39.939
            ],
            [
              116.3449,
              40.0265
            ],
            [
              116.3475,
              40.0265
            ],
            [
              116.3475,
              39.939
            ],
            [
              116.3449,
              39.939
            ]
          ]
        ]
      }
    },
    {
      "type": "Feature",
      "id": "LU-04",
      "properties": {
        "id": "LU-04",
        "layer": "LAND_USE",
        "source_type": "agent_generated_design",
        "confidence": "low",
        "geometry_role": "design_proposal",
        "name_zh": "社区服务设施概念分区",
        "land_use_code": "0702",
        "spatial_role": "居民、儿童和照护服务接口",
        "area_sqm_declared": 2157781.095
      },
      "geometry": {
        "type": "Polygon",
        "coordinates": [
          [
            [
              116.3475,
              39.939
            ],
            [
              116.3475,
              40.0265
            ],
            [
              116.3501,
              40.0265
            ],
            [
              116.3501,
              39.939
            ],
            [
              116.3475,
              39.939
            ]
          ]
        ]
      }
    },
    {
      "type": "Feature",
      "id": "LU-05",
      "properties": {
        "id": "LU-05",
        "layer": "LAND_USE",
        "source_type": "agent_generated_design",
        "confidence": "low",
        "geometry_role": "design_proposal",
        "name_zh": "公园绿地概念分区",
        "land_use_code": "1401",
        "spatial_role": "遗产绿带和可进入的绿色公共空间",
        "area_sqm_declared": 2157779.786
      },
      "geometry": {
        "type": "Polygon",
        "coordinates": [
          [
            [
              116.3501,
              39.939
            ],
            [
              116.3501,
              40.0265
            ],
            [
              116.3527,
              40.0265
            ],
            [
              116.3527,
              39.939
            ],
            [
              116.3501,
              39.939
            ]
          ]
        ]
      }
    },
    {
      "type": "Feature",
      "id": "LU-06",
      "properties": {
        "id": "LU-06",
        "layer": "LAND_USE",
        "source_type": "agent_generated_design",
        "confidence": "low",
        "geometry_role": "design_proposal",
        "name_zh": "慢行联系概念分区",
        "land_use_code": "1207",
        "spatial_role": "步行、自行车和接驳联系",
        "area_sqm_declared": 1574436.305
      },
      "geometry": {
        "type": "Polygon",
        "coordinates": [
          [
            [
              116.3527,
              39.939
            ],
            [
              116.3527,
              40.0265
            ],
            [
              116.3553,
              40.0265
            ],
            [
              116.3533,
              39.99
            ],
            [
              116.3553,
              39.965
            ],
            [
              116.3553,
              39.939
            ],
            [
              116.3527,
              39.939
            ]
          ]
        ]
      }
    }
  ]
}
