{
  "type": "FeatureCollection",
  "name": "seasonal_civic_concept_phasing",
  "metadata": {
    "design_status": "concept_proposal",
    "no_development_timing_claim": true
  },
  "features": [
    {
      "type": "Feature",
      "id": "PH-1",
      "properties": {
        "id": "PH-1",
        "layer": "PHASE",
        "source_type": "agent_generated_design",
        "confidence": "low",
        "geometry_role": "design_proposal",
        "name_zh": "近期 1-3 年",
        "phase_number": 1,
        "phase_gate": "概念阶段门槛，需权利主体和专业团队确认",
        "area_sqm_declared": 4483054.633
      },
      "geometry": {
        "type": "Polygon",
        "coordinates": [
          [
            [
              116.3407,
              39.939
            ],
            [
              116.33982499999999,
              39.9705
            ],
            [
              116.35486,
              39.9705
            ],
            [
              116.3553,
              39.965
            ],
            [
              116.3553,
              39.939
            ],
            [
              116.3407,
              39.939
            ]
          ]
        ]
      }
    },
    {
      "type": "Feature",
      "id": "PH-2",
      "properties": {
        "id": "PH-2",
        "layer": "PHASE",
        "source_type": "agent_generated_design",
        "confidence": "low",
        "geometry_role": "design_proposal",
        "name_zh": "中期 3-5 年",
        "phase_number": 2,
        "phase_gate": "概念阶段门槛，需权利主体和专业团队确认",
        "area_sqm_declared": 3979277.727
      },
      "geometry": {
        "type": "Polygon",
        "coordinates": [
          [
            [
              116.3533,
              39.99
            ],
            [
              116.35507,
              39.967875
            ],
            [
              116.33989791666666,
              39.967875
            ],
            [
              116.3397,
              39.975
            ],
            [
              116.34121612903226,
              39.9985
            ],
            [
              116.35376575342467,
              39.9985
            ],
            [
              116.3533,
              39.99
            ]
          ]
        ]
      }
    },
    {
      "type": "Feature",
      "id": "PH-3",
      "properties": {
        "id": "PH-3",
        "layer": "PHASE",
        "source_type": "agent_generated_design",
        "confidence": "low",
        "geometry_role": "design_proposal",
        "name_zh": "远期 5-10 年",
        "phase_number": 3,
        "phase_gate": "概念阶段门槛，需权利主体和专业团队确认",
        "area_sqm_declared": 3639315.973
      },
      "geometry": {
        "type": "Polygon",
        "coordinates": [
          [
            [
              116.35362191780823,
              39.995875
            ],
            [
              116.34104677419354,
              39.995875
            ],
            [
              116.3417,
              40.006
            ],
            [
              116.3427,
              40.0265
            ],
            [
              116.3553,
              40.0265
            ],
            [
              116.35362191780823,
              39.995875
            ]
          ]
        ]
      }
    }
  ]
}
