{
  "type": "FeatureCollection",
  "name": "seasonal_civic_public_space",
  "metadata": {
    "design_status": "concept_proposal"
  },
  "features": [
    {
      "type": "Feature",
      "id": "PS-01",
      "properties": {
        "id": "PS-01",
        "layer": "PUBLIC_SPACE",
        "source_type": "agent_generated_design",
        "confidence": "low",
        "geometry_role": "design_proposal",
        "name_zh": "四时应答线中段公共房间",
        "public_space_type": "可停留、可反馈、可撤回的公共空间",
        "area_sqm_declared": 11430.025
      },
      "geometry": {
        "type": "Polygon",
        "coordinates": [
          [
            [
              116.34811701453053,
              40.016939229373
            ],
            [
              116.34810808687385,
              40.016879044000355
            ],
            [
              116.34809330300816,
              40.0168200235001
            ],
            [
              116.34807280531015,
              40.016762736271936
            ],
            [
              116.34804679118389,
              40.01670773402317
            ],
            [
              116.34801551115963,
              40.01665554645553
            ],
            [
              116.34797926648108,
              40.016606676163825
            ],
            [
              116.34793840620434,
              40.016561593795664
            ],
            [
              116.34789332383617,
              40.01652073351892
            ],
            [
              116.34784445354447,
              40.016484488840376
            ],
            [
              116.34779226597684,
              40.01645320881611
            ],
            [
              116.34773726372806,
              40.01642719468985
            ],
            [
              116.34767997649989,
              40.01640669699185
            ],
            [
              116.34762095599964,
              40.01639191312616
            ],
            [
              116.347560770627,
              40.01638298546947
            ],
            [
              116.3475,
              40.016380000000005
            ],
            [
              116.347439229373,
              40.01638298546947
            ],
            [
              116.34737904400035,
              40.01639191312616
            ],
            [
              116.3473200235001,
              40.01640669699185
            ],
            [
              116.34726273627193,
              40.01642719468985
            ],
            [
              116.34720773402316,
              40.01645320881611
            ],
            [
              116.34715554645553,
              40.016484488840376
            ],
            [
              116.34710667616382,
              40.01652073351892
            ],
            [
              116.34706159379566,
              40.016561593795664
            ],
            [
              116.34702073351892,
              40.016606676163825
            ],
            [
              116.34698448884036,
              40.01665554645553
            ],
            [
              116.3469532088161,
              40.01670773402317
            ],
            [
              116.34692719468984,
              40.016762736271936
            ],
            [
              116.34690669699184,
              40.0168200235001
            ],
            [
              116.34689191312614,
              40.016879044000355
            ],
            [
              116.34688298546946,
              40.016939229373
            ],
            [
              116.34688,
              40.017
            ],
            [
              116.34688298546946,
              40.017060770627005
            ],
            [
              116.34689191312614,
              40.01712095599965
            ],
            [
              116.34690669699184,
              40.017179976499904
            ],
            [
              116.34692719468984,
              40.01723726372807
            ],
            [
              116.3469532088161,
              40.017292265976835
            ],
            [
              116.34698448884036,
              40.017344453544474
            ],
            [
              116.34702073351892,
              40.01739332383618
            ],
            [
              116.34706159379566,
              40.01743840620434
            ],
            [
              116.34710667616382,
              40.01747926648109
            ],
            [
              116.34715554645553,
              40.01751551115963
            ],
            [
              116.34720773402316,
              40.0175467911839
            ],
            [
              116.34726273627193,
              40.01757280531016
            ],
            [
              116.3473200235001,
              40.017593303008155
            ],
            [
              116.34737904400035,
              40.01760808687385
            ],
            [
              116.347439229373,
              40.017617014530536
            ],
            [
              116.3475,
              40.01762
            ],
            [
              116.347560770627,
              40.017617014530536
            ],
            [
              116.34762095599964,
              40.01760808687385
            ],
            [
              116.34767997649989,
              40.017593303008155
            ],
            [
              116.34773726372806,
              40.01757280531016
            ],
            [
              116.34779226597684,
              40.0175467911839
            ],
            [
              116.34784445354447,
              40.01751551115963
            ],
            [
              116.34789332383617,
              40.01747926648109
            ],
            [
              116.34793840620434,
              40.01743840620434
            ],
            [
              116.34797926648108,
              40.01739332383618
            ],
            [
              116.34801551115963,
              40.017344453544474
            ],
            [
              116.34804679118389,
              40.017292265976835
            ],
            [
              116.34807280531015,
              40.01723726372807
            ],
            [
              116.34809330300816,
              40.017179976499904
            ],
            [
              116.34810808687385,
              40.01712095599965
            ],
            [
              116.34811701453053,
              40.017060770627005
            ],
            [
              116.34812,
              40.017
            ],
            [
              116.34811701453053,
              40.016939229373
            ]
          ]
        ]
      }
    },
    {
      "type": "Feature",
      "id": "PS-02",
      "properties": {
        "id": "PS-02",
        "layer": "PUBLIC_SPACE",
        "source_type": "agent_generated_design",
        "confidence": "low",
        "geometry_role": "design_proposal",
        "name_zh": "秋声庭公共房间",
        "public_space_type": "可停留、可反馈、可撤回的公共空间",
        "area_sqm_declared": 11434.805
      },
      "geometry": {
        "type": "Polygon",
        "coordinates": [
          [
            [
              116.34811701453053,
              39.987939229373
            ],
            [
              116.34810808687385,
              39.98787904400035
            ],
            [
              116.34809330300816,
              39.9878200235001
            ],
            [
              116.34807280531015,
              39.98776273627193
            ],
            [
              116.34804679118389,
              39.98770773402317
            ],
            [
              116.34801551115963,
              39.98765554645553
            ],
            [
              116.34797926648108,
              39.98760667616382
            ],
            [
              116.34793840620434,
              39.98756159379566
            ],
            [
              116.34789332383617,
              39.98752073351891
            ],
            [
              116.34784445354447,
              39.98748448884037
            ],
            [
              116.34779226597684,
              39.987453208816106
            ],
            [
              116.34773726372806,
              39.98742719468984
            ],
            [
              116.34767997649989,
              39.98740669699185
            ],
            [
              116.34762095599964,
              39.98739191312615
            ],
            [
              116.347560770627,
              39.987382985469466
            ],
            [
              116.3475,
              39.98738
            ],
            [
              116.347439229373,
              39.987382985469466
            ],
            [
              116.34737904400035,
              39.98739191312615
            ],
            [
              116.3473200235001,
              39.98740669699185
            ],
            [
              116.34726273627193,
              39.98742719468984
            ],
            [
              116.34720773402316,
              39.987453208816106
            ],
            [
              116.34715554645553,
              39.98748448884037
            ],
            [
              116.34710667616382,
              39.98752073351891
            ],
            [
              116.34706159379566,
              39.98756159379566
            ],
            [
              116.34702073351892,
              39.98760667616382
            ],
            [
              116.34698448884036,
              39.98765554645553
            ],
            [
              116.3469532088161,
              39.98770773402317
            ],
            [
              116.34692719468984,
              39.98776273627193
            ],
            [
              116.34690669699184,
              39.9878200235001
            ],
            [
              116.34689191312614,
              39.98787904400035
            ],
            [
              116.34688298546946,
              39.987939229373
            ],
            [
              116.34688,
              39.988
            ],
            [
              116.34688298546946,
              39.988060770627
            ],
            [
              116.34689191312614,
              39.98812095599965
            ],
            [
              116.34690669699184,
              39.9881799764999
            ],
            [
              116.34692719468984,
              39.98823726372807
            ],
            [
              116.3469532088161,
              39.98829226597683
            ],
            [
              116.34698448884036,
              39.98834445354447
            ],
            [
              116.34702073351892,
              39.98839332383618
            ],
            [
              116.34706159379566,
              39.98843840620434
            ],
            [
              116.34710667616382,
              39.988479266481086
            ],
            [
              116.34715554645553,
              39.988515511159626
            ],
            [
              116.34720773402316,
              39.98854679118389
            ],
            [
              116.34726273627193,
              39.988572805310156
            ],
            [
              116.3473200235001,
              39.98859330300815
            ],
            [
              116.34737904400035,
              39.988608086873846
            ],
            [
              116.347439229373,
              39.98861701453053
            ],
            [
              116.3475,
              39.98862
            ],
            [
              116.347560770627,
              39.98861701453053
            ],
            [
              116.34762095599964,
              39.988608086873846
            ],
            [
              116.34767997649989,
              39.98859330300815
            ],
            [
              116.34773726372806,
              39.988572805310156
            ],
            [
              116.34779226597684,
              39.98854679118389
            ],
            [
              116.34784445354447,
              39.988515511159626
            ],
            [
              116.34789332383617,
              39.988479266481086
            ],
            [
              116.34793840620434,
              39.98843840620434
            ],
            [
              116.34797926648108,
              39.98839332383618
            ],
            [
              116.34801551115963,
              39.98834445354447
            ],
            [
              116.34804679118389,
              39.98829226597683
            ],
            [
              116.34807280531015,
              39.98823726372807
            ],
            [
              116.34809330300816,
              39.9881799764999
            ],
            [
              116.34810808687385,
              39.98812095599965
            ],
            [
              116.34811701453053,
              39.988060770627
            ],
            [
              116.34812,
              39.988
            ],
            [
              116.34811701453053,
              39.987939229373
            ]
          ]
        ]
      }
    },
    {
      "type": "Feature",
      "id": "PS-03",
      "properties": {
        "id": "PS-03",
        "layer": "PUBLIC_SPACE",
        "source_type": "agent_generated_design",
        "confidence": "low",
        "geometry_role": "design_proposal",
        "name_zh": "冬灯台公共房间",
        "public_space_type": "可停留、可反馈、可撤回的公共空间",
        "area_sqm_declared": 11441.558
      },
      "geometry": {
        "type": "Polygon",
        "coordinates": [
          [
            [
              116.34811701453053,
              39.946939229373
            ],
            [
              116.34810808687385,
              39.946879044000354
            ],
            [
              116.34809330300816,
              39.9468200235001
            ],
            [
              116.34807280531015,
              39.946762736271936
            ],
            [
              116.34804679118389,
              39.94670773402317
            ],
            [
              116.34801551115963,
              39.94665554645553
            ],
            [
              116.34797926648108,
              39.946606676163825
            ],
            [
              116.34793840620434,
              39.946561593795664
            ],
            [
              116.34789332383617,
              39.946520733518916
            ],
            [
              116.34784445354447,
              39.946484488840376
            ],
            [
              116.34779226597684,
              39.94645320881611
            ],
            [
              116.34773726372806,
              39.946427194689846
            ],
            [
              116.34767997649989,
              39.94640669699185
            ],
            [
              116.34762095599964,
              39.946391913126156
            ],
            [
              116.347560770627,
              39.94638298546947
            ],
            [
              116.3475,
              39.946380000000005
            ],
            [
              116.347439229373,
              39.94638298546947
            ],
            [
              116.34737904400035,
              39.946391913126156
            ],
            [
              116.3473200235001,
              39.94640669699185
            ],
            [
              116.34726273627193,
              39.946427194689846
            ],
            [
              116.34720773402316,
              39.94645320881611
            ],
            [
              116.34715554645553,
              39.946484488840376
            ],
            [
              116.34710667616382,
              39.946520733518916
            ],
            [
              116.34706159379566,
              39.946561593795664
            ],
            [
              116.34702073351892,
              39.946606676163825
            ],
            [
              116.34698448884036,
              39.94665554645553
            ],
            [
              116.3469532088161,
              39.94670773402317
            ],
            [
              116.34692719468984,
              39.946762736271936
            ],
            [
              116.34690669699184,
              39.9468200235001
            ],
            [
              116.34689191312614,
              39.946879044000354
            ],
            [
              116.34688298546946,
              39.946939229373
            ],
            [
              116.34688,
              39.947
            ],
            [
              116.34688298546946,
              39.947060770627004
            ],
            [
              116.34689191312614,
              39.94712095599965
            ],
            [
              116.34690669699184,
              39.9471799764999
            ],
            [
              116.34692719468984,
              39.94723726372807
            ],
            [
              116.3469532088161,
              39.947292265976834
            ],
            [
              116.34698448884036,
              39.947344453544474
            ],
            [
              116.34702073351892,
              39.94739332383618
            ],
            [
              116.34706159379566,
              39.94743840620434
            ],
            [
              116.34710667616382,
              39.94747926648109
            ],
            [
              116.34715554645553,
              39.94751551115963
            ],
            [
              116.34720773402316,
              39.947546791183896
            ],
            [
              116.34726273627193,
              39.94757280531016
            ],
            [
              116.3473200235001,
              39.947593303008155
            ],
            [
              116.34737904400035,
              39.94760808687385
            ],
            [
              116.347439229373,
              39.947617014530536
            ],
            [
              116.3475,
              39.94762
            ],
            [
              116.347560770627,
              39.947617014530536
            ],
            [
              116.34762095599964,
              39.94760808687385
            ],
            [
              116.34767997649989,
              39.947593303008155
            ],
            [
              116.34773726372806,
              39.94757280531016
            ],
            [
              116.34779226597684,
              39.947546791183896
            ],
            [
              116.34784445354447,
              39.94751551115963
            ],
            [
              116.34789332383617,
              39.94747926648109
            ],
            [
              116.34793840620434,
              39.94743840620434
            ],
            [
              116.34797926648108,
              39.94739332383618
            ],
            [
              116.34801551115963,
              39.947344453544474
            ],
            [
              116.34804679118389,
              39.947292265976834
            ],
            [
              116.34807280531015,
              39.94723726372807
            ],
            [
              116.34809330300816,
              39.9471799764999
            ],
            [
              116.34810808687385,
              39.94712095599965
            ],
            [
              116.34811701453053,
              39.947060770627004
            ],
            [
              116.34812,
              39.947
            ],
            [
              116.34811701453053,
              39.946939229373
            ]
          ]
        ]
      }
    },
    {
      "type": "Feature",
      "id": "PS-04",
      "properties": {
        "id": "PS-04",
        "layer": "PUBLIC_SPACE",
        "source_type": "agent_generated_design",
        "confidence": "low",
        "geometry_role": "design_proposal",
        "name_zh": "夏谱台回声广场",
        "public_space_type": "可停留、可反馈、可撤回的公共空间",
        "area_sqm_declared": 11429.369
      },
      "geometry": {
        "type": "Polygon",
        "coordinates": [
          [
            [
              116.34691701453053,
              40.020939229373
            ],
            [
              116.34690808687385,
              40.02087904400035
            ],
            [
              116.34689330300816,
              40.0208200235001
            ],
            [
              116.34687280531016,
              40.020762736271934
            ],
            [
              116.34684679118389,
              40.02070773402317
            ],
            [
              116.34681551115963,
              40.02065554645553
            ],
            [
              116.34677926648108,
              40.02060667616382
            ],
            [
              116.34673840620434,
              40.02056159379566
            ],
            [
              116.34669332383618,
              40.020520733518914
            ],
            [
              116.34664445354447,
              40.020484488840374
            ],
            [
              116.34659226597684,
              40.02045320881611
            ],
            [
              116.34653726372807,
              40.020427194689844
            ],
            [
              116.3464799764999,
              40.02040669699185
            ],
            [
              116.34642095599965,
              40.020391913126154
            ],
            [
              116.346360770627,
              40.02038298546947
            ],
            [
              116.3463,
              40.02038
            ],
            [
              116.346239229373,
              40.02038298546947
            ],
            [
              116.34617904400035,
              40.020391913126154
            ],
            [
              116.3461200235001,
              40.02040669699185
            ],
            [
              116.34606273627193,
              40.020427194689844
            ],
            [
              116.34600773402316,
              40.02045320881611
            ],
            [
              116.34595554645553,
              40.020484488840374
            ],
            [
              116.34590667616382,
              40.020520733518914
            ],
            [
              116.34586159379566,
              40.02056159379566
            ],
            [
              116.34582073351892,
              40.02060667616382
            ],
            [
              116.34578448884037,
              40.02065554645553
            ],
            [
              116.3457532088161,
              40.02070773402317
            ],
            [
              116.34572719468984,
              40.020762736271934
            ],
            [
              116.34570669699184,
              40.0208200235001
            ],
            [
              116.34569191312615,
              40.02087904400035
            ],
            [
              116.34568298546947,
              40.020939229373
            ],
            [
              116.34568,
              40.021
            ],
            [
              116.34568298546947,
              40.021060770627
            ],
            [
              116.34569191312615,
              40.02112095599965
            ],
            [
              116.34570669699184,
              40.0211799764999
            ],
            [
              116.34572719468984,
              40.02123726372807
            ],
            [
              116.3457532088161,
              40.02129226597683
            ],
            [
              116.34578448884037,
              40.02134445354447
            ],
            [
              116.34582073351892,
              40.02139332383618
            ],
            [
              116.34586159379566,
              40.02143840620434
            ],
            [
              116.34590667616382,
              40.02147926648109
            ],
            [
              116.34595554645553,
              40.02151551115963
            ],
            [
              116.34600773402316,
              40.021546791183894
            ],
            [
              116.34606273627193,
              40.02157280531016
            ],
            [
              116.3461200235001,
              40.02159330300815
            ],
            [
              116.34617904400035,
              40.02160808687385
            ],
            [
              116.346239229373,
              40.021617014530534
            ],
            [
              116.3463,
              40.02162
            ],
            [
              116.346360770627,
              40.021617014530534
            ],
            [
              116.34642095599965,
              40.02160808687385
            ],
            [
              116.3464799764999,
              40.02159330300815
            ],
            [
              116.34653726372807,
              40.02157280531016
            ],
            [
              116.34659226597684,
              40.021546791183894
            ],
            [
              116.34664445354447,
              40.02151551115963
            ],
            [
              116.34669332383618,
              40.02147926648109
            ],
            [
              116.34673840620434,
              40.02143840620434
            ],
            [
              116.34677926648108,
              40.02139332383618
            ],
            [
              116.34681551115963,
              40.02134445354447
            ],
            [
              116.34684679118389,
              40.02129226597683
            ],
            [
              116.34687280531016,
              40.02123726372807
            ],
            [
              116.34689330300816,
              40.0211799764999
            ],
            [
              116.34690808687385,
              40.02112095599965
            ],
            [
              116.34691701453053,
              40.021060770627
            ],
            [
              116.34692,
              40.021
            ],
            [
              116.34691701453053,
              40.020939229373
            ]
          ]
        ]
      }
    },
    {
      "type": "Feature",
      "id": "PS-05",
      "properties": {
        "id": "PS-05",
        "layer": "PUBLIC_SPACE",
        "source_type": "agent_generated_design",
        "confidence": "low",
        "geometry_role": "design_proposal",
        "name_zh": "一刻回声站",
        "public_space_type": "可停留、可反馈、可撤回的公共空间",
        "area_sqm_declared": 11435.132
      },
      "geometry": {
        "type": "Polygon",
        "coordinates": [
          [
            [
              116.34911701453053,
              39.985939229372995
            ],
            [
              116.34910808687385,
              39.98587904400035
            ],
            [
              116.34909330300816,
              39.9858200235001
            ],
            [
              116.34907280531016,
              39.98576273627193
            ],
            [
              116.3490467911839,
              39.985707734023165
            ],
            [
              116.34901551115964,
              39.985655546455526
            ],
            [
              116.34897926648108,
              39.98560667616382
            ],
            [
              116.34893840620434,
              39.98556159379566
            ],
            [
              116.34889332383618,
              39.98552073351891
            ],
            [
              116.34884445354447,
              39.98548448884037
            ],
            [
              116.34879226597684,
              39.985453208816104
            ],
            [
              116.34873726372807,
              39.98542719468984
            ],
            [
              116.3486799764999,
              39.985406696991845
            ],
            [
              116.34862095599965,
              39.98539191312615
            ],
            [
              116.348560770627,
              39.985382985469464
            ],
            [
              116.3485,
              39.98538
            ],
            [
              116.348439229373,
              39.985382985469464
            ],
            [
              116.34837904400035,
              39.98539191312615
            ],
            [
              116.34832002350011,
              39.985406696991845
            ],
            [
              116.34826273627193,
              39.98542719468984
            ],
            [
              116.34820773402316,
              39.985453208816104
            ],
            [
              116.34815554645553,
              39.98548448884037
            ],
            [
              116.34810667616382,
              39.98552073351891
            ],
            [
              116.34806159379566,
              39.98556159379566
            ],
            [
              116.34802073351892,
              39.98560667616382
            ],
            [
              116.34798448884037,
              39.985655546455526
            ],
            [
              116.34795320881611,
              39.985707734023165
            ],
            [
              116.34792719468985,
              39.98576273627193
            ],
            [
              116.34790669699184,
              39.9858200235001
            ],
            [
              116.34789191312615,
              39.98587904400035
            ],
            [
              116.34788298546947,
              39.985939229372995
            ],
            [
              116.34788,
              39.986
            ],
            [
              116.34788298546947,
              39.986060770627
            ],
            [
              116.34789191312615,
              39.986120955999645
            ],
            [
              116.34790669699184,
              39.9861799764999
            ],
            [
              116.34792719468985,
              39.986237263728064
            ],
            [
              116.34795320881611,
              39.98629226597683
            ],
            [
              116.34798448884037,
              39.98634445354447
            ],
            [
              116.34802073351892,
              39.986393323836175
            ],
            [
              116.34806159379566,
              39.986438406204336
            ],
            [
              116.34810667616382,
              39.98647926648108
            ],
            [
              116.34815554645553,
              39.986515511159624
            ],
            [
              116.34820773402316,
              39.98654679118389
            ],
            [
              116.34826273627193,
              39.98657280531015
            ],
            [
              116.34832002350011,
              39.98659330300815
            ],
            [
              116.34837904400035,
              39.986608086873844
            ],
            [
              116.348439229373,
              39.98661701453053
            ],
            [
              116.3485,
              39.986619999999995
            ],
            [
              116.348560770627,
              39.98661701453053
            ],
            [
              116.34862095599965,
              39.986608086873844
            ],
            [
              116.3486799764999,
              39.98659330300815
            ],
            [
              116.34873726372807,
              39.98657280531015
            ],
            [
              116.34879226597684,
              39.98654679118389
            ],
            [
              116.34884445354447,
              39.986515511159624
            ],
            [
              116.34889332383618,
              39.98647926648108
            ],
            [
              116.34893840620434,
              39.986438406204336
            ],
            [
              116.34897926648108,
              39.986393323836175
            ],
            [
              116.34901551115964,
              39.98634445354447
            ],
            [
              116.3490467911839,
              39.98629226597683
            ],
            [
              116.34907280531016,
              39.986237263728064
            ],
            [
              116.34909330300816,
              39.9861799764999
            ],
            [
              116.34910808687385,
              39.986120955999645
            ],
            [
              116.34911701453053,
              39.986060770627
            ],
            [
              116.34912,
              39.986
            ],
            [
              116.34911701453053,
              39.985939229372995
            ]
          ]
        ]
      }
    },
    {
      "type": "Feature",
      "id": "PS-06",
      "properties": {
        "id": "PS-06",
        "layer": "PUBLIC_SPACE",
        "source_type": "agent_generated_design",
        "confidence": "low",
        "geometry_role": "design_proposal",
        "name_zh": "冬夜服务前场",
        "public_space_type": "可停留、可反馈、可撤回的公共空间",
        "area_sqm_declared": 11441.726
      },
      "geometry": {
        "type": "Polygon",
        "coordinates": [
          [
            [
              116.34711701453053,
              39.945939229372996
            ],
            [
              116.34710808687385,
              39.94587904400035
            ],
            [
              116.34709330300815,
              39.9458200235001
            ],
            [
              116.34707280531015,
              39.94576273627193
            ],
            [
              116.34704679118389,
              39.945707734023166
            ],
            [
              116.34701551115963,
              39.94565554645553
            ],
            [
              116.34697926648107,
              39.94560667616382
            ],
            [
              116.34693840620433,
              39.94556159379566
            ],
            [
              116.34689332383617,
              39.94552073351891
            ],
            [
              116.34684445354446,
              39.94548448884037
            ],
            [
              116.34679226597683,
              39.945453208816105
            ],
            [
              116.34673726372806,
              39.94542719468984
            ],
            [
              116.34667997649989,
              39.945406696991846
            ],
            [
              116.34662095599964,
              39.94539191312615
            ],
            [
              116.346560770627,
              39.945382985469465
            ],
            [
              116.34649999999999,
              39.94538
            ],
            [
              116.34643922937299,
              39.945382985469465
            ],
            [
              116.34637904400034,
              39.94539191312615
            ],
            [
              116.3463200235001,
              39.945406696991846
            ],
            [
              116.34626273627192,
              39.94542719468984
            ],
            [
              116.34620773402315,
              39.945453208816105
            ],
            [
              116.34615554645552,
              39.94548448884037
            ],
            [
              116.34610667616381,
              39.94552073351891
            ],
            [
              116.34606159379565,
              39.94556159379566
            ],
            [
              116.34602073351891,
              39.94560667616382
            ],
            [
              116.34598448884036,
              39.94565554645553
            ],
            [
              116.3459532088161,
              39.945707734023166
            ],
            [
              116.34592719468984,
              39.94576273627193
            ],
            [
              116.34590669699183,
              39.9458200235001
            ],
            [
              116.34589191312614,
              39.94587904400035
            ],
            [
              116.34588298546946,
              39.945939229372996
            ],
            [
              116.34588,
              39.946
            ],
            [
              116.34588298546946,
              39.946060770627
            ],
            [
              116.34589191312614,
              39.946120955999646
            ],
            [
              116.34590669699183,
              39.9461799764999
            ],
            [
              116.34592719468984,
              39.946237263728065
            ],
            [
              116.3459532088161,
              39.94629226597683
            ],
            [
              116.34598448884036,
              39.94634445354447
            ],
            [
              116.34602073351891,
              39.946393323836176
            ],
            [
              116.34606159379565,
              39.94643840620434
            ],
            [
              116.34610667616381,
              39.946479266481084
            ],
            [
              116.34615554645552,
              39.946515511159625
            ],
            [
              116.34620773402315,
              39.94654679118389
            ],
            [
              116.34626273627192,
              39.946572805310154
            ],
            [
              116.3463200235001,
              39.94659330300815
            ],
            [
              116.34637904400034,
              39.946608086873844
            ],
            [
              116.34643922937299,
              39.94661701453053
            ],
            [
              116.34649999999999,
              39.946619999999996
            ],
            [
              116.346560770627,
              39.94661701453053
            ],
            [
              116.34662095599964,
              39.946608086873844
            ],
            [
              116.34667997649989,
              39.94659330300815
            ],
            [
              116.34673726372806,
              39.946572805310154
            ],
            [
              116.34679226597683,
              39.94654679118389
            ],
            [
              116.34684445354446,
              39.946515511159625
            ],
            [
              116.34689332383617,
              39.946479266481084
            ],
            [
              116.34693840620433,
              39.94643840620434
            ],
            [
              116.34697926648107,
              39.946393323836176
            ],
            [
              116.34701551115963,
              39.94634445354447
            ],
            [
              116.34704679118389,
              39.94629226597683
            ],
            [
              116.34707280531015,
              39.946237263728065
            ],
            [
              116.34709330300815,
              39.9461799764999
            ],
            [
              116.34710808687385,
              39.946120955999646
            ],
            [
              116.34711701453053,
              39.946060770627
            ],
            [
              116.34711999999999,
              39.946
            ],
            [
              116.34711701453053,
              39.945939229372996
            ]
          ]
        ]
      }
    }
  ]
}
