{
  "type": "FeatureCollection",
  "name": "seasonal_civic_slow_mobility_concept",
  "metadata": {
    "design_status": "concept_proposal",
    "no_road_redline_claim": true
  },
  "features": [
    {
      "type": "Feature",
      "id": "RD-01",
      "properties": {
        "id": "RD-01",
        "layer": "ROAD_CENTERLINE",
        "source_type": "agent_generated_design",
        "confidence": "low",
        "geometry_role": "design_proposal",
        "name_zh": "四时应答线",
        "road_class": "greenway",
        "route_status": "概念慢行/接驳联系，线位待核验"
      },
      "geometry": {
        "type": "LineString",
        "coordinates": [
          [
            116.3475,
            39.9392
          ],
          [
            116.34734999999999,
            40.0263
          ]
        ]
      }
    },
    {
      "type": "Feature",
      "id": "RD-02",
      "properties": {
        "id": "RD-02",
        "layer": "ROAD_CENTERLINE",
        "source_type": "agent_generated_design",
        "confidence": "low",
        "geometry_role": "design_proposal",
        "name_zh": "西向公共房间联系",
        "road_class": "pedestrian",
        "route_status": "概念慢行/接驳联系，线位待核验"
      },
      "geometry": {
        "type": "LineString",
        "coordinates": [
          [
            116.34089999999999,
            39.988
          ],
          [
            116.3475,
            39.988
          ]
        ]
      }
    },
    {
      "type": "Feature",
      "id": "RD-03",
      "properties": {
        "id": "RD-03",
        "layer": "ROAD_CENTERLINE",
        "source_type": "agent_generated_design",
        "confidence": "low",
        "geometry_role": "design_proposal",
        "name_zh": "东向公共房间联系",
        "road_class": "pedestrian",
        "route_status": "概念慢行/接驳联系，线位待核验"
      },
      "geometry": {
        "type": "LineString",
        "coordinates": [
          [
            116.3475,
            39.978
          ],
          [
            116.3541,
            39.978
          ]
        ]
      }
    },
    {
      "type": "Feature",
      "id": "RD-04",
      "properties": {
        "id": "RD-04",
        "layer": "ROAD_CENTERLINE",
        "source_type": "agent_generated_design",
        "confidence": "low",
        "geometry_role": "design_proposal",
        "name_zh": "季节骑行联络",
        "road_class": "cycleway",
        "route_status": "概念慢行/接驳联系，线位待核验"
      },
      "geometry": {
        "type": "LineString",
        "coordinates": [
          [
            116.34201693658241,
            40.0124971999394
          ],
          [
            116.3539,
            39.947
          ]
        ]
      }
    },
    {
      "type": "Feature",
      "id": "RD-05",
      "properties": {
        "id": "RD-05",
        "layer": "ROAD_CENTERLINE",
        "source_type": "agent_generated_design",
        "confidence": "low",
        "geometry_role": "design_proposal",
        "name_zh": "站点接驳信息线",
        "road_class": "transit_connection",
        "route_status": "概念慢行/接驳联系，线位待核验"
      },
      "geometry": {
        "type": "LineString",
        "coordinates": [
          [
            116.3407,
            39.95
          ],
          [
            116.3543,
            40.02
          ]
        ]
      }
    }
  ]
}
