{
  "type": "FeatureCollection",
  "features": [
    {
      "type": "Feature",
      "id": "BLDG-01",
      "properties": {
        "id": "BLDG-01",
        "layer": "BUILDING_FOOTPRINT",
        "source_type": "agent_generated_design",
        "confidence": "low",
        "geometry_role": "design_proposal",
        "action": "retain_adapt",
        "program": "城市学习入口",
        "official_boundary": false,
        "area_sqm_declared": 42098.02
      },
      "geometry": {
        "type": "Polygon",
        "coordinates": [
          [
            [
              116.342001,
              39.9455625
            ],
            [
              116.342001,
              39.9499375
            ],
            [
              116.343015,
              39.9499375
            ],
            [
              116.343015,
              39.9455625
            ],
            [
              116.342001,
              39.9455625
            ]
          ]
        ]
      }
    },
    {
      "type": "Feature",
      "id": "BLDG-02",
      "properties": {
        "id": "BLDG-02",
        "layer": "BUILDING_FOOTPRINT",
        "source_type": "agent_generated_design",
        "confidence": "low",
        "geometry_role": "design_proposal",
        "action": "adapt",
        "program": "城市镜面",
        "official_boundary": false,
        "area_sqm_declared": 40799.59
      },
      "geometry": {
        "type": "Polygon",
        "coordinates": [
          [
            [
              116.34445799999999,
              39.95103125
            ],
            [
              116.34445799999999,
              39.95496875
            ],
            [
              116.34555,
              39.95496875
            ],
            [
              116.34555,
              39.95103125
            ],
            [
              116.34445799999999,
              39.95103125
            ]
          ]
        ]
      }
    },
    {
      "type": "Feature",
      "id": "BLDG-03",
      "properties": {
        "id": "BLDG-03",
        "layer": "BUILDING_FOOTPRINT",
        "source_type": "agent_generated_design",
        "confidence": "low",
        "geometry_role": "design_proposal",
        "action": "adapt",
        "program": "部署场适应房",
        "official_boundary": false,
        "area_sqm_declared": 53876.56
      },
      "geometry": {
        "type": "Polygon",
        "coordinates": [
          [
            [
              116.348124,
              39.95685
            ],
            [
              116.348124,
              39.9614
            ],
            [
              116.349372,
              39.9614
            ],
            [
              116.349372,
              39.95685
            ],
            [
              116.348124,
              39.95685
            ]
          ]
        ]
      }
    },
    {
      "type": "Feature",
      "id": "BLDG-04",
      "properties": {
        "id": "BLDG-04",
        "layer": "BUILDING_FOOTPRINT",
        "source_type": "agent_generated_design",
        "confidence": "low",
        "geometry_role": "design_proposal",
        "action": "retain_adapt",
        "program": "共同训练房",
        "official_boundary": false,
        "area_sqm_declared": 53413.91
      },
      "geometry": {
        "type": "Polygon",
        "coordinates": [
          [
            [
              116.34332699999999,
              39.96896875
            ],
            [
              116.34332699999999,
              39.97378125
            ],
            [
              116.34449699999999,
              39.97378125
            ],
            [
              116.34449699999999,
              39.96896875
            ],
            [
              116.34332699999999,
              39.96896875
            ]
          ]
        ]
      }
    },
    {
      "type": "Feature",
      "id": "BLDG-05",
      "properties": {
        "id": "BLDG-05",
        "layer": "BUILDING_FOOTPRINT",
        "source_type": "agent_generated_design",
        "confidence": "low",
        "geometry_role": "design_proposal",
        "action": "adapt",
        "program": "社区共学房",
        "official_boundary": false,
        "area_sqm_declared": 55028.3
      },
      "geometry": {
        "type": "Polygon",
        "coordinates": [
          [
            [
              116.347149,
              39.9744375
            ],
            [
              116.347149,
              39.9788125
            ],
            [
              116.348475,
              39.9788125
            ],
            [
              116.348475,
              39.9744375
            ],
            [
              116.347149,
              39.9744375
            ]
          ]
        ]
      }
    },
    {
      "type": "Feature",
      "id": "BLDG-06",
      "properties": {
        "id": "BLDG-06",
        "layer": "BUILDING_FOOTPRINT",
        "source_type": "agent_generated_design",
        "confidence": "low",
        "geometry_role": "design_proposal",
        "action": "insert",
        "program": "协商阈值",
        "official_boundary": false,
        "area_sqm_declared": 40394.67
      },
      "geometry": {
        "type": "Polygon",
        "coordinates": [
          [
            [
              116.350464,
              39.978725
            ],
            [
              116.350464,
              39.983275
            ],
            [
              116.3514,
              39.983275
            ],
            [
              116.3514,
              39.978725
            ],
            [
              116.350464,
              39.978725
            ]
          ]
        ]
      }
    },
    {
      "type": "Feature",
      "id": "BLDG-07",
      "properties": {
        "id": "BLDG-07",
        "layer": "BUILDING_FOOTPRINT",
        "source_type": "agent_generated_design",
        "confidence": "low",
        "geometry_role": "design_proposal",
        "action": "retain_adapt",
        "program": "记忆档案房",
        "official_boundary": false,
        "area_sqm_declared": 47121.27
      },
      "geometry": {
        "type": "Polygon",
        "coordinates": [
          [
            [
              116.34227399999999,
              39.987474999999996
            ],
            [
              116.34227399999999,
              39.992025
            ],
            [
              116.34336599999999,
              39.992025
            ],
            [
              116.34336599999999,
              39.987474999999996
            ],
            [
              116.34227399999999,
              39.987474999999996
            ]
          ]
        ]
      }
    },
    {
      "type": "Feature",
      "id": "BLDG-08",
      "properties": {
        "id": "BLDG-08",
        "layer": "BUILDING_FOOTPRINT",
        "source_type": "agent_generated_design",
        "confidence": "low",
        "geometry_role": "design_proposal",
        "action": "insert",
        "program": "校准场服务房",
        "official_boundary": false,
        "area_sqm_declared": 67634.54
      },
      "geometry": {
        "type": "Polygon",
        "coordinates": [
          [
            [
              116.346291,
              39.99259375
            ],
            [
              116.346291,
              39.99740625
            ],
            [
              116.347773,
              39.99740625
            ],
            [
              116.347773,
              39.99259375
            ],
            [
              116.346291,
              39.99259375
            ]
          ]
        ]
      }
    },
    {
      "type": "Feature",
      "id": "BLDG-09",
      "properties": {
        "id": "BLDG-09",
        "layer": "BUILDING_FOOTPRINT",
        "source_type": "agent_generated_design",
        "confidence": "low",
        "geometry_role": "design_proposal",
        "action": "adapt",
        "program": "开发者共作房",
        "official_boundary": false,
        "area_sqm_declared": 37859.98
      },
      "geometry": {
        "type": "Polygon",
        "coordinates": [
          [
            [
              116.350425,
              39.99740625
            ],
            [
              116.350425,
              40.00134375
            ],
            [
              116.351439,
              40.00134375
            ],
            [
              116.351439,
              39.99740625
            ],
            [
              116.350425,
              39.99740625
            ]
          ]
        ]
      }
    },
    {
      "type": "Feature",
      "id": "BLDG-10",
      "properties": {
        "id": "BLDG-10",
        "layer": "BUILDING_FOOTPRINT",
        "source_type": "agent_generated_design",
        "confidence": "low",
        "geometry_role": "design_proposal",
        "action": "retain_adapt",
        "program": "开放训练院",
        "official_boundary": false,
        "area_sqm_declared": 56945.4
      },
      "geometry": {
        "type": "Polygon",
        "coordinates": [
          [
            [
              116.342508,
              40.00484375
            ],
            [
              116.342508,
              40.00965625
            ],
            [
              116.343756,
              40.00965625
            ],
            [
              116.343756,
              40.00484375
            ],
            [
              116.342508,
              40.00484375
            ]
          ]
        ]
      }
    },
    {
      "type": "Feature",
      "id": "BLDG-11",
      "properties": {
        "id": "BLDG-11",
        "layer": "BUILDING_FOOTPRINT",
        "source_type": "agent_generated_design",
        "confidence": "low",
        "geometry_role": "design_proposal",
        "action": "insert",
        "program": "验证大厅",
        "official_boundary": false,
        "area_sqm_declared": 69883.94
      },
      "geometry": {
        "type": "Polygon",
        "coordinates": [
          [
            [
              116.346642,
              40.008125
            ],
            [
              116.346642,
              40.013374999999996
            ],
            [
              116.348046,
              40.013374999999996
            ],
            [
              116.348046,
              40.008125
            ],
            [
              116.346642,
              40.008125
            ]
          ]
        ]
      }
    },
    {
      "type": "Feature",
      "id": "BLDG-12",
      "properties": {
        "id": "BLDG-12",
        "layer": "BUILDING_FOOTPRINT",
        "source_type": "agent_generated_design",
        "confidence": "low",
        "geometry_role": "design_proposal",
        "action": "adapt",
        "program": "治理复盘室",
        "official_boundary": false,
        "area_sqm_declared": 40374.29
      },
      "geometry": {
        "type": "Polygon",
        "coordinates": [
          [
            [
              116.35058099999999,
              40.0139
            ],
            [
              116.35058099999999,
              40.0181
            ],
            [
              116.351595,
              40.0181
            ],
            [
              116.351595,
              40.0139
            ],
            [
              116.35058099999999,
              40.0139
            ]
          ]
        ]
      }
    }
  ]
}
