{
  "type": "FeatureCollection",
  "features": [
    {
      "type": "Feature",
      "id": "GREEN-01",
      "properties": {
        "id": "GREEN-01",
        "layer": "GREEN_SPACE",
        "source_type": "agent_generated_design",
        "confidence": "low",
        "geometry_role": "design_proposal",
        "name_zh": "记忆缝与学习绿廊",
        "landscape_role": "memory_learning_spine",
        "area_sqm_declared": 1035138.97
      },
      "geometry": {
        "type": "Polygon",
        "coordinates": [
          [
            [
              116.34656412522381,
              39.96613780927783
            ],
            [
              116.34709434779468,
              39.99325373543738
            ],
            [
              116.34684482176002,
              40.02386966016363
            ],
            [
              116.34684745322683,
              40.023933904573894
            ],
            [
              116.34685636907578,
              40.023997581700904
            ],
            [
              116.34687148344238,
              40.02406007829913
            ],
            [
              116.34689265076702,
              40.02412079249216
            ],
            [
              116.34691966719677,
              40.02417913956913
            ],
            [
              116.34695227254868,
              40.02423455761578
            ],
            [
              116.34699015281535,
              40.02428651292604
            ],
            [
              116.34703294318912,
              40.02433450514187
            ],
            [
              116.34708023157529,
              40.02437807207199
            ],
            [
              116.34713156256086,
              40.02441679414305
            ],
            [
              116.34718644180039,
              40.024450298440335
            ],
            [
              116.34724434077678,
              40.024478262299155
            ],
            [
              116.34730470189126,
              40.02450041641225
            ],
            [
              116.34736694383328,
              40.02451654742342
            ],
            [
              116.34743046717891,
              40.02452649998219
            ],
            [
              116.34749466016363,
              40.02453017823998
            ],
            [
              116.34755890457389,
              40.024527546773164
            ],
            [
              116.3476225817009,
              40.024518630924206
            ],
            [
              116.34768507829914,
              40.02450351655761
            ],
            [
              116.34774579249216,
              40.024482349232976
            ],
            [
              116.34780413956912,
              40.024455332803214
            ],
            [
              116.34785955761578,
              40.02442272745132
            ],
            [
              116.34791151292605,
              40.02438484718465
            ],
            [
              116.34795950514187,
              40.02434205681088
            ],
            [
              116.34800307207199,
              40.0242947684247
            ],
            [
              116.34804179414306,
              40.024243437439125
            ],
            [
              116.34807529844034,
              40.024188558199604
            ],
            [
              116.34810326229916,
              40.02413065922321
            ],
            [
              116.34812541641226,
              40.02407029810874
            ],
            [
              116.34814154742341,
              40.02400805616672
            ],
            [
              116.34815149998218,
              40.02394453282108
            ],
            [
              116.34815517823998,
              40.02388033983636
            ],
            [
              116.34840477823998,
              39.99325533983636
            ],
            [
              116.34840467477619,
              39.99323719072216
            ],
            [
              116.34787447341371,
              39.96612234917419
            ],
            [
              116.3481551569708,
              39.94163250890112
            ],
            [
              116.34815273821194,
              39.941568256130964
            ],
            [
              116.34814403322726,
              39.94150454983529
            ],
            [
              116.34812912585055,
              39.94144200354054
            ],
            [
              116.34810815964796,
              39.94138121960173
            ],
            [
              116.34808133653553,
              39.94132278340142
            ],
            [
              116.34804891483446,
              39.94126725771216
            ],
            [
              116.34801120678347,
              39.9412151772767
            ],
            [
              116.3479685755317,
              39.9411670436581
            ],
            [
              116.34792143164141,
              39.94112332040941
            ],
            [
              116.34787022913403,
              39.94108442860943
            ],
            [
              116.34781546111772,
              39.94105074280744
            ],
            [
              116.34775765503838,
              39.94102258741614
            ],
            [
              116.34769736760018,
              39.94100023358733
            ],
            [
              116.3476351794041,
              39.94098389660061
            ],
            [
              116.34757168935646,
              39.94097373379009
            ],
            [
              116.34750750890112,
              39.94096984302919
            ],
            [
              116.34744325613096,
              39.94097226178806
            ],
            [
              116.34737954983528,
              39.94098096677274
            ],
            [
              116.34731700354052,
              39.94099587414946
            ],
            [
              116.34725621960172,
              39.941016840352034
            ],
            [
              116.34719778340141,
              39.94104366346447
            ],
            [
              116.34714225771216,
              39.94107608516554
            ],
            [
              116.3470901772767,
              39.94111379321653
            ],
            [
              116.34704204365809,
              39.941156424468296
            ],
            [
              116.34699832040941,
              39.94120356835859
            ],
            [
              116.34695942860942,
              39.94125477086596
            ],
            [
              116.34692574280743,
              39.94130953888229
            ],
            [
              116.34689758741614,
              39.94136734496162
            ],
            [
              116.34687523358733,
              39.94142763239982
            ],
            [
              116.34685889660061,
              39.941489820595905
            ],
            [
              116.34684873379008,
              39.94155331064355
            ],
            [
              116.34684484302919,
              39.94161749109888
            ],
            [
              116.34656404302919,
              39.96611749109888
            ],
            [
              116.34656412522381,
              39.96613780927783
            ]
          ]
        ]
      }
    },
    {
      "type": "Feature",
      "id": "GREEN-02",
      "properties": {
        "id": "GREEN-02",
        "layer": "GREEN_SPACE",
        "source_type": "agent_generated_design",
        "confidence": "low",
        "geometry_role": "design_proposal",
        "name_zh": "横向校准场绿带",
        "landscape_role": "calibration_landscape",
        "area_sqm_declared": 381705.95
      },
      "geometry": {
        "type": "Polygon",
        "coordinates": [
          [
            [
              116.34125999999999,
              39.9873
            ],
            [
              116.34110562300397,
              39.98730758405549
            ],
            [
              116.34095273274282,
              39.98733026318337
            ],
            [
              116.34080280163332,
              39.98736781897122
            ],
            [
              116.34065727359402,
              39.987419889736294
            ],
            [
              116.3405175501395,
              39.98748597400865
            ],
            [
              116.34050599359577,
              39.987492900734395
            ],
            [
              116.3406897899881,
              39.990341744815545
            ],
            [
              116.34080280163332,
              39.99038218102878
            ],
            [
              116.34095273274282,
              39.990419736816634
            ],
            [
              116.34110562300397,
              39.99044241594451
            ],
            [
              116.34125999999999,
              39.99045
            ],
            [
              116.35332465753424,
              39.99045
            ],
            [
              116.3533,
              39.99
            ],
            [
              116.353516,
              39.9873
            ],
            [
              116.34125999999999,
              39.9873
            ]
          ]
        ]
      }
    }
  ]
}
