{
  "type": "FeatureCollection",
  "features": [
    {
      "type": "Feature",
      "id": "LU-01",
      "properties": {
        "id": "LU-01",
        "layer": "LAND_USE",
        "source_type": "agent_generated_design",
        "confidence": "low",
        "geometry_role": "design_proposal",
        "name_zh": "城市部署与公共转化 / Urban deployment",
        "land_use_code": "08",
        "official_boundary": false,
        "area_sqm_declared": 2339788.51
      },
      "geometry": {
        "type": "Polygon",
        "coordinates": [
          [
            [
              116.3407,
              39.939
            ],
            [
              116.34023819444444,
              39.955625
            ],
            [
              116.3553,
              39.955625
            ],
            [
              116.3553,
              39.939
            ],
            [
              116.3407,
              39.939
            ]
          ]
        ]
      }
    },
    {
      "type": "Feature",
      "id": "LU-02",
      "properties": {
        "id": "LU-02",
        "layer": "LAND_USE",
        "source_type": "agent_generated_design",
        "confidence": "low",
        "geometry_role": "design_proposal",
        "name_zh": "共同学习与适应更新 / Co-learning renewal",
        "land_use_code": "0701",
        "official_boundary": false,
        "area_sqm_declared": 3006393.58
      },
      "geometry": {
        "type": "Polygon",
        "coordinates": [
          [
            [
              116.3553,
              39.965
            ],
            [
              116.3553,
              39.955625
            ],
            [
              116.34023819444444,
              39.955625
            ],
            [
              116.3397,
              39.975
            ],
            [
              116.33980483870967,
              39.976625
            ],
            [
              116.35437,
              39.976625
            ],
            [
              116.3553,
              39.965
            ]
          ]
        ]
      }
    },
    {
      "type": "Feature",
      "id": "LU-03",
      "properties": {
        "id": "LU-03",
        "layer": "LAND_USE",
        "source_type": "agent_generated_design",
        "confidence": "low",
        "geometry_role": "design_proposal",
        "name_zh": "记忆公共地基 / Memory commons",
        "land_use_code": "14",
        "official_boundary": false,
        "area_sqm_declared": 2844126.88
      },
      "geometry": {
        "type": "Polygon",
        "coordinates": [
          [
            [
              116.3533,
              39.99
            ],
            [
              116.35437,
              39.976625
            ],
            [
              116.33980483870967,
              39.976625
            ],
            [
              116.34127258064517,
              39.999375
            ],
            [
              116.35381369863013,
              39.999375
            ],
            [
              116.3533,
              39.99
            ]
          ]
        ]
      }
    },
    {
      "type": "Feature",
      "id": "LU-04",
      "properties": {
        "id": "LU-04",
        "layer": "LAND_USE",
        "source_type": "agent_generated_design",
        "confidence": "low",
        "geometry_role": "design_proposal",
        "name_zh": "开放训练与创新验证 / Open training",
        "land_use_code": "0803",
        "official_boundary": false,
        "area_sqm_declared": 3222526.32
      },
      "geometry": {
        "type": "Polygon",
        "coordinates": [
          [
            [
              116.35381369863013,
              39.999375
            ],
            [
              116.34127258064517,
              39.999375
            ],
            [
              116.3417,
              40.006
            ],
            [
              116.3427,
              40.0265
            ],
            [
              116.3553,
              40.0265
            ],
            [
              116.35381369863013,
              39.999375
            ]
          ]
        ]
      }
    }
  ]
}
