{
  "type": "FeatureCollection",
  "features": [
    {
      "type": "Feature",
      "id": "PHASE-01",
      "properties": {
        "id": "PHASE-01",
        "layer": "PHASE",
        "source_type": "agent_generated_design",
        "confidence": "low",
        "geometry_role": "design_proposal",
        "phase": "now",
        "phase_zh": "可感知：记忆、连接、试点",
        "area_sqm_declared": 4232697.16
      },
      "geometry": {
        "type": "Polygon",
        "coordinates": [
          [
            [
              116.3407,
              39.939
            ],
            [
              116.3398736111111,
              39.96875
            ],
            [
              116.355,
              39.96875
            ],
            [
              116.3553,
              39.965
            ],
            [
              116.3553,
              39.939
            ],
            [
              116.3407,
              39.939
            ]
          ]
        ]
      }
    },
    {
      "type": "Feature",
      "id": "PHASE-02",
      "properties": {
        "id": "PHASE-02",
        "layer": "PHASE",
        "source_type": "agent_generated_design",
        "confidence": "low",
        "geometry_role": "design_proposal",
        "phase": "near",
        "phase_zh": "可响应：适应房、校准场、公共接口",
        "area_sqm_declared": 4165588.69
      },
      "geometry": {
        "type": "Polygon",
        "coordinates": [
          [
            [
              116.3533,
              39.99
            ],
            [
              116.355,
              39.96875
            ],
            [
              116.3398736111111,
              39.96875
            ],
            [
              116.3397,
              39.975
            ],
            [
              116.34138548387097,
              40.001125
            ],
            [
              116.3539095890411,
              40.001125
            ],
            [
              116.3533,
              39.99
            ]
          ]
        ]
      }
    },
    {
      "type": "Feature",
      "id": "PHASE-03",
      "properties": {
        "id": "PHASE-03",
        "layer": "PHASE",
        "source_type": "agent_generated_design",
        "confidence": "low",
        "geometry_role": "design_proposal",
        "phase": "long",
        "phase_zh": "可共智：开放训练、治理与跨域传播",
        "area_sqm_declared": 3014562.27
      },
      "geometry": {
        "type": "Polygon",
        "coordinates": [
          [
            [
              116.3539095890411,
              40.001125
            ],
            [
              116.34138548387097,
              40.001125
            ],
            [
              116.3417,
              40.006
            ],
            [
              116.3427,
              40.0265
            ],
            [
              116.3553,
              40.0265
            ],
            [
              116.3539095890411,
              40.001125
            ]
          ]
        ]
      }
    }
  ]
}
