{
  "type": "FeatureCollection",
  "features": [
    {
      "type": "Feature",
      "id": "PUBLIC-01",
      "properties": {
        "id": "PUBLIC-01",
        "layer": "PUBLIC_SPACE",
        "source_type": "agent_generated_design",
        "confidence": "low",
        "geometry_role": "design_proposal",
        "name_zh": "连续学习回路",
        "public_role": "memory_trial_deliberation",
        "area_sqm_declared": 465113.36
      },
      "geometry": {
        "type": "Polygon",
        "coordinates": [
          [
            [
              116.34692285664886,
              39.966130794673305
            ],
            [
              116.34745317638331,
              39.993251689840946
            ],
            [
              116.34720360984382,
              40.02387258435974
            ],
            [
              116.34720480026928,
              40.023901647307234
            ],
            [
              116.34720883362952,
              40.0239304536266
            ],
            [
              116.34721567108107,
              40.023958725897224
            ],
            [
              116.34722524677555,
              40.023986191841686
            ],
            [
              116.34723746849377,
              40.02401258694793
            ],
            [
              116.34725221853392,
              40.02403765701666
            ],
            [
              116.34726935484504,
              40.0240611606094
            ],
            [
              116.34728871239507,
              40.0240828713737
            ],
            [
              116.34731010476025,
              40.024102580223044
            ],
            [
              116.34733332592039,
              40.024120097350426
            ],
            [
              116.34735815224303,
              40.02413525405634
            ],
            [
              116.34738434463712,
              40.02414790437343
            ],
            [
              116.34741165085556,
              40.024157926472206
            ],
            [
              116.34743980792457,
              40.0241652238344
            ],
            [
              116.34746854467618,
              40.024169726182414
            ],
            [
              116.34749758435973,
              40.02417139015618
            ],
            [
              116.34752664730723,
              40.02417019973072
            ],
            [
              116.3475554536266,
              40.02416616637047
            ],
            [
              116.34758372589722,
              40.02415932891891
            ],
            [
              116.3476111918417,
              40.024149753224435
            ],
            [
              116.34763758694794,
              40.02413753150621
            ],
            [
              116.34766265701666,
              40.02412278146607
            ],
            [
              116.3476861606094,
              40.02410564515496
            ],
            [
              116.3477078713737,
              40.02408628760492
            ],
            [
              116.34772758022304,
              40.024064895239746
            ],
            [
              116.34774509735043,
              40.024041674079605
            ],
            [
              116.34776025405634,
              40.02401684775696
            ],
            [
              116.34777290437343,
              40.02399065536288
            ],
            [
              116.3477829264722,
              40.02396334914443
            ],
            [
              116.3477902238344,
              40.02393519207542
            ],
            [
              116.34779472618241,
              40.02390645532382
            ],
            [
              116.34779639015618,
              40.02387741564026
            ],
            [
              116.34804599015618,
              39.99325241564026
            ],
            [
              116.34804594335114,
              39.99324420532669
            ],
            [
              116.34751563321097,
              39.96612380081705
            ],
            [
              116.34779638053442,
              39.94162839688384
            ],
            [
              116.34779528633398,
              39.94159933015448
            ],
            [
              116.34779134836471,
              39.94157051063977
            ],
            [
              116.34778460455144,
              39.94154221588739
            ],
            [
              116.34777511984075,
              39.94151471839126
            ],
            [
              116.3477629855756,
              39.94148828296731
            ],
            [
              116.34774831861559,
              39.94146316420312
            ],
            [
              116.34773126021157,
              39.94143960400613
            ],
            [
              116.34771197464529,
              39.9414178292739
            ],
            [
              116.3476906476473,
              39.94139804970902
            ],
            [
              116.34766748460825,
              39.941380455799504
            ],
            [
              116.34764270860087,
              39.941365216984316
            ],
            [
              116.34761655823165,
              39.941352480021585
            ],
            [
              116.34758928534293,
              39.941342367575224
            ],
            [
              116.34756115258756,
              39.94133497703361
            ],
            [
              116.34753243089935,
              39.94133037957171
            ],
            [
              116.34750339688384,
              39.94132861946559
            ],
            [
              116.34747433015448,
              39.94132971366603
            ],
            [
              116.34744551063977,
              39.94133365163529
            ],
            [
              116.34741721588738,
              39.94134039544856
            ],
            [
              116.34738971839126,
              39.94134988015925
            ],
            [
              116.34736328296731,
              39.941362014424406
            ],
            [
              116.34733816420312,
              39.94137668138441
            ],
            [
              116.34731460400613,
              39.94139373978843
            ],
            [
              116.3472928292739,
              39.941413025354706
            ],
            [
              116.34727304970902,
              39.941434352352694
            ],
            [
              116.3472554557995,
              39.94145751539175
            ],
            [
              116.34724021698432,
              39.94148229139913
            ],
            [
              116.34722748002159,
              39.94150844176835
            ],
            [
              116.34721736757521,
              39.941535714657064
            ],
            [
              116.3472099770336,
              39.94156384741243
            ],
            [
              116.3472053795717,
              39.941592569100656
            ],
            [
              116.34720361946557,
              39.94162160311616
            ],
            [
              116.34692281946558,
              39.96612160311616
            ],
            [
              116.34692285664886,
              39.966130794673305
            ]
          ]
        ]
      }
    },
    {
      "type": "Feature",
      "id": "PUBLIC-02",
      "properties": {
        "id": "PUBLIC-02",
        "layer": "PUBLIC_SPACE",
        "source_type": "agent_generated_design",
        "confidence": "low",
        "geometry_role": "design_proposal",
        "name_zh": "原点共同训练场",
        "public_role": "co_learning",
        "area_sqm_declared": 418851.94
      },
      "geometry": {
        "type": "Polygon",
        "coordinates": [
          [
            [
              116.35266352999558,
              39.983616573271675
            ],
            [
              116.35283340806353,
              39.98359137424071
            ],
            [
              116.3529999981852,
              39.98354964558753
            ],
            [
              116.35316169600664,
              39.9834917891819
            ],
            [
              116.35331694428945,
              39.98341836221261
            ],
            [
              116.35346424790778,
              39.983330071821534
            ],
            [
              116.35360218824728,
              39.98322776829339
            ],
            [
              116.35372943686707,
              39.98311243686708
            ],
            [
              116.35384476829338,
              39.98298518824729
            ],
            [
              116.35386316987284,
              39.982960376589645
            ],
            [
              116.35401827606444,
              39.98102154919452
            ],
            [
              116.35394707182152,
              39.98090275209222
            ],
            [
              116.35384476829338,
              39.980764811752714
            ],
            [
              116.35372943686707,
              39.98063756313292
            ],
            [
              116.35360218824728,
              39.980522231706615
            ],
            [
              116.35346424790778,
              39.98041992817847
            ],
            [
              116.35331694428945,
              39.980331637787394
            ],
            [
              116.35316169600664,
              39.98025821081811
            ],
            [
              116.3529999981852,
              39.980200354412474
            ],
            [
              116.35283340806353,
              39.980158625759294
            ],
            [
              116.35266352999558,
              39.98013342672833
            ],
            [
              116.352492,
              39.980125
            ],
            [
              116.342508,
              39.980125
            ],
            [
              116.34233647000441,
              39.98013342672833
            ],
            [
              116.34216659193646,
              39.980158625759294
            ],
            [
              116.3420000018148,
              39.980200354412474
            ],
            [
              116.34183830399336,
              39.98025821081811
            ],
            [
              116.34168305571055,
              39.980331637787394
            ],
            [
              116.34153575209221,
              39.98041992817847
            ],
            [
              116.34139781175271,
              39.980522231706615
            ],
            [
              116.34127056313292,
              39.98063756313292
            ],
            [
              116.34115523170661,
              39.980764811752714
            ],
            [
              116.34105292817847,
              39.98090275209222
            ],
            [
              116.34096463778738,
              39.981050055710554
            ],
            [
              116.3408912108181,
              39.98120530399336
            ],
            [
              116.34083335441247,
              39.98136700181481
            ],
            [
              116.3407916257593,
              39.981533591936476
            ],
            [
              116.34076642672832,
              39.981703470004426
            ],
            [
              116.340758,
              39.981875
            ],
            [
              116.34076642672832,
              39.98204652999558
            ],
            [
              116.3407916257593,
              39.98221640806353
            ],
            [
              116.34083335441247,
              39.982382998185194
            ],
            [
              116.3408912108181,
              39.98254469600664
            ],
            [
              116.34096463778738,
              39.98269994428945
            ],
            [
              116.34105292817847,
              39.982847247907785
            ],
            [
              116.34115523170661,
              39.98298518824729
            ],
            [
              116.34127056313292,
              39.98311243686708
            ],
            [
              116.34139781175271,
              39.98322776829339
            ],
            [
              116.34153575209221,
              39.983330071821534
            ],
            [
              116.34168305571055,
              39.98341836221261
            ],
            [
              116.34183830399336,
              39.9834917891819
            ],
            [
              116.3420000018148,
              39.98354964558753
            ],
            [
              116.34216659193646,
              39.98359137424071
            ],
            [
              116.34233647000441,
              39.983616573271675
            ],
            [
              116.342508,
              39.983625
            ],
            [
              116.352492,
              39.983625
            ],
            [
              116.35266352999558,
              39.983616573271675
            ]
          ]
        ]
      }
    },
    {
      "type": "Feature",
      "id": "PUBLIC-03",
      "properties": {
        "id": "PUBLIC-03",
        "layer": "PUBLIC_SPACE",
        "source_type": "agent_generated_design",
        "confidence": "low",
        "geometry_role": "design_proposal",
        "name_zh": "大钟寺部署场前庭",
        "public_role": "public_deployment",
        "area_sqm_declared": 416935.22
      },
      "geometry": {
        "type": "Polygon",
        "coordinates": [
          [
            [
              116.3529669534958,
              39.95640449460809
            ],
            [
              116.35312833766034,
              39.95638055552867
            ],
            [
              116.35328659827593,
              39.95634091330815
            ],
            [
              116.3534402112063,
              39.9562859497228
            ],
            [
              116.35358769707497,
              39.95621619410198
            ],
            [
              116.35372763551239,
              39.95613231823045
            ],
            [
              116.35385867883491,
              39.956035129878714
            ],
            [
              116.35397956502372,
              39.95592556502372
            ],
            [
              116.3540891298787,
              39.955804678834916
            ],
            [
              116.35418631823045,
              39.95567363551239
            ],
            [
              116.35427019410197,
              39.95553369707497
            ],
            [
              116.35433994972279,
              39.9553862112063
            ],
            [
              116.35439491330814,
              39.955232598275934
            ],
            [
              116.35443455552866,
              39.95507433766035
            ],
            [
              116.35445849460808,
              39.95491295349579
            ],
            [
              116.35446649999999,
              39.95475
            ],
            [
              116.35445849460808,
              39.9545870465042
            ],
            [
              116.35443455552866,
              39.954425662339645
            ],
            [
              116.35439491330814,
              39.95426740172406
            ],
            [
              116.35433994972279,
              39.95411378879369
            ],
            [
              116.35427019410197,
              39.953966302925025
            ],
            [
              116.35418631823045,
              39.953826364487604
            ],
            [
              116.3540891298787,
              39.95369532116508
            ],
            [
              116.35397956502372,
              39.953574434976275
            ],
            [
              116.35385867883491,
              39.95346487012128
            ],
            [
              116.35372763551239,
              39.95336768176954
            ],
            [
              116.35358769707497,
              39.95328380589802
            ],
            [
              116.3534402112063,
              39.9532140502772
            ],
            [
              116.35328659827593,
              39.95315908669184
            ],
            [
              116.35312833766034,
              39.95311944447133
            ],
            [
              116.3529669534958,
              39.95309550539191
            ],
            [
              116.35280399999999,
              39.953087499999995
            ],
            [
              116.342196,
              39.953087499999995
            ],
            [
              116.3420330465042,
              39.95309550539191
            ],
            [
              116.34187166233966,
              39.95311944447133
            ],
            [
              116.34171340172406,
              39.95315908669184
            ],
            [
              116.34155978879369,
              39.9532140502772
            ],
            [
              116.34141230292502,
              39.95328380589802
            ],
            [
              116.34127236448761,
              39.95336768176954
            ],
            [
              116.34114132116508,
              39.95346487012128
            ],
            [
              116.34102043497627,
              39.953574434976275
            ],
            [
              116.34091087012129,
              39.95369532116508
            ],
            [
              116.34081368176955,
              39.953826364487604
            ],
            [
              116.34072980589802,
              39.953966302925025
            ],
            [
              116.34066005027721,
              39.95411378879369
            ],
            [
              116.34060508669185,
              39.95426740172406
            ],
            [
              116.34056544447134,
              39.954425662339645
            ],
            [
              116.34054150539191,
              39.9545870465042
            ],
            [
              116.3405335,
              39.95475
            ],
            [
              116.34054150539191,
              39.95491295349579
            ],
            [
              116.34056544447134,
              39.95507433766035
            ],
            [
              116.34060508669185,
              39.955232598275934
            ],
            [
              116.34066005027721,
              39.9553862112063
            ],
            [
              116.34072980589802,
              39.95553369707497
            ],
            [
              116.34081368176955,
              39.95567363551239
            ],
            [
              116.34091087012129,
              39.955804678834916
            ],
            [
              116.34102043497627,
              39.95592556502372
            ],
            [
              116.34114132116508,
              39.956035129878714
            ],
            [
              116.34127236448761,
              39.95613231823045
            ],
            [
              116.34141230292502,
              39.95621619410198
            ],
            [
              116.34155978879369,
              39.9562859497228
            ],
            [
              116.34171340172406,
              39.95634091330815
            ],
            [
              116.34187166233966,
              39.95638055552867
            ],
            [
              116.3420330465042,
              39.95640449460809
            ],
            [
              116.342196,
              39.9564125
            ],
            [
              116.35280399999999,
              39.9564125
            ],
            [
              116.3529669534958,
              39.95640449460809
            ]
          ]
        ]
      }
    },
    {
      "type": "Feature",
      "id": "PUBLIC-04",
      "properties": {
        "id": "PUBLIC-04",
        "layer": "PUBLIC_SPACE",
        "source_type": "agent_generated_design",
        "confidence": "low",
        "geometry_role": "design_proposal",
        "name_zh": "众智园开放验证庭",
        "public_role": "open_validation",
        "area_sqm_declared": 382449.55
      },
      "geometry": {
        "type": "Polygon",
        "coordinates": [
          [
            [
              116.3529669534958,
              40.01327949460809
            ],
            [
              116.35312833766034,
              40.01325555552867
            ],
            [
              116.35328659827593,
              40.01321591330816
            ],
            [
              116.3534402112063,
              40.0131609497228
            ],
            [
              116.35358769707497,
              40.01309119410198
            ],
            [
              116.35372763551239,
              40.01300731823046
            ],
            [
              116.35385867883491,
              40.01291012987872
            ],
            [
              116.35397956502372,
              40.012800565023724
            ],
            [
              116.3540891298787,
              40.01267967883492
            ],
            [
              116.35418631823045,
              40.012548635512395
            ],
            [
              116.35427019410197,
              40.012408697074974
            ],
            [
              116.35433994972279,
              40.01226121120631
            ],
            [
              116.35439491330814,
              40.01210759827594
            ],
            [
              116.35443455552866,
              40.011949337660354
            ],
            [
              116.35445849460808,
              40.0117879534958
            ],
            [
              116.35446649999999,
              40.011625
            ],
            [
              116.35445849460808,
              40.01146204650421
            ],
            [
              116.35443455552866,
              40.01130066233965
            ],
            [
              116.35439491330814,
              40.011142401724065
            ],
            [
              116.35433994972279,
              40.010988788793696
            ],
            [
              116.35427019410197,
              40.01084130292503
            ],
            [
              116.35418631823045,
              40.01070136448761
            ],
            [
              116.3540891298787,
              40.01057032116508
            ],
            [
              116.35397956502372,
              40.01044943497628
            ],
            [
              116.35385867883491,
              40.010339870121285
            ],
            [
              116.35372763551239,
              40.01024268176955
            ],
            [
              116.35358769707497,
              40.01015880589802
            ],
            [
              116.3534402112063,
              40.0100890502772
            ],
            [
              116.35328659827593,
              40.010034086691846
            ],
            [
              116.35312833766034,
              40.00999444447133
            ],
            [
              116.3529669534958,
              40.00997050539191
            ],
            [
              116.35280399999999,
              40.0099625
            ],
            [
              116.342196,
              40.0099625
            ],
            [
              116.3420330465042,
              40.00997050539191
            ],
            [
              116.3418946843647,
              40.00999102947651
            ],
            [
              116.34205515026811,
              40.013280580496385
            ],
            [
              116.342196,
              40.013287500000004
            ],
            [
              116.35280399999999,
              40.013287500000004
            ],
            [
              116.3529669534958,
              40.01327949460809
            ]
          ]
        ]
      }
    }
  ]
}
