{
  "type": "FeatureCollection",
  "features": [
    {
      "type": "Feature",
      "id": "ROAD-01",
      "properties": {
        "id": "ROAD-01",
        "layer": "ROAD_CENTERLINE",
        "source_type": "agent_generated_design",
        "confidence": "low",
        "geometry_role": "design_proposal",
        "name_zh": "公共学习回路",
        "mobility": "walk_cycle_service"
      },
      "geometry": {
        "type": "LineString",
        "coordinates": [
          [
            116.3475,
            39.941625
          ],
          [
            116.3472192,
            39.966125
          ],
          [
            116.3477496,
            39.993249999999996
          ],
          [
            116.3475,
            40.023875
          ]
        ]
      }
    },
    {
      "type": "Feature",
      "id": "ROAD-02",
      "properties": {
        "id": "ROAD-02",
        "layer": "ROAD_CENTERLINE",
        "source_type": "agent_generated_design",
        "confidence": "low",
        "geometry_role": "design_proposal",
        "name_zh": "小月河场景反馈横向接口",
        "mobility": "slow_public"
      },
      "geometry": {
        "type": "LineString",
        "coordinates": [
          [
            116.340948,
            39.96525
          ],
          [
            116.354052,
            39.96525
          ]
        ]
      }
    },
    {
      "type": "Feature",
      "id": "ROAD-03",
      "properties": {
        "id": "ROAD-03",
        "layer": "ROAD_CENTERLINE",
        "source_type": "agent_generated_design",
        "confidence": "low",
        "geometry_role": "design_proposal",
        "name_zh": "社区协商横向接口",
        "mobility": "slow_public"
      },
      "geometry": {
        "type": "LineString",
        "coordinates": [
          [
            116.34125999999999,
            39.988875
          ],
          [
            116.35374,
            39.988875
          ]
        ]
      }
    },
    {
      "type": "Feature",
      "id": "ROAD-04",
      "properties": {
        "id": "ROAD-04",
        "layer": "ROAD_CENTERLINE",
        "source_type": "agent_generated_design",
        "confidence": "low",
        "geometry_role": "design_proposal",
        "name_zh": "科技服务横向接口",
        "mobility": "slow_public"
      },
      "geometry": {
        "type": "LineString",
        "coordinates": [
          [
            116.340948,
            40.009
          ],
          [
            116.354052,
            40.009
          ]
        ]
      }
    }
  ]
}
