{
  "type": "FeatureCollection",
  "name": "constraints",
  "features": [
    {
      "type": "Feature",
      "id": "CT-001",
      "properties": {
        "id": "CT-001",
        "layer": "HERITAGE_PROTECTION",
        "source_type": "agent_generated_design",
        "confidence": "low",
        "geometry_role": "design_proposal",
        "name_zh": "京张遗产低干预协调带",
        "name_en": "Jing-Zhang Heritage Low-Intervention Coordination Zone",
        "constraint_type": "heritage_coordination",
        "effect": "low_intervention_reversible_only"
      },
      "geometry": {
        "type": "Polygon",
        "coordinates": [
          [
            [
              116.34699044174866,
              39.96199440139413
            ],
            [
              116.3469904018673,
              39.961996535483884
            ],
            [
              116.34679031832448,
              39.97599653411278
            ],
            [
              116.34679048729352,
              39.97600969332118
            ],
            [
              116.34729035250089,
              39.98850819001066
            ],
            [
              116.34769021567918,
              40.003006371699314
            ],
            [
              116.34799003005602,
              40.01500181748
            ],
            [
              116.34789001264654,
              40.024997575496585
            ],
            [
              116.34789167764299,
              40.02502848161396
            ],
            [
              116.34789727501159,
              40.02505911344448
            ],
            [
              116.34790675085172,
              40.02508917598636
            ],
            [
              116.34792001391061,
              40.02511837971999
            ],
            [
              116.34793693646198,
              40.02514644339624
            ],
            [
              116.3479573555359,
              40.02517309674503
            ],
            [
              116.34798107448813,
              40.025198083078315
            ],
            [
              116.3480078648939,
              40.02522116176212
            ],
            [
              116.34803746874759,
              40.025242110534094
            ],
            [
              116.34806960094755,
              40.0252607276441
            ],
            [
              116.34810395204168,
              40.02527683379723
            ],
            [
              116.3481401912078,
              40.025290273880586
            ],
            [
              116.34817796943966,
              40.02530091845726
            ],
            [
              116.34821692290821,
              40.02530866501277
            ],
            [
              116.3482566764656,
              40.025313438942554
            ],
            [
              116.34829684725828,
              40.0253151942704
            ],
            [
              116.34833704841434,
              40.02531391409127
            ],
            [
              116.34837689276924,
              40.02530961073411
            ],
            [
              116.34841599659501,
              40.025302325643125
            ],
            [
              116.34845398329566,
              40.02529212897859
            ],
            [
              116.3484904870343,
              40.025279118941214
            ],
            [
              116.34852515625644,
              40.02526342082629
            ],
            [
              116.34855765707594,
              40.02524518581696
            ],
            [
              116.34858767649042,
              40.025224589528264
            ],
            [
              116.3486149253959,
              40.02520183031574
            ],
            [
              116.34863914137087,
              40.02517712736503
            ],
            [
              116.34866009120368,
              40.02515071858105
            ],
            [
              116.34867757313837,
              40.02512285829664
            ],
            [
              116.34869141881764,
              40.025093814823144
            ],
            [
              116.34870149490405,
              40.02506386786646
            ],
            [
              116.34870770436403,
              40.025033305833176
            ],
            [
              116.34870998740207,
              40.02500242305301
            ],
            [
              116.34880992756611,
              40.01500242222455
            ],
            [
              116.34880986389042,
              40.01499394057312
            ],
            [
              116.34850979212004,
              40.00299394104701
            ],
            [
              116.34850977559388,
              40.002993312667925
            ],
            [
              116.34810968893576,
              39.988493313370725
            ],
            [
              116.34810958722449,
              39.98849030408407
            ],
            [
              116.34760977573946,
              39.9759968834769
            ],
            [
              116.34780958296041,
              39.96200453016617
            ],
            [
              116.34810948084834,
              39.94900559548842
            ],
            [
              116.34810952858818,
              39.949002853842174
            ],
            [
              116.34820947792234,
              39.94050285308527
            ],
            [
              116.34820786938452,
              39.940471944811456
            ],
            [
              116.34820233284607,
              39.94044130673108
            ],
            [
              116.34819292163202,
              39.9404112339051
            ],
            [
              116.34817972638224,
              39.940382015950384
            ],
            [
              116.3481628741784,
              39.940353934250616
            ],
            [
              116.34814252731991,
              39.94032725924638
            ],
            [
              116.34811888176077,
              39.940302247830815
            ],
            [
              116.34809216522234,
              39.94027914087562
            ],
            [
              116.34806263500018,
              39.94025816091141
            ],
            [
              116.34803057548604,
              39.940239509984686
            ],
            [
              116.34799629542921,
              39.94022336771212
            ],
            [
              116.34796012496301,
              39.94020988955082
            ],
            [
              116.34792241242558,
              39.94019920530122
            ],
            [
              116.34788352100523,
              39.94019141785715
            ],
            [
              116.34784382524299,
              39.94018660221493
            ],
            [
              116.34780370742577,
              39.94018480475118
            ],
            [
              116.34776355390477,
              39.940186042776155
            ],
            [
              116.34772375137507,
              39.94019030436715
            ],
            [
              116.34768468315166,
              39.94019754848319
            ],
            [
              116.34764672547819,
              39.940207705360386
            ],
            [
              116.34761024390353,
              39.94022067718365
            ],
            [
              116.34757558976177,
              39.940236339028765
            ],
            [
              116.3475430967886,
              39.94025454006533
            ],
            [
              116.34751307790741,
              39.94027510500932
            ],
            [
              116.34748582221577,
              39.94029783581109
            ],
            [
              116.34746159220127,
              39.9403225135626
            ],
            [
              116.34744062121356,
              39.94034890060556
            ],
            [
              116.34742311121713,
              39.940376742820135
            ],
            [
              116.34740923084601,
              39.94040577207218
            ],
            [
              116.3473991137798,
              39.940435708795526
            ],
            [
              116.34739285745597,
              39.94046626468411
            ],
            [
              116.34739052213136,
              39.94049714546873
            ],
            [
              116.34729048760515,
              39.94899577380859
            ],
            [
              116.34699044174866,
              39.96199440139413
            ]
          ]
        ]
      }
    },
    {
      "type": "Feature",
      "id": "CT-002",
      "properties": {
        "id": "CT-002",
        "layer": "REGULATORY_CONTROL",
        "source_type": "agent_generated_design",
        "confidence": "medium",
        "geometry_role": "design_proposal",
        "name_zh": "生态静默与暗夜优先区",
        "name_en": "Ecological Silence and Darkness Priority Zone",
        "constraint_type": "ecological_silence",
        "effect": "no_tracking_low_light_no_robot_default"
      },
      "geometry": {
        "type": "Polygon",
        "coordinates": [
          [
            [
              116.35409939977187,
              40.00985282480866
            ],
            [
              116.35407052829551,
              40.00969529904297
            ],
            [
              116.35402171675803,
              40.00954070787632
            ],
            [
              116.35395343536705,
              40.00939054008261
            ],
            [
              116.35386634182066,
              40.009246241827356
            ],
            [
              116.35376127496932,
              40.00910920274148
            ],
            [
              116.35363924673362,
              40.00898074254003
            ],
            [
              116.35350143235642,
              40.008862098314395
            ],
            [
              116.35334915908277,
              40.008754412620284
            ],
            [
              116.35318389337723,
              40.00865872247641
            ],
            [
              116.35300722680135,
              40.008575949379455
            ],
            [
              116.3528208606876,
              40.008506890431555
            ],
            [
              116.35262658975697,
              40.00845221066559
            ],
            [
              116.35242628483813,
              40.00841243664224
            ],
            [
              116.35222187485451,
              40.0083879513802
            ],
            [
              116.35201532825232,
              40.00837899066859
            ],
            [
              116.35180863404858,
              40.008385640796845
            ],
            [
              116.35160378268107,
              40.00840783772393
            ],
            [
              116.35140274684471,
              40.008445367695
            ],
            [
              116.35120746249879,
              40.00849786929948
            ],
            [
              116.35101981022724,
              40.008564836950626
            ],
            [
              116.35084159713213,
              40.008645625753466
            ],
            [
              116.35067453943346,
              40.00873945771394
            ],
            [
              116.35052024594398,
              40.008845429229574
            ],
            [
              116.3503802025771,
              40.00896251978976
            ],
            [
              116.35025575803728,
              40.00908960180179
            ],
            [
              116.35014811083092,
              40.00922545144811
            ],
            [
              116.35005829772271,
              40.00936876047043
            ],
            [
              116.34998718374857,
              40.009518148767064
            ],
            [
              116.34993545388147,
              40.00967217768242
            ],
            [
              116.34990360643077,
              40.00982936386075
            ],
            [
              116.34989194823852,
              40.00998819353056
            ],
            [
              116.34990059171918,
              40.01014713708245
            ],
            [
              116.34992945377168,
              40.01030466379976
            ],
            [
              116.34997825657443,
              40.01045925660043
            ],
            [
              116.35004653025555,
              40.01060942664772
            ],
            [
              116.35013361741315,
              40.010753727689554
            ],
            [
              116.35023867944237,
              40.010890769987896
            ],
            [
              116.35036070460781,
              40.01101923370423
            ],
            [
              116.35049851778471,
              40.01113788161213
            ],
            [
              116.35065079177411,
              40.01124557101438
            ],
            [
              116.35081606008394,
              40.011341264749724
            ],
            [
              116.35099273105257,
              40.01142404118348
            ],
            [
              116.35117910317874,
              40.0114931030853
            ],
            [
              116.35137338151038,
              40.011547785308764
            ],
            [
              116.3515736949344,
              40.01158756119876
            ],
            [
              116.35177811420054,
              40.011612047664876
            ],
            [
              116.35198467050583,
              40.011621008871685
            ],
            [
              116.35219137446042,
              40.01161435851075
            ],
            [
              116.35239623525182,
              40.01159216063203
            ],
            [
              116.35259727982286,
              40.01155462902694
            ],
            [
              116.35279257187868,
              40.01150212516888
            ],
            [
              116.35298023053896,
              40.01143515473116
            ],
            [
              116.35315844845626,
              40.01135436271585
            ],
            [
              116.35332550922516,
              40.01126052724047
            ],
            [
              116.35347980391492,
              40.01115455204257
            ],
            [
              116.35361984656605,
              40.011037457774265
            ],
            [
              116.35374428850159,
              40.01091037217078
            ],
            [
              116.35385193131519,
              40.01077451918764
            ],
            [
              116.35394173841098,
              40.0106312072114
            ],
            [
              116.35401284498414,
              40.01048181645727
            ],
            [
              116.35406456634605,
              40.01032778567525
            ],
            [
              116.35409640451422,
              40.010170598292866
            ],
            [
              116.35410805300336,
              40.01001176812785
            ],
            [
              116.35409939977187,
              40.00985282480866
            ]
          ]
        ]
      }
    },
    {
      "type": "Feature",
      "id": "CT-003",
      "properties": {
        "id": "CT-003",
        "layer": "REGULATORY_CONTROL",
        "source_type": "agent_generated_design",
        "confidence": "medium",
        "geometry_role": "design_proposal",
        "name_zh": "根区与土壤连续性保护区",
        "name_en": "Root-Zone and Soil Continuity Protection Area",
        "constraint_type": "soil_root_protection",
        "effect": "no_heavy_installation_no_compaction"
      },
      "geometry": {
        "type": "Polygon",
        "coordinates": [
          [
            [
              116.34674978126498,
              40.022828458920664
            ],
            [
              116.346716111725,
              40.02264467724038
            ],
            [
              116.34665917405987,
              40.02246431773351
            ],
            [
              116.34657951678166,
              40.02228911732869
            ],
            [
              116.34647790718478,
              40.0221207632574
            ],
            [
              116.34635532395049,
              40.02196087680677
            ],
            [
              116.34621294771698,
              40.02181099770775
            ],
            [
              116.3460521497054,
              40.02167256930908
            ],
            [
              116.3458744785121,
              40.021546924679726
            ],
            [
              116.34568164519382,
              40.021435273773456
            ],
            [
              116.34547550678977,
              40.021338691779086
            ],
            [
              116.3452580484394,
              40.021258108768585
            ],
            [
              116.34503136426758,
              40.0211943007425
            ],
            [
              116.34479763722176,
              40.02114788215876
            ],
            [
              116.34455911805438,
              40.021119300017105
            ],
            [
              116.34431810365338,
              40.02110882955555
            ],
            [
              116.34407691492892,
              40.021116571600615
            ],
            [
              116.3438378744691,
              40.0211424515967
            ],
            [
              116.34360328417937,
              40.02118622032395
            ],
            [
              116.34337540312116,
              40.021247456297566
            ],
            [
              116.34315642576239,
              40.021325569825834
            ],
            [
              116.34294846084941,
              40.02141980868738
            ],
            [
              116.34275351110342,
              40.02152926537339
            ],
            [
              116.34257345393671,
              40.02165288582508
            ],
            [
              116.34246786048107,
              40.0217411398618
            ],
            [
              116.34259567174027,
              40.024361270675726
            ],
            [
              116.34272545455167,
              40.024453053024764
            ],
            [
              116.34291829141324,
              40.02456470882226
            ],
            [
              116.34312443579671,
              40.024661295361454
            ],
            [
              116.3433419023329,
              40.024741882395695
            ],
            [
              116.34356859658229,
              40.024805693769856
            ],
            [
              116.34380233521024,
              40.02485211489731
            ],
            [
              116.34404086701916,
              40.024880698680555
            ],
            [
              116.34428189463532,
              40.02489116981853
            ],
            [
              116.34452309664066,
              40.02488342745868
            ],
            [
              116.34476214993681,
              40.024857546168725
            ],
            [
              116.34499675212493,
              40.024813775218234
            ],
            [
              116.34522464368636,
              40.024752536177445
            ],
            [
              116.34544362974958,
              40.024674418855945
            ],
            [
              116.34565160123373,
              40.02458017562089
            ],
            [
              116.34584655516508,
              40.02447071414914
            ],
            [
              116.34602661397047,
              40.02434708868339
            ],
            [
              116.34619004356152,
              40.024210489876715
            ],
            [
              116.34633527003604,
              40.02406223332297
            ],
            [
              116.34646089483466,
              40.02390374688429
            ],
            [
              116.34656570820805,
              40.02373655693711
            ],
            [
              116.346648700864,
              40.02356227367
            ],
            [
              116.34670907368303,
              40.02338257557428
            ],
            [
              116.34674624540862,
              40.02319919327748
            ],
            [
              116.34675985823887,
              40.02301389287498
            ],
            [
              116.34674978126498,
              40.022828458920664
            ]
          ]
        ]
      }
    },
    {
      "type": "Feature",
      "id": "CT-004",
      "properties": {
        "id": "CT-004",
        "layer": "REGULATORY_CONTROL",
        "source_type": "agent_inferred_from_public_data",
        "confidence": "medium",
        "geometry_role": "provisional_constraint",
        "name_zh": "临时边界精度约束",
        "name_en": "Provisional Boundary Precision Constraint",
        "constraint_type": "data_quality",
        "effect": "recompute_all_geometry_sensitive_outputs_when_official_data_arrives"
      },
      "geometry": {
        "type": "Polygon",
        "coordinates": [
          [
            [
              116.3407,
              39.939
            ],
            [
              116.3553,
              39.939
            ],
            [
              116.3553,
              39.965
            ],
            [
              116.3533,
              39.99
            ],
            [
              116.3553,
              40.0265
            ],
            [
              116.3427,
              40.0265
            ],
            [
              116.3417,
              40.006
            ],
            [
              116.3397,
              39.975
            ],
            [
              116.3407,
              39.939
            ]
          ]
        ]
      }
    }
  ],
  "metadata": {
    "official_constraints_verified": false
  }
}
