{
  "type": "FeatureCollection",
  "name": "green_space",
  "features": [
    {
      "type": "Feature",
      "id": "GS-001",
      "properties": {
        "id": "GS-001",
        "layer": "GREEN_SPACE",
        "source_type": "agent_generated_design",
        "confidence": "medium",
        "geometry_role": "design_proposal",
        "name_zh": "京张连续生命基底",
        "name_en": "Jing-Zhang Continuous Living Ground",
        "green_type": "life_ground_spine",
        "land_use_code": "1401",
        "life_conditions": [
          "AIR",
          "WATER",
          "SOIL",
          "SHADE_HEAT",
          "DARKNESS",
          "QUIET",
          "BIODIVERSITY"
        ],
        "design_rule_zh": "生命连续优先；智能设施旁置、可撤、低照度。",
        "design_rule_en": "Life continuity first; intelligent devices are side-mounted, removable and low-light.",
        "area_sqm": 1329187.177
      },
      "geometry": {
        "type": "Polygon",
        "coordinates": [
          [
            [
              116.34658088358381,
              39.961988801341754
            ],
            [
              116.34658080379569,
              39.961993069520794
            ],
            [
              116.34638063671005,
              39.97599306677785
            ],
            [
              116.34638097449094,
              39.976019385194554
            ],
            [
              116.34688070492358,
              39.988516378572726
            ],
            [
              116.34728043130178,
              40.00301274194873
            ],
            [
              116.34758006010998,
              40.015003633509394
            ],
            [
              116.3474800253418,
              40.0249951495428
            ],
            [
              116.34748335496575,
              40.0250569617862
            ],
            [
              116.34749454934625,
              40.02511822548312
            ],
            [
              116.34751350069584,
              40.02517835062856
            ],
            [
              116.34754002652171,
              40.025236758180974
            ],
            [
              116.34757387138248,
              40.02529288563879
            ],
            [
              116.34761470934755,
              40.025346192457846
            ],
            [
              116.34766214713555,
              40.02539616525733
            ],
            [
              116.34771572790133,
              40.025442322764206
            ],
            [
              116.34777493563547,
              40.02548422044843
            ],
            [
              116.34783920013359,
              40.02552145480435
            ],
            [
              116.34790790248779,
              40.02555366723688
            ],
            [
              116.34798038104726,
              40.02558054751546
            ],
            [
              116.3480559377908,
              40.02560183676184
            ],
            [
              116.34813384504955,
              40.02561732994359
            ],
            [
              116.34821335251546,
              40.02562687784885
            ],
            [
              116.34829369446794,
              40.0256303885234
            ],
            [
              116.34837409714898,
              40.02562782815648
            ],
            [
              116.34845378621549,
              40.02561922140628
            ],
            [
              116.34853199419769,
              40.02560465116261
            ],
            [
              116.34860796789091,
              40.025584257748406
            ],
            [
              116.34868097561012,
              40.02555823756834
            ],
            [
              116.34875031423718,
              40.02552684121699
            ],
            [
              116.34881531599265,
              40.02549037106543
            ],
            [
              116.34887535486737,
              40.02544917834876
            ],
            [
              116.34892985265155,
              40.02540365978341
            ],
            [
              116.34897828450326,
              40.025354253746116
            ],
            [
              116.34902018400295,
              40.02530143605187
            ],
            [
              116.3490551476451,
              40.025245715371206
            ],
            [
              116.34908283872382,
              40.025187628331174
            ],
            [
              116.34910299057498,
              40.02512773434708
            ],
            [
              116.34911540914378,
              40.02506661023484
            ],
            [
              116.34911997485283,
              40.02500484465564
            ],
            [
              116.3492198551808,
              40.01500484299921
            ],
            [
              116.34921972772797,
              40.014987879696
            ],
            [
              116.34891958418726,
              40.0029878806444
            ],
            [
              116.34891955112742,
              40.00298662388629
            ],
            [
              116.34851937781126,
              39.988486625292616
            ],
            [
              116.34851917435273,
              39.988480606719726
            ],
            [
              116.34801955146133,
              39.975993765504825
            ],
            [
              116.34821916599452,
              39.96200905888556
            ],
            [
              116.34851896178306,
              39.94901118953103
            ],
            [
              116.34851905723002,
              39.949005706237934
            ],
            [
              116.34861895589835,
              39.94050570472454
            ],
            [
              116.3486157384552,
              39.94044388818516
            ],
            [
              116.34860466502288,
              39.94038261205979
            ],
            [
              116.34858584226507,
              39.94032246646899
            ],
            [
              116.34855945147419,
              39.94026403064415
            ],
            [
              116.34852574682478,
              39.94020786734935
            ],
            [
              116.34848505292494,
              39.94015451746176
            ],
            [
              116.34843776168974,
              39.94010449476303
            ],
            [
              116.34838432856633,
              39.94005828099145
            ],
            [
              116.34832526814759,
              39.940016321202904
            ],
            [
              116.34826114921614,
              39.93997901948505
            ],
            [
              116.3481925892668,
              39.939946735066016
            ],
            [
              116.34812024855988,
              39.939919778855135
            ],
            [
              116.34804482376293,
              39.939898410449004
            ],
            [
              116.34796704124204,
              39.93988283563173
            ],
            [
              116.34788765006688,
              39.939873204393194
            ],
            [
              116.34780741479783,
              39.93986960948489
            ],
            [
              116.3477271081233,
              39.93987208552659
            ],
            [
              116.34764750341931,
              39.939880608673185
            ],
            [
              116.34756936730223,
              39.93989509684413
            ],
            [
              116.34749345224655,
              39.93991541051395
            ],
            [
              116.34742048933902,
              39.93994135405574
            ],
            [
              116.34735118123838,
              39.93997267762508
            ],
            [
              116.34728619540897,
              39.94000907956582
            ],
            [
              116.34722615769316,
              39.940050209315
            ],
            [
              116.34717164628428,
              39.94009567077864
            ],
            [
              116.34712318615844,
              39.940145026146055
            ],
            [
              116.34708124401874,
              39.9401978001059
            ],
            [
              116.3470462238004,
              39.94025348442333
            ],
            [
              116.34701846278023,
              39.94031154283437
            ],
            [
              116.34699822832803,
              39.94037141621016
            ],
            [
              116.34698571533104,
              39.94043252794143
            ],
            [
              116.34698104431641,
              39.94049428949144
            ],
            [
              116.34688097528037,
              39.94899154617099
            ],
            [
              116.34658088358381,
              39.961988801341754
            ]
          ]
        ]
      }
    },
    {
      "type": "Feature",
      "id": "GS-002",
      "properties": {
        "id": "GS-002",
        "layer": "GREEN_SPACE",
        "source_type": "agent_generated_design",
        "confidence": "medium",
        "geometry_role": "design_proposal",
        "name_zh": "小月河场景赋能蓝绿界面",
        "name_en": "Xiaoyue River Blue-Green Interface",
        "green_type": "bluegreen_interface",
        "land_use_code": "1402",
        "life_conditions": [
          "WATER",
          "SOIL",
          "BIODIVERSITY",
          "DARKNESS"
        ],
        "area_sqm": 812005.94
      },
      "geometry": {
        "type": "Polygon",
        "coordinates": [
          [
            [
              116.3524734209139,
              39.95799449755793
            ],
            [
              116.3521732905204,
              39.974994495169675
            ],
            [
              116.35217327692826,
              39.9750046746444
            ],
            [
              116.35247312328987,
              39.99500467476703
            ],
            [
              116.35247313787346,
              39.99500556293785
            ],
            [
              116.3529729225289,
              40.02300556347173
            ],
            [
              116.3529761696956,
              40.02304525558099
            ],
            [
              116.35298446164398,
              40.02308451186516
            ],
            [
              116.35299771852647,
              40.023122954263734
            ],
            [
              116.35301581267969,
              40.02316021255382
            ],
            [
              116.3530385698538,
              40.023195927915594
            ],
            [
              116.35306577089023,
              40.02322975638795
            ],
            [
              116.35309715383212,
              40.0232613721813
            ],
            [
              116.35313241644705,
              40.023290470815056
            ],
            [
              116.35317121913742,
              40.023316772050094
            ],
            [
              116.35321318821116,
              40.023340022587874
            ],
            [
              116.35325791948038,
              40.023359998509754
            ],
            [
              116.35330498215427,
              40.02337650743379
            ],
            [
              116.3533539229878,
              40.02338939036741
            ],
            [
              116.35340427064715,
              40.02339852323888
            ],
            [
              116.35345554024897,
              40.02340381809202
            ],
            [
              116.35350723803049,
              40.0234052239336
            ],
            [
              116.35355886610508,
              40.023402727224266
            ],
            [
              116.35360992725734,
              40.02339635200906
            ],
            [
              116.35365992973215,
              40.02338615968577
            ],
            [
              116.35370839197061,
              40.023372248413644
            ],
            [
              116.35375484724818,
              40.02335475216796
            ],
            [
              116.35379884816967,
              40.023333839449755
            ],
            [
              116.35383997097813,
              40.02330971166289
            ],
            [
              116.35387781963604,
              40.02328260117435
            ],
            [
              116.3539120296394,
              40.02325276907628
            ],
            [
              116.35394227152821,
              40.023220502671414
            ],
            [
              116.35396825405923,
              40.0231861127061
            ],
            [
              116.35398972701077,
              40.023149930377386
            ],
            [
              116.35400648359227,
              40.02311230414351
            ],
            [
              116.35401836243561,
              40.023073596367745
            ],
            [
              116.35402524914883,
              40.02303417982869
            ],
            [
              116.35402707741764,
              40.022994434130105
            ],
            [
              116.35352687000461,
              39.99499487874572
            ],
            [
              116.35350920865048,
              39.99381805787127
            ],
            [
              116.3533,
              39.99
            ],
            [
              116.353427912561,
              39.9884010929876
            ],
            [
              116.35322679940593,
              39.975000412764395
            ],
            [
              116.35352655895468,
              39.958006648333395
            ],
            [
              116.35392640767724,
              39.94200779373606
            ],
            [
              116.35392486517758,
              39.94196804036405
            ],
            [
              116.35391826794594,
              39.94192859479183
            ],
            [
              116.35390667952572,
              39.94188983690106
            ],
            [
              116.35389021152773,
              39.94185213995003
            ],
            [
              116.35386902255479,
              39.94181586697899
            ],
            [
              116.35384331667416,
              39.94178136731405
            ],
            [
              116.3538133414521,
              39.941748973203026
            ],
            [
              116.35377938556928,
              39.941718996615734
            ],
            [
              116.3537417760407,
              39.94169172623986
            ],
            [
              116.35370087506628,
              39.94166742470064
            ],
            [
              116.35365707654262,
              39.94164632603198
            ],
            [
              116.35361080226964,
              39.941628633422546
            ],
            [
              116.35356249788875,
              39.94161451725914
            ],
            [
              116.35351262859096,
              39.941604113485866
            ],
            [
              116.35346167463742,
              39.94159752229503
            ],
            [
              116.35341012673425,
              39.9415948071622
            ],
            [
              116.3533584813073,
              39.94159599423509
            ],
            [
              116.35330723572146,
              39.94160107208167
            ],
            [
              116.35325688349124,
              39.94160999180028
            ],
            [
              116.35320790952824,
              39.941622667490535
            ],
            [
              116.35316078547146,
              39.94163897708059
            ],
            [
              116.35311596514539,
              39.94165876350261
            ],
            [
              116.35307388018981,
              39.94168183620536
            ],
            [
              116.3530349359029,
              39.941707972989256
            ],
            [
              116.3529995073381,
              39.941736922146085
            ],
            [
              116.35296793569236,
              39.94176840488294
            ],
            [
              116.35294052501995,
              39.941802118007125
            ],
            [
              116.35291753930441,
              39.94183773684584
            ],
            [
              116.35289919991598,
              39.941874918372896
            ],
            [
              116.35288568347947,
              39.94191330451215
            ],
            [
              116.3528771201731,
              39.941952525585805
            ],
            [
              116.35287359247444,
              39.94199220387467
            ],
            [
              116.35247346990126,
              39.957992201100055
            ],
            [
              116.3524734209139,
              39.95799449755793
            ]
          ]
        ]
      }
    },
    {
      "type": "Feature",
      "id": "GS-003",
      "properties": {
        "id": "GS-003",
        "layer": "GREEN_SPACE",
        "source_type": "agent_generated_design",
        "confidence": "medium",
        "geometry_role": "design_proposal",
        "name_zh": "北部土壤与树根保育斑块",
        "name_en": "Northern Soil and Root Habitat",
        "green_type": "living_ground_patch",
        "land_use_code": "1401",
        "life_conditions": [
          "SOIL",
          "WATER",
          "BIODIVERSITY"
        ],
        "area_sqm": 95855.953
      },
      "geometry": {
        "type": "Polygon",
        "coordinates": [
          [
            [
              116.34629981954896,
              40.02305296983459
            ],
            [
              116.34627096088144,
              40.02289544258249
            ],
            [
              116.34622215798676,
              40.02274084854718
            ],
            [
              116.34615388098936,
              40.0225906765302
            ],
            [
              116.34606678754514,
              40.022446372737726
            ],
            [
              116.34596171650365,
              40.02230932685404
            ],
            [
              116.34583967982596,
              40.02218085865963
            ],
            [
              116.34570185283626,
              40.02206220532282
            ],
            [
              116.34554956290113,
              40.02195450948706
            ],
            [
              116.34538427664559,
              40.02185880826871
            ],
            [
              116.34520758582919,
              40.02177602327107
            ],
            [
              116.3450211920178,
              40.02170695171086
            ],
            [
              116.34482689019907,
              40.021652258742385
            ],
            [
              116.34462655149922,
              40.021612471053416
            ],
            [
              116.34442210516687,
              40.02158797179426
            ],
            [
              116.34421551999824,
              40.02157899688879
            ],
            [
              116.34400878538163,
              40.02158563276313
            ],
            [
              116.34380389214398,
              40.02160781551346
            ],
            [
              116.34360281338331,
              40.02164533152148
            ],
            [
              116.34340748547221,
              40.021697819511054
            ],
            [
              116.3432197894141,
              40.02176477402658
            ],
            [
              116.34304153273253,
              40.02184555029958
            ],
            [
              116.34287443206729,
              40.02193937045668
            ],
            [
              116.34272009664485,
              40.02204533100909
            ],
            [
              116.34258001278236,
              40.02216241155181
            ],
            [
              116.3424927553346,
              40.02225148435957
            ],
            [
              116.34258998530723,
              40.024244698798235
            ],
            [
              116.34269809727228,
              40.02433777458663
            ],
            [
              116.34285038792073,
              40.02444547413238
            ],
            [
              116.34301567677947,
              40.024541178944304
            ],
            [
              116.34319237198896,
              40.02462396728102
            ],
            [
              116.34337877181446,
              40.02469304179749
            ],
            [
              116.34357308103715,
              40.024747737225816
            ],
            [
              116.3437734282464,
              40.024787526783655
            ],
            [
              116.34397788386647,
              40.02481202724891
            ],
            [
              116.34418447874428,
              40.02482100265136
            ],
            [
              116.34439122311841,
              40.02481436654579
            ],
            [
              116.34459612578691,
              40.024792182844855
            ],
            [
              116.34479721328934,
              40.02475466520344
            ],
            [
              116.34499254891723,
              40.024702174960424
            ],
            [
              116.34518025137055,
              40.02463521765803
            ],
            [
              116.34535851287997,
              40.02455443817182
            ],
            [
              116.34552561662022,
              40.02446061449865
            ],
            [
              116.34567995324664,
              40.02435465026243
            ],
            [
              116.34582003639579,
              40.02423756600974
            ],
            [
              116.34594451700072,
              40.02411048937934
            ],
            [
              116.34605219628261,
              40.023974644240425
            ],
            [
              116.3461420372944,
              40.02383133890402
            ],
            [
              116.34621317490463,
              40.02368195352139
            ],
            [
              116.34626492412589,
              40.023527926790884
            ],
            [
              116.34629678670737,
              40.023370742101015
            ],
            [
              116.34630845592879,
              40.02321191324362
            ],
            [
              116.34629981954896,
              40.02305296983459
            ]
          ]
        ]
      }
    },
    {
      "type": "Feature",
      "id": "GS-004",
      "properties": {
        "id": "GS-004",
        "layer": "GREEN_SPACE",
        "source_type": "agent_generated_design",
        "confidence": "medium",
        "geometry_role": "design_proposal",
        "name_zh": "暗夜生态静默斑块",
        "name_en": "Darkness and Ecological Silence Patch",
        "green_type": "living_ground_patch",
        "land_use_code": "1401",
        "life_conditions": [
          "DARKNESS",
          "QUIET",
          "BIODIVERSITY"
        ],
        "area_sqm": 70572.341
      },
      "geometry": {
        "type": "Polygon",
        "coordinates": [
          [
            [
              116.35374950040095,
              40.00987735665365
            ],
            [
              116.35372544149173,
              40.00974608511612
            ],
            [
              116.35368476581706,
              40.009617259030406
            ],
            [
              116.35362786519326,
              40.009492119045824
            ],
            [
              116.35355528768156,
              40.00937187030624
            ],
            [
              116.35346773230692,
              40.009257670844924
            ],
            [
              116.35336604232369,
              40.00915062043296
            ],
            [
              116.35325119709266,
              40.00905174998921
            ],
            [
              116.35312430264823,
              40.008962011653296
            ],
            [
              116.35298658104605,
              40.008882269617345
            ],
            [
              116.35283935859442,
              40.00881329180484
            ],
            [
              116.35268405308213,
              40.008755742476474
            ],
            [
              116.352522160126,
              40.008710175834196
            ],
            [
              116.3523552387697,
              40.00867703068511
            ],
            [
              116.35218489647211,
              40.00865662621648
            ],
            [
              116.35201277362985,
              40.00864915892242
            ],
            [
              116.35184052778295,
              40.00865470071211
            ],
            [
              116.35166981765565,
              40.00867319821742
            ],
            [
              116.35150228718547,
              40.0087044733068
            ],
            [
              116.35133954969515,
              40.008748224800335
            ],
            [
              116.35118317235857,
              40.00880403136978
            ],
            [
              116.35103466111107,
              40.00887135559523
            ],
            [
              116.35089544614897,
              40.008949549139686
            ],
            [
              116.3507668681577,
              40.00903785899175
            ],
            [
              116.35065016540163,
              40.00913543471608
            ],
            [
              116.35054646179923,
              40.00924133664218
            ],
            [
              116.35045675609892,
              40.009354544912505
            ],
            [
              116.35038191225959,
              40.00947396930292
            ],
            [
              116.35032265112837,
              40.009598459720785
            ],
            [
              116.35027954349638,
              40.009726817279905
            ],
            [
              116.35025300459874,
              40.009857805845485
            ],
            [
              116.35024329011235,
              40.00999016393807
            ],
            [
              116.35025049369004,
              40.010122616881844
            ],
            [
              116.35027454605493,
              40.01025388908022
            ],
            [
              116.35031521566384,
              40.01038271630064
            ],
            [
              116.35037211093353,
              40.01050785785024
            ],
            [
              116.35044468400861,
              40.010628108524934
            ],
            [
              116.35053223603451,
              40.01074231021715
            ],
            [
              116.35063392388567,
              40.010849363069994
            ],
            [
              116.35074876828313,
              40.01094823607087
            ],
            [
              116.35087566322461,
              40.011037976981875
            ],
            [
              116.35101338663533,
              40.01111772151191
            ],
            [
              116.35116061213746,
              40.01118670164164
            ],
            [
              116.35131592182508,
              40.011244253021346
            ],
            [
              116.35147781992076,
              40.01128982137021
            ],
            [
              116.35164474718347,
              40.01132296781558
            ],
            [
              116.35181509592722,
              40.01134337312038
            ],
            [
              116.35198722550777,
              40.011350840758325
            ],
            [
              116.35215947812607,
              40.01134529880704
            ],
            [
              116.35233019479774,
              40.01132680064087
            ],
            [
              116.35249773133368,
              40.01129552441677
            ],
            [
              116.35266047417808,
              40.011251771358246
            ],
            [
              116.35281685595132,
              40.01119596285368
            ],
            [
              116.35296537054752,
              40.011128636397345
            ],
            [
              116.35310458764175,
              40.01105044041198
            ],
            [
              116.35323316646654,
              40.01096212800278
            ],
            [
              116.35334986872556,
              40.01086454970338
            ],
            [
              116.35345357051943,
              40.01075864528321
            ],
            [
              116.3535432731692,
              40.01064543469564
            ],
            [
              116.35361811283327,
              40.010526008253905
            ],
            [
              116.3536773688249,
              40.01040151612944
            ],
            [
              116.35372047055048,
              40.01027315727404
            ],
            [
              116.35374700300196,
              40.010142167872296
            ],
            [
              116.35375671075006,
              40.01000980943582
            ],
            [
              116.35374950040095,
              40.00987735665365
            ]
          ]
        ]
      }
    },
    {
      "type": "Feature",
      "id": "GS-005",
      "properties": {
        "id": "GS-005",
        "layer": "GREEN_SPACE",
        "source_type": "agent_generated_design",
        "confidence": "medium",
        "geometry_role": "design_proposal",
        "name_zh": "社区树荫恢复花园",
        "name_en": "Community Shade Recovery Garden",
        "green_type": "living_ground_patch",
        "land_use_code": "1401",
        "life_conditions": [
          "AIR",
          "SHADE_HEAT",
          "QUIET"
        ],
        "area_sqm": 49008.57
      },
      "geometry": {
        "type": "Polygon",
        "coordinates": [
          [
            [
              116.34545748097825,
              39.98889789582494
            ],
            [
              116.3454374508135,
              39.988788501204
            ],
            [
              116.34540357733597,
              39.988681143510306
            ],
            [
              116.3453561868263,
              39.98857685664578
            ],
            [
              116.34529573573452,
              39.98847664493433
            ],
            [
              116.34522280628204,
              39.98838147345018
            ],
            [
              116.34513810085282,
              39.988292258724464
            ],
            [
              116.34504243522771,
              39.988209859919365
            ],
            [
              116.3449367307274,
              39.98813507055489
            ],
            [
              116.34482200533898,
              39.98806861086778
            ],
            [
              116.34469936391268,
              39.988011120876195
            ],
            [
              116.34456998752196,
              39.98796315421705
            ],
            [
              116.34443512209057,
              39.98792517281498
            ],
            [
              116.34429606639495,
              39.987897542434595
            ],
            [
              116.34415415955851,
              39.987880529158616
            ],
            [
              116.34401076815728,
              39.987874296825794
            ],
            [
              116.34386727306152,
              39.98787890545347
            ],
            [
              116.34372505613983,
              39.98789431065965
            ],
            [
              116.34358548695353,
              39.98792036409036
            ],
            [
              116.34344990956957,
              39.987956814848154
            ],
            [
              116.34331962961878,
              39.9880033119079
            ],
            [
              116.34319590172397,
              39.98805940749689
            ],
            [
              116.34307991741896,
              39.98812456140615
            ],
            [
              116.34297279367466,
              39.98819814619235
            ],
            [
              116.34287556214298,
              39.9882794532193
            ],
            [
              116.3427891592216,
              39.988367699481614
            ],
            [
              116.34271441703596,
              39.988462035144465
            ],
            [
              116.34265205542462,
              39.98856155172703
            ],
            [
              116.34260267500566,
              39.98866529085071
            ],
            [
              116.34256675139083,
              39.98877225346809
            ],
            [
              116.3425446306032,
              39.98888140948366
            ],
            [
              116.34253652574237,
              39.988991707673705
            ],
            [
              116.34254251492993,
              39.9891020858098
            ],
            [
              116.34256254055437,
              39.989211480888535
            ],
            [
              116.34259640982336,
              39.98931883936893
            ],
            [
              116.34264379661789,
              39.9894231273188
            ],
            [
              116.34270424463075,
              39.98952334037255
            ],
            [
              116.34277717175891,
              39.98961851340437
            ],
            [
              116.34286187570767,
              39.98970772982365
            ],
            [
              116.34295754075305,
              39.9897901304031
            ],
            [
              116.34306324559675,
              39.989864921554556
            ],
            [
              116.34317797223832,
              39.98993138297261
            ],
            [
              116.34330061577954,
              39.989988874572546
            ],
            [
              116.34342999506555,
              39.990036842655655
            ],
            [
              116.3435648640614,
              39.990074825242615
            ],
            [
              116.34370392385365,
              39.990102456523225
            ],
            [
              116.34384583516145,
              39.99011947038022
            ],
            [
              116.34398923123698,
              39.990125702952476
            ],
            [
              116.34413273103029,
              39.990121094213485
            ],
            [
              116.34427495249228,
              39.990105688549505
            ],
            [
              116.34441452588717,
              39.99007963433211
            ],
            [
              116.34455010698626,
              39.990043182488954
            ],
            [
              116.34468039001595,
              39.98999668408689
            ],
            [
              116.3448041202351,
              39.98994058695024
            ],
            [
              116.34492010602057,
              39.98987543134743
            ],
            [
              116.34502723034457,
              39.98980184478686
            ],
            [
              116.34512446153293,
              39.98972053597294
            ],
            [
              116.34521086320109,
              39.98963228797969
            ],
            [
              116.34528560327186,
              39.98953795070848
            ],
            [
              116.34534796198788,
              39.98943843270194
            ],
            [
              116.34539733884239,
              39.98933469239339
            ],
            [
              116.34543325836057,
              39.98922772887578
            ],
            [
              116.34545537467686,
              39.989118572279196
            ],
            [
              116.3454634748634,
              39.989008273849706
            ],
            [
              116.34545748097825,
              39.98889789582494
            ]
          ]
        ]
      }
    },
    {
      "type": "Feature",
      "id": "GS-006",
      "properties": {
        "id": "GS-006",
        "layer": "GREEN_SPACE",
        "source_type": "agent_generated_design",
        "confidence": "medium",
        "geometry_role": "design_proposal",
        "name_zh": "日常慢行微气候花园",
        "name_en": "Everyday Microclimate Garden",
        "green_type": "living_ground_patch",
        "land_use_code": "1401",
        "life_conditions": [
          "AIR",
          "SHADE_HEAT",
          "WATER"
        ],
        "area_sqm": 34580.447
      },
      "geometry": {
        "type": "Polygon",
        "coordinates": [
          [
            [
              116.35322352567387,
              39.94691414254695
            ],
            [
              116.3532066994492,
              39.94682225152887
            ],
            [
              116.3531782521368,
              39.94673207238084
            ],
            [
              116.35313845774246,
              39.94664447356934
            ],
            [
              116.35308769954563,
              39.9465602987078
            ],
            [
              116.35302646640672,
              39.946480358432545
            ],
            [
              116.35295534805783,
              39.9464054225964
            ],
            [
              116.35287502942256,
              39.94633621285524
            ],
            [
              116.35278628401915,
              39.94627339571872
            ],
            [
              116.35268996651084,
              39.94621757613209
            ],
            [
              116.35258700447515,
              39.9461692916509
            ],
            [
              116.35247838947133,
              39.946129007264815
            ],
            [
              116.35236516749188,
              39.946097110920014
            ],
            [
              116.35224842889019,
              39.94607390978375
            ],
            [
              116.35212929788129,
              39.946059627286516
            ],
            [
              116.35200892171657,
              39.946054400970695
            ],
            [
              116.3518884596369,
              39.94605828116612
            ],
            [
              116.35176907171035,
              39.94607123050553
            ],
            [
              116.35165190766189,
              39.94609312428436
            ],
            [
              116.35153809580267,
              39.94612375166155
            ],
            [
              116.35142873216549,
              39.946162817689704
            ],
            [
              116.35132486995072,
              39.946209946155264
            ],
            [
              116.35122750938474,
              39.94626468320105
            ],
            [
              116.35113758808802,
              39.946326501696554
            ],
            [
              116.35105597204591,
              39.946394806313876
            ],
            [
              116.35098344726904,
              39.946468939260335
            ],
            [
              116.35092071222336,
              39.94654818661269
            ],
            [
              116.35086837110312,
              39.94663178519194
            ],
            [
              116.35082692801123,
              39.94671892991251
            ],
            [
              116.35079678210354,
              39.946808781535104
            ],
            [
              116.35077822374313,
              39.946900474748624
            ],
            [
              116.35077143170247,
              39.94699312650317
            ],
            [
              116.35077647144004,
              39.94708584451413
            ],
            [
              116.35079329446806,
              39.94717773585524
            ],
            [
              116.35082173881756,
              39.947267915557994
            ],
            [
              116.35086153059663,
              39.947355515134575
            ],
            [
              116.35091228662628,
              39.947439690942154
            ],
            [
              116.35097351812945,
              39.94751963230807
            ],
            [
              116.35104463543684,
              39.947594569337575
            ],
            [
              116.35112495366491,
              39.9476637803289
            ],
            [
              116.35121369931105,
              39.947726598724394
            ],
            [
              116.35131001770274,
              39.94778241953041
            ],
            [
              116.35141298122842,
              39.947830705144526
            ],
            [
              116.35152159827167,
              39.94787099053356
            ],
            [
              116.35163482276157,
              39.947902887712765
            ],
            [
              116.35175156424827,
              39.94792608948284
            ],
            [
              116.35187069840588,
              39.94794037238893
            ],
            [
              116.35199107786198,
              39.94794559887294
            ],
            [
              116.35211154324921,
              39.947941718598585
            ],
            [
              116.35223093437241,
              39.94792876893613
            ],
            [
              116.35234810138381,
              39.94790687460258
            ],
            [
              116.35246191585827,
              39.947876246460304
            ],
            [
              116.35257128166265,
              39.94783717948609
            ],
            [
              116.35267514551316,
              39.94779004992987
            ],
            [
              116.35277250712062,
              39.94773531169076
            ],
            [
              116.35286242882455,
              39.94767349194507
            ],
            [
              116.3529440446239,
              39.94760518606878
            ],
            [
              116.35301656851742,
              39.94753105190294
            ],
            [
              116.35307930207308,
              39.94745180341766
            ],
            [
              116.35313164115392,
              39.94736820383546
            ],
            [
              116.35317308173533,
              39.947281058280495
            ],
            [
              116.35320322475803,
              39.94719120602408
            ],
            [
              116.35322177996977,
              39.94709951240171
            ],
            [
              116.35322856871903,
              39.94700686047897
            ],
            [
              116.35322352567387,
              39.94691414254695
            ]
          ]
        ]
      }
    },
    {
      "type": "Feature",
      "id": "GS-007",
      "properties": {
        "id": "GS-007",
        "layer": "GREEN_SPACE",
        "source_type": "agent_generated_design",
        "confidence": "medium",
        "geometry_role": "design_proposal",
        "name_zh": "不被优化的生命余地",
        "name_en": "Room for Life Beyond Optimisation",
        "green_type": "living_ground_patch",
        "land_use_code": "1401",
        "life_conditions": [
          "SOIL",
          "DARKNESS",
          "QUIET",
          "BIODIVERSITY"
        ],
        "area_sqm": 45166.298
      },
      "geometry": {
        "type": "Polygon",
        "coordinates": [
          [
            [
              116.34639854791975,
              39.9579019626461
            ],
            [
              116.34637932555715,
              39.957796943464956
            ],
            [
              116.34634681964982,
              39.95769387990126
            ],
            [
              116.34630134330318,
              39.957593764503024
            ],
            [
              116.34624333452852,
              39.95749756142187
            ],
            [
              116.34617335202284,
              39.95740619712825
            ],
            [
              116.34609206978672,
              39.957320551489794
            ],
            [
              116.34600027063215,
              39.95724144929832
            ],
            [
              116.34589883864281,
              39.957169652327664
            ],
            [
              116.34578875065968,
              39.957105851998236
            ],
            [
              116.3456710668736,
              39.95705066271911
            ],
            [
              116.34554692061576,
              39.95700461597194
            ],
            [
              116.3454175074441,
              39.95696815519313
            ],
            [
              116.34528407363098,
              39.95694163150428
            ],
            [
              116.3451479041627,
              39.95692530033104
            ],
            [
              116.34501031036642,
              39.95691931894385
            ],
            [
              116.3448726172837,
              39.956923744943545
            ],
            [
              116.34473615091194,
              39.956938535706826
            ],
            [
              116.34460222543674,
              39.956963548796615
            ],
            [
              116.34447213057791,
              39.95699854333363
            ],
            [
              116.34434711917083,
              39.95704318231571
            ],
            [
              116.34422839510287,
              39.95709703586287
            ],
            [
              116.34411710172094,
              39.957159585356514
            ],
            [
              116.34401431082149,
              39.95723022843328
            ],
            [
              116.34392101232946,
              39.95730828478523
            ],
            [
              116.3438381047648,
              39.9573930027107
            ],
            [
              116.34376638658934,
              39.957483566352735
            ],
            [
              116.34370654851628,
              39.95757910355526
            ],
            [
              116.34365916685739,
              39.95767869426165
            ],
            [
              116.34362469797117,
              39.957781379374694
            ],
            [
              116.34360347386607,
              39.95788616999254
            ],
            [
              116.3435956990011,
              39.95799205693196
            ],
            [
              116.34360144831437,
              39.95809802044699
            ],
            [
              116.34362066649913,
              39.958203040049625
            ],
            [
              116.34365316853389,
              39.95830610433759
            ],
            [
              116.34369864146205,
              39.95840622073504
            ],
            [
              116.3437566474037,
              39.95850242505192
            ],
            [
              116.34382662777071,
              39.9585937907703
            ],
            [
              116.34390790864467,
              39.958679437967845
            ],
            [
              116.34399970726598,
              39.95875854179277
            ],
            [
              116.34410113957136,
              39.958830340408504
            ],
            [
              116.34421122870778,
              39.95889414233139
            ],
            [
              116.34432891444003,
              39.95894933309111
            ],
            [
              116.34445306336218,
              39.95899538114915
            ],
            [
              116.34458247981387,
              39.95903184301869
            ],
            [
              116.34471591739666,
              39.959058367536244
            ],
            [
              116.34485209097943,
              39.95907469924429
            ],
            [
              116.34498968907687,
              39.95908068085187
            ],
            [
              116.34512738648213,
              39.95907625474963
            ],
            [
              116.34526385703174,
              39.95906146356487
            ],
            [
              116.34539778637948,
              39.959036449750805
            ],
            [
              116.34552788465679,
              39.95900145421459
            ],
            [
              116.34565289889689,
              39.95895681399677
            ],
            [
              116.34577162510352,
              39.95890295902483
            ],
            [
              116.34588291984763,
              39.95884040797212
            ],
            [
              116.34598571128033,
              39.95876976326189
            ],
            [
              116.34607900945633,
              39.95869170526488
            ],
            [
              116.3461619158677,
              39.958606985745945
            ],
            [
              116.34623363209698,
              39.958516420623305
            ],
            [
              116.34629346750573,
              39.95842088210993
            ],
            [
              116.3463408458846,
              39.958321290312796
            ],
            [
              116.34637531100115,
              39.95821860437106
            ],
            [
              116.34639653099178,
              39.9581138132184
            ],
            [
              116.34640430155558,
              39.95800792605861
            ],
            [
              116.34639854791975,
              39.9579019626461
            ]
          ]
        ]
      }
    }
  ],
  "metadata": {
    "design_system": "LIVING_GROUND",
    "official_existing_conditions": false
  }
}
