{
  "type": "FeatureCollection",
  "name": "key_areas",
  "features": [
    {
      "type": "Feature",
      "id": "PROV-KEY-001",
      "properties": {
        "id": "PROV-KEY-001",
        "layer": "KEY_AREA",
        "source_type": "agent_inferred_from_public_data",
        "confidence": "medium",
        "geometry_role": "provisional_constraint",
        "official_boundary": false,
        "boundary_precision": "provisional_rough",
        "area_id": "zhongzhiyuan_ai_acceleration_area",
        "name_zh": "众智园AI自主创新加速区粗略范围",
        "name_en": "Provisional Zhongzhiyuan AI Acceleration Area",
        "prototype_zh": "相成试场",
        "prototype_en": "COEVOLUTION TEST GROUND",
        "announced_area_sqm": 1921000,
        "area_sqm_calculated": 1929201.877,
        "source_id": "SRC-PROVISIONAL-BOUNDARIES",
        "usage_note_zh": "临时粗略范围，不代表地块、道路或审批边界。",
        "usage_note_en": "Provisional rough extent, not a parcel, road or approval boundary."
      },
      "geometry": {
        "type": "Polygon",
        "coordinates": [
          [
            [
              116.354,
              40.0075
            ],
            [
              116.354,
              40.026
            ],
            [
              116.343,
              40.026
            ],
            [
              116.343,
              40.0075
            ],
            [
              116.354,
              40.0075
            ]
          ]
        ]
      }
    },
    {
      "type": "Feature",
      "id": "PROV-KEY-002",
      "properties": {
        "id": "PROV-KEY-002",
        "layer": "KEY_AREA",
        "source_type": "agent_inferred_from_public_data",
        "confidence": "medium",
        "geometry_role": "provisional_constraint",
        "official_boundary": false,
        "boundary_precision": "provisional_rough",
        "area_id": "beijing_ai_origin_community",
        "name_zh": "北京AI原点社区粗略范围",
        "name_en": "Provisional Beijing AI Origin Community",
        "prototype_zh": "相成社区",
        "prototype_en": "COEVOLUTION CIVIC COMMONS",
        "announced_area_sqm": 1043000,
        "area_sqm_calculated": 1043236.909,
        "source_id": "SRC-PROVISIONAL-BOUNDARIES",
        "usage_note_zh": "临时粗略范围，不代表地块、道路或审批边界。",
        "usage_note_en": "Provisional rough extent, not a parcel, road or approval boundary."
      },
      "geometry": {
        "type": "Polygon",
        "coordinates": [
          [
            [
              116.353,
              39.9835
            ],
            [
              116.353,
              39.9935
            ],
            [
              116.342,
              39.9935
            ],
            [
              116.342,
              39.9835
            ],
            [
              116.353,
              39.9835
            ]
          ]
        ]
      }
    },
    {
      "type": "Feature",
      "id": "PROV-KEY-003",
      "properties": {
        "id": "PROV-KEY-003",
        "layer": "KEY_AREA",
        "source_type": "agent_inferred_from_public_data",
        "confidence": "medium",
        "geometry_role": "provisional_constraint",
        "official_boundary": false,
        "boundary_precision": "provisional_rough",
        "area_id": "dazhongsi_ai_industry_cluster",
        "name_zh": "大钟寺AI产业聚集区粗略范围",
        "name_en": "Provisional Dazhongsi AI Industry Cluster",
        "prototype_zh": "相成日常",
        "prototype_en": "COEVOLUTION EVERYDAY DISTRICT",
        "announced_area_sqm": 720000,
        "area_sqm_calculated": 720454.219,
        "source_id": "SRC-PROVISIONAL-BOUNDARIES",
        "usage_note_zh": "临时粗略范围，不代表地块、道路或审批边界。",
        "usage_note_en": "Provisional rough extent, not a parcel, road or approval boundary."
      },
      "geometry": {
        "type": "Polygon",
        "coordinates": [
          [
            [
              116.355,
              39.944
            ],
            [
              116.355,
              39.94984
            ],
            [
              116.342,
              39.94984
            ],
            [
              116.342,
              39.944
            ],
            [
              116.355,
              39.944
            ]
          ]
        ]
      }
    }
  ],
  "metadata": {
    "official_boundary_available": false
  }
}
