{
  "type": "FeatureCollection",
  "name": "land_use",
  "features": [
    {
      "type": "Feature",
      "id": "LU-001",
      "properties": {
        "id": "LU-001",
        "layer": "LAND_USE",
        "source_type": "agent_generated_design",
        "confidence": "low",
        "geometry_role": "design_proposal",
        "land_use_code": "0901",
        "name_zh": "商业用地",
        "name_en": "Commercial",
        "concept_zone": "south_link",
        "area_sqm": 521673.321,
        "status": "concept_only_pending_official_controls"
      },
      "geometry": {
        "type": "Polygon",
        "coordinates": [
          [
            [
              116.3407,
              39.939
            ],
            [
              116.34047904040403,
              39.946954545454545
            ],
            [
              116.3475,
              39.946954545454545
            ],
            [
              116.3475,
              39.939
            ],
            [
              116.3407,
              39.939
            ]
          ]
        ]
      }
    },
    {
      "type": "Feature",
      "id": "LU-002",
      "properties": {
        "id": "LU-002",
        "layer": "LAND_USE",
        "source_type": "agent_generated_design",
        "confidence": "low",
        "geometry_role": "design_proposal",
        "land_use_code": "0901",
        "name_zh": "商业用地",
        "name_en": "Commercial",
        "concept_zone": "south_link",
        "area_sqm": 588822.642,
        "status": "concept_only_pending_official_controls"
      },
      "geometry": {
        "type": "Polygon",
        "coordinates": [
          [
            [
              116.3475,
              39.939
            ],
            [
              116.3475,
              39.946954545454545
            ],
            [
              116.3553,
              39.946954545454545
            ],
            [
              116.3553,
              39.939
            ],
            [
              116.3475,
              39.939
            ]
          ]
        ]
      }
    },
    {
      "type": "Feature",
      "id": "LU-003",
      "properties": {
        "id": "LU-003",
        "layer": "LAND_USE",
        "source_type": "agent_generated_design",
        "confidence": "low",
        "geometry_role": "design_proposal",
        "land_use_code": "0902",
        "name_zh": "商务金融用地",
        "name_en": "Business & Finance",
        "concept_zone": "south_link",
        "area_sqm": 538292.02,
        "status": "concept_only_pending_official_controls"
      },
      "geometry": {
        "type": "Polygon",
        "coordinates": [
          [
            [
              116.34025808080807,
              39.95490909090909
            ],
            [
              116.3475,
              39.95490909090909
            ],
            [
              116.3475,
              39.946954545454545
            ],
            [
              116.34047904040403,
              39.946954545454545
            ],
            [
              116.34025808080807,
              39.95490909090909
            ]
          ]
        ]
      }
    },
    {
      "type": "Feature",
      "id": "LU-004",
      "properties": {
        "id": "LU-004",
        "layer": "LAND_USE",
        "source_type": "agent_generated_design",
        "confidence": "low",
        "geometry_role": "design_proposal",
        "land_use_code": "0902",
        "name_zh": "商务金融用地",
        "name_en": "Business & Finance",
        "concept_zone": "south_link",
        "area_sqm": 588755.25,
        "status": "concept_only_pending_official_controls"
      },
      "geometry": {
        "type": "Polygon",
        "coordinates": [
          [
            [
              116.3553,
              39.946954545454545
            ],
            [
              116.3475,
              39.946954545454545
            ],
            [
              116.3475,
              39.95490909090909
            ],
            [
              116.3553,
              39.95490909090909
            ],
            [
              116.3553,
              39.946954545454545
            ]
          ]
        ]
      }
    },
    {
      "type": "Feature",
      "id": "LU-005",
      "properties": {
        "id": "LU-005",
        "layer": "LAND_USE",
        "source_type": "agent_generated_design",
        "confidence": "low",
        "geometry_role": "design_proposal",
        "land_use_code": "0806",
        "name_zh": "医疗卫生用地",
        "name_en": "Health Service",
        "concept_zone": "south_link",
        "area_sqm": 554906.892,
        "status": "concept_only_pending_official_controls"
      },
      "geometry": {
        "type": "Polygon",
        "coordinates": [
          [
            [
              116.34003712121212,
              39.962863636363636
            ],
            [
              116.3475,
              39.962863636363636
            ],
            [
              116.3475,
              39.95490909090909
            ],
            [
              116.34025808080807,
              39.95490909090909
            ],
            [
              116.34003712121212,
              39.962863636363636
            ]
          ]
        ]
      }
    },
    {
      "type": "Feature",
      "id": "LU-006",
      "properties": {
        "id": "LU-006",
        "layer": "LAND_USE",
        "source_type": "agent_generated_design",
        "confidence": "low",
        "geometry_role": "design_proposal",
        "land_use_code": "0701",
        "name_zh": "城镇住宅用地",
        "name_en": "Urban Residential",
        "concept_zone": "south_link",
        "area_sqm": 588687.847,
        "status": "concept_only_pending_official_controls"
      },
      "geometry": {
        "type": "Polygon",
        "coordinates": [
          [
            [
              116.3553,
              39.95490909090909
            ],
            [
              116.3475,
              39.95490909090909
            ],
            [
              116.3475,
              39.962863636363636
            ],
            [
              116.3553,
              39.962863636363636
            ],
            [
              116.3553,
              39.95490909090909
            ]
          ]
        ]
      }
    },
    {
      "type": "Feature",
      "id": "LU-007",
      "properties": {
        "id": "LU-007",
        "layer": "LAND_USE",
        "source_type": "agent_generated_design",
        "confidence": "low",
        "geometry_role": "design_proposal",
        "land_use_code": "1401",
        "name_zh": "公园绿地",
        "name_en": "Park Green",
        "concept_zone": "south_link",
        "area_sqm": 571517.934,
        "status": "concept_only_pending_official_controls"
      },
      "geometry": {
        "type": "Polygon",
        "coordinates": [
          [
            [
              116.33981616161616,
              39.97081818181818
            ],
            [
              116.3475,
              39.97081818181818
            ],
            [
              116.3475,
              39.962863636363636
            ],
            [
              116.34003712121212,
              39.962863636363636
            ],
            [
              116.33981616161616,
              39.97081818181818
            ]
          ]
        ]
      }
    },
    {
      "type": "Feature",
      "id": "LU-008",
      "properties": {
        "id": "LU-008",
        "layer": "LAND_USE",
        "source_type": "agent_generated_design",
        "confidence": "low",
        "geometry_role": "design_proposal",
        "land_use_code": "1401",
        "name_zh": "公园绿地",
        "name_en": "Park Green",
        "concept_zone": "south_link",
        "area_sqm": 575774.831,
        "status": "concept_only_pending_official_controls"
      },
      "geometry": {
        "type": "Polygon",
        "coordinates": [
          [
            [
              116.3553,
              39.962863636363636
            ],
            [
              116.3475,
              39.962863636363636
            ],
            [
              116.3475,
              39.97081818181818
            ],
            [
              116.35483454545455,
              39.97081818181818
            ],
            [
              116.3553,
              39.965
            ],
            [
              116.3553,
              39.962863636363636
            ]
          ]
        ]
      }
    },
    {
      "type": "Feature",
      "id": "LU-009",
      "properties": {
        "id": "LU-009",
        "layer": "LAND_USE",
        "source_type": "agent_generated_design",
        "confidence": "low",
        "geometry_role": "design_proposal",
        "land_use_code": "0803",
        "name_zh": "文化用地",
        "name_en": "Cultural",
        "concept_zone": "middle_link",
        "area_sqm": 581894.771,
        "status": "concept_only_pending_official_controls"
      },
      "geometry": {
        "type": "Polygon",
        "coordinates": [
          [
            [
              116.33994340175953,
              39.97877272727273
            ],
            [
              116.3475,
              39.97877272727273
            ],
            [
              116.3475,
              39.97081818181818
            ],
            [
              116.33981616161616,
              39.97081818181818
            ],
            [
              116.3397,
              39.975
            ],
            [
              116.33994340175953,
              39.97877272727273
            ]
          ]
        ]
      }
    },
    {
      "type": "Feature",
      "id": "LU-010",
      "properties": {
        "id": "LU-010",
        "layer": "LAND_USE",
        "source_type": "agent_generated_design",
        "confidence": "low",
        "geometry_role": "design_proposal",
        "land_use_code": "1403",
        "name_zh": "广场用地",
        "name_en": "Public Square",
        "concept_zone": "middle_link",
        "area_sqm": 529424.121,
        "status": "concept_only_pending_official_controls"
      },
      "geometry": {
        "type": "Polygon",
        "coordinates": [
          [
            [
              116.35483454545455,
              39.97081818181818
            ],
            [
              116.3475,
              39.97081818181818
            ],
            [
              116.3475,
              39.97877272727273
            ],
            [
              116.35419818181819,
              39.97877272727273
            ],
            [
              116.35483454545455,
              39.97081818181818
            ]
          ]
        ]
      }
    },
    {
      "type": "Feature",
      "id": "LU-011",
      "properties": {
        "id": "LU-011",
        "layer": "LAND_USE",
        "source_type": "agent_generated_design",
        "confidence": "low",
        "geometry_role": "design_proposal",
        "land_use_code": "0804",
        "name_zh": "教育用地",
        "name_en": "Education",
        "concept_zone": "middle_link",
        "area_sqm": 550763.671,
        "status": "concept_only_pending_official_controls"
      },
      "geometry": {
        "type": "Polygon",
        "coordinates": [
          [
            [
              116.34045659824046,
              39.98672727272727
            ],
            [
              116.3475,
              39.98672727272727
            ],
            [
              116.3475,
              39.97877272727273
            ],
            [
              116.33994340175953,
              39.97877272727273
            ],
            [
              116.34045659824046,
              39.98672727272727
            ]
          ]
        ]
      }
    },
    {
      "type": "Feature",
      "id": "LU-012",
      "properties": {
        "id": "LU-012",
        "layer": "LAND_USE",
        "source_type": "agent_generated_design",
        "confidence": "low",
        "geometry_role": "design_proposal",
        "land_use_code": "0804",
        "name_zh": "教育用地",
        "name_en": "Education",
        "concept_zone": "middle_link",
        "area_sqm": 481351.958,
        "status": "concept_only_pending_official_controls"
      },
      "geometry": {
        "type": "Polygon",
        "coordinates": [
          [
            [
              116.35419818181819,
              39.97877272727273
            ],
            [
              116.3475,
              39.97877272727273
            ],
            [
              116.3475,
              39.98672727272727
            ],
            [
              116.35356181818182,
              39.98672727272727
            ],
            [
              116.35419818181819,
              39.97877272727273
            ]
          ]
        ]
      }
    },
    {
      "type": "Feature",
      "id": "LU-013",
      "properties": {
        "id": "LU-013",
        "layer": "LAND_USE",
        "source_type": "agent_generated_design",
        "confidence": "low",
        "geometry_role": "design_proposal",
        "land_use_code": "0702",
        "name_zh": "社区服务设施用地",
        "name_en": "Community Service",
        "concept_zone": "middle",
        "area_sqm": 511985.892,
        "status": "concept_only_pending_official_controls"
      },
      "geometry": {
        "type": "Polygon",
        "coordinates": [
          [
            [
              116.3409697947214,
              39.99468181818182
            ],
            [
              116.3475,
              39.99468181818182
            ],
            [
              116.3475,
              39.98672727272727
            ],
            [
              116.34045659824046,
              39.98672727272727
            ],
            [
              116.3409697947214,
              39.99468181818182
            ]
          ]
        ]
      }
    },
    {
      "type": "Feature",
      "id": "LU-014",
      "properties": {
        "id": "LU-014",
        "layer": "LAND_USE",
        "source_type": "agent_generated_design",
        "confidence": "low",
        "geometry_role": "design_proposal",
        "land_use_code": "0702",
        "name_zh": "社区服务设施用地",
        "name_en": "Community Service",
        "concept_zone": "middle",
        "area_sqm": 447299.945,
        "status": "concept_only_pending_official_controls"
      },
      "geometry": {
        "type": "Polygon",
        "coordinates": [
          [
            [
              116.3533,
              39.99
            ],
            [
              116.35356181818182,
              39.98672727272727
            ],
            [
              116.3475,
              39.98672727272727
            ],
            [
              116.3475,
              39.99468181818182
            ],
            [
              116.35355653798257,
              39.99468181818182
            ],
            [
              116.3533,
              39.99
            ]
          ]
        ]
      }
    },
    {
      "type": "Feature",
      "id": "LU-015",
      "properties": {
        "id": "LU-015",
        "layer": "LAND_USE",
        "source_type": "agent_generated_design",
        "confidence": "low",
        "geometry_role": "design_proposal",
        "land_use_code": "0804",
        "name_zh": "教育用地",
        "name_en": "Education",
        "concept_zone": "middle_link",
        "area_sqm": 473216.979,
        "status": "concept_only_pending_official_controls"
      },
      "geometry": {
        "type": "Polygon",
        "coordinates": [
          [
            [
              116.34148299120235,
              40.00263636363636
            ],
            [
              116.3475,
              40.00263636363636
            ],
            [
              116.3475,
              39.99468181818182
            ],
            [
              116.3409697947214,
              39.99468181818182
            ],
            [
              116.34148299120235,
              40.00263636363636
            ]
          ]
        ]
      }
    },
    {
      "type": "Feature",
      "id": "LU-016",
      "properties": {
        "id": "LU-016",
        "layer": "LAND_USE",
        "source_type": "agent_generated_design",
        "confidence": "low",
        "geometry_role": "design_proposal",
        "land_use_code": "0802",
        "name_zh": "科研用地",
        "name_en": "Research",
        "concept_zone": "middle_link",
        "area_sqm": 473280.119,
        "status": "concept_only_pending_official_controls"
      },
      "geometry": {
        "type": "Polygon",
        "coordinates": [
          [
            [
              116.35355653798257,
              39.99468181818182
            ],
            [
              116.3475,
              39.99468181818182
            ],
            [
              116.3475,
              40.00263636363636
            ],
            [
              116.35399240348693,
              40.00263636363636
            ],
            [
              116.35355653798257,
              39.99468181818182
            ]
          ]
        ]
      }
    },
    {
      "type": "Feature",
      "id": "LU-017",
      "properties": {
        "id": "LU-017",
        "layer": "LAND_USE",
        "source_type": "agent_generated_design",
        "confidence": "low",
        "geometry_role": "design_proposal",
        "land_use_code": "0804",
        "name_zh": "教育用地",
        "name_en": "Education",
        "concept_zone": "north",
        "area_sqm": 436028.672,
        "status": "concept_only_pending_official_controls"
      },
      "geometry": {
        "type": "Polygon",
        "coordinates": [
          [
            [
              116.3417,
              40.006
            ],
            [
              116.34192394678492,
              40.01059090909091
            ],
            [
              116.3475,
              40.01059090909091
            ],
            [
              116.3475,
              40.00263636363636
            ],
            [
              116.34148299120235,
              40.00263636363636
            ],
            [
              116.3417,
              40.006
            ]
          ]
        ]
      }
    },
    {
      "type": "Feature",
      "id": "LU-018",
      "properties": {
        "id": "LU-018",
        "layer": "LAND_USE",
        "source_type": "agent_generated_design",
        "confidence": "low",
        "geometry_role": "design_proposal",
        "land_use_code": "0802",
        "name_zh": "科研用地",
        "name_en": "Research",
        "concept_zone": "north_link",
        "area_sqm": 506099.25,
        "status": "concept_only_pending_official_controls"
      },
      "geometry": {
        "type": "Polygon",
        "coordinates": [
          [
            [
              116.35399240348693,
              40.00263636363636
            ],
            [
              116.3475,
              40.00263636363636
            ],
            [
              116.3475,
              40.01059090909091
            ],
            [
              116.35442826899128,
              40.01059090909091
            ],
            [
              116.35399240348693,
              40.00263636363636
            ]
          ]
        ]
      }
    },
    {
      "type": "Feature",
      "id": "LU-019",
      "properties": {
        "id": "LU-019",
        "layer": "LAND_USE",
        "source_type": "agent_generated_design",
        "confidence": "low",
        "geometry_role": "design_proposal",
        "land_use_code": "16",
        "name_zh": "留白用地",
        "name_en": "Reserved / Unoptimised",
        "concept_zone": "north",
        "area_sqm": 405873.088,
        "status": "concept_only_pending_official_controls"
      },
      "geometry": {
        "type": "Polygon",
        "coordinates": [
          [
            [
              116.34231197339246,
              40.01854545454545
            ],
            [
              116.3475,
              40.01854545454545
            ],
            [
              116.3475,
              40.01059090909091
            ],
            [
              116.34192394678492,
              40.01059090909091
            ],
            [
              116.34231197339246,
              40.01854545454545
            ]
          ]
        ]
      }
    },
    {
      "type": "Feature",
      "id": "LU-020",
      "properties": {
        "id": "LU-020",
        "layer": "LAND_USE",
        "source_type": "agent_generated_design",
        "confidence": "low",
        "geometry_role": "design_proposal",
        "land_use_code": "16",
        "name_zh": "留白用地",
        "name_en": "Reserved / Unoptimised",
        "concept_zone": "north",
        "area_sqm": 538910.831,
        "status": "concept_only_pending_official_controls"
      },
      "geometry": {
        "type": "Polygon",
        "coordinates": [
          [
            [
              116.35442826899128,
              40.01059090909091
            ],
            [
              116.3475,
              40.01059090909091
            ],
            [
              116.3475,
              40.01854545454545
            ],
            [
              116.35486413449564,
              40.01854545454545
            ],
            [
              116.35442826899128,
              40.01059090909091
            ]
          ]
        ]
      }
    },
    {
      "type": "Feature",
      "id": "LU-021",
      "properties": {
        "id": "LU-021",
        "layer": "LAND_USE",
        "source_type": "agent_generated_design",
        "confidence": "low",
        "geometry_role": "design_proposal",
        "land_use_code": "0804",
        "name_zh": "教育用地",
        "name_en": "Education",
        "concept_zone": "north",
        "area_sqm": 376567.876,
        "status": "concept_only_pending_official_controls"
      },
      "geometry": {
        "type": "Polygon",
        "coordinates": [
          [
            [
              116.3475,
              40.0265
            ],
            [
              116.3475,
              40.01854545454545
            ],
            [
              116.34231197339246,
              40.01854545454545
            ],
            [
              116.3427,
              40.0265
            ],
            [
              116.3475,
              40.0265
            ]
          ]
        ]
      }
    },
    {
      "type": "Feature",
      "id": "LU-022",
      "properties": {
        "id": "LU-022",
        "layer": "LAND_USE",
        "source_type": "agent_generated_design",
        "confidence": "low",
        "geometry_role": "design_proposal",
        "land_use_code": "0802",
        "name_zh": "科研用地",
        "name_en": "Research",
        "concept_zone": "north",
        "area_sqm": 571714.858,
        "status": "concept_only_pending_official_controls"
      },
      "geometry": {
        "type": "Polygon",
        "coordinates": [
          [
            [
              116.35486413449564,
              40.01854545454545
            ],
            [
              116.3475,
              40.01854545454545
            ],
            [
              116.3475,
              40.0265
            ],
            [
              116.3553,
              40.0265
            ],
            [
              116.35486413449564,
              40.01854545454545
            ]
          ]
        ]
      }
    }
  ],
  "metadata": {
    "classification_source": "MNR 2023 subset",
    "coverage_note": "Concept cells clipped to provisional site boundary."
  }
}
