{
  "type": "FeatureCollection",
  "name": "phasing",
  "features": [
    {
      "type": "Feature",
      "id": "PHASE-001",
      "properties": {
        "id": "PHASE-001",
        "layer": "PHASE",
        "source_type": "agent_generated_design",
        "confidence": "medium",
        "geometry_role": "design_proposal",
        "phase_order": 0,
        "name_zh": "生命基底与城市智能双门制基线",
        "name_en": "Living Ground and Civic AI Dual-Gate baseline",
        "indicative_period": "2026-2027",
        "gate_based": true,
        "field_authorisation_required": true,
        "status": "concept_only_not_authorised"
      },
      "geometry": {
        "type": "Polygon",
        "coordinates": [
          [
            [
              116.34628834209047,
              39.96198480041875
            ],
            [
              116.34628823378188,
              39.96199059294697
            ],
            [
              116.34608800702289,
              39.9759905892237
            ],
            [
              116.34608846528745,
              39.97602630707488
            ],
            [
              116.34658809946336,
              39.988522226658596
            ],
            [
              116.3469877281405,
              40.00301729123971
            ],
            [
              116.34728722443295,
              40.01500492978513
            ],
            [
              116.3471871772968,
              40.024993415830664
            ],
            [
              116.34719169571449,
              40.0250773038837
            ],
            [
              116.34720688774229,
              40.025160447507126
            ],
            [
              116.3472326071105,
              40.025242045978615
            ],
            [
              116.3472686061626,
              40.025321313453695
            ],
            [
              116.34731453823903,
              40.02539748653426
            ],
            [
              116.3473699610145,
              40.02546983162072
            ],
            [
              116.34743434075669,
              40.025537651977444
            ],
            [
              116.3475070574659,
              40.025600294443215
            ],
            [
              116.34758741084532,
              40.0256571557221
            ],
            [
              116.34767462704511,
              40.025707688194
            ],
            [
              116.34776786611523,
              40.025751405189155
            ],
            [
              116.34786623009481,
              40.02578788567562
            ],
            [
              116.34796877166086,
              40.0258167783145
            ],
            [
              116.34807450325238,
              40.02583780484403
            ],
            [
              116.34818240658221,
              40.02585076275971
            ],
            [
              116.34829144244506,
              40.0258555272649
            ],
            [
              116.34840056072699,
              40.0258520524728
            ],
            [
              116.34850871052014,
              40.025840371848474
            ],
            [
              116.3486148502451,
              40.025820597886536
            ],
            [
              116.34871795768316,
              40.0257929210276
            ],
            [
              116.34881703982239,
              40.025757607823955
            ],
            [
              116.34891114242197,
              40.025714998372244
            ],
            [
              116.34899935920302,
              40.02566550303767
            ],
            [
              116.34908084057734,
              40.02560959850147
            ],
            [
              116.3491548018299,
              40.025547823169646
            ],
            [
              116.34922053067629,
              40.02548077198731
            ],
            [
              116.34927739412215,
              40.025409090708415
            ],
            [
              116.34932484455908,
              40.025333469676255
            ],
            [
              116.34936242503751,
              40.02525463717458
            ],
            [
              116.34938977366656,
              40.025173352413326
            ],
            [
              116.34940662709812,
              40.025090398216705
            ],
            [
              116.34941282306168,
              40.02500657348383
            ],
            [
              116.34951266064965,
              40.015006571236285
            ],
            [
              116.3495124875795,
              40.014983549610164
            ],
            [
              116.34921229277434,
              40.002983550897845
            ],
            [
              116.34921224790011,
              40.002981845297604
            ],
            [
              116.34881201268543,
              39.988481847206934
            ],
            [
              116.34881173652826,
              39.98847367914413
            ],
            [
              116.34831224839476,
              39.975991537494764
            ],
            [
              116.34851172534972,
              39.96201229279935
            ],
            [
              116.34881144821783,
              39.94901518439052
            ],
            [
              116.34881157772134,
              39.949007742777894
            ],
            [
              116.34891144019974,
              39.94050774072445
            ],
            [
              116.34890707331351,
              39.94042384685756
            ],
            [
              116.3488920447394,
              39.940340686436
            ],
            [
              116.34886649924847,
              39.94025906033635
            ],
            [
              116.34883068289274,
              39.940179754656064
            ],
            [
              116.34878494063423,
              39.940103533143215
            ],
            [
              116.34872971302148,
              39.94003112984155
            ],
            [
              116.34866553194604,
              39.939963242021605
            ],
            [
              116.34859301551914,
              39.939900523466164
            ],
            [
              116.34851286211857,
              39.93984357817445
            ],
            [
              116.34842584366261,
              39.93979295454595
            ],
            [
              116.34833279817636,
              39.93974914009946
            ],
            [
              116.34823462172125,
              39.93971255677871
            ],
            [
              116.34813225976629,
              39.93968355688921
            ],
            [
              116.34802669808359,
              39.93966241970586
            ],
            [
              116.34791895325593,
              39.9396493487838
            ],
            [
              116.34781006288787,
              39.939644469998264
            ],
            [
              116.34770107561437,
              39.939647830332596
            ],
            [
              116.34759304100349,
              39.939659397425814
            ],
            [
              116.34748699944991,
              39.939679059884256
            ],
            [
              116.34738397215676,
              39.93970662835415
            ],
            [
              116.34728495130229,
              39.93974183734506
            ],
            [
              116.34719089048582,
              39.93978434778626
            ],
            [
              116.34710269554503,
              39.939833750291776
            ],
            [
              116.347021215833,
              39.93988956910254
            ],
            [
              116.34694723603897,
              39.9399512666676
            ],
            [
              116.3468814686315,
              39.94001824882052
            ],
            [
              116.34682454699693,
              39.940089870500934
            ],
            [
              116.34677701933919,
              39.94016544196628
            ],
            [
              116.34673934339949,
              39.940244235433894
            ],
            [
              116.34671188204723,
              39.940325492089485
            ],
            [
              116.34669489978415,
              39.94040842939454
            ],
            [
              116.3466885601958,
              39.94049224862238
            ],
            [
              116.34658846651988,
              39.948988525544465
            ],
            [
              116.34628834209047,
              39.96198480041875
            ]
          ]
        ]
      }
    },
    {
      "type": "Feature",
      "id": "PHASE-002",
      "properties": {
        "id": "PHASE-002",
        "layer": "PHASE",
        "source_type": "agent_generated_design",
        "confidence": "medium",
        "geometry_role": "design_proposal",
        "phase_order": 1,
        "name_zh": "众智园相成试场试点",
        "name_en": "Zhongzhiyuan test-ground pilot",
        "indicative_period": "2027-2029",
        "gate_based": true,
        "field_authorisation_required": true,
        "status": "concept_only_not_authorised"
      },
      "geometry": {
        "type": "Polygon",
        "coordinates": [
          [
            [
              116.354,
              40.0075
            ],
            [
              116.343,
              40.0075
            ],
            [
              116.343,
              40.026
            ],
            [
              116.354,
              40.026
            ],
            [
              116.354,
              40.0075
            ]
          ]
        ]
      }
    },
    {
      "type": "Feature",
      "id": "PHASE-003",
      "properties": {
        "id": "PHASE-003",
        "layer": "PHASE",
        "source_type": "agent_generated_design",
        "confidence": "medium",
        "geometry_role": "design_proposal",
        "phase_order": 2,
        "name_zh": "AI原点相成社区试点",
        "name_en": "AI Origin civic-commons pilot",
        "indicative_period": "2028-2031",
        "gate_based": true,
        "field_authorisation_required": true,
        "status": "concept_only_not_authorised"
      },
      "geometry": {
        "type": "Polygon",
        "coordinates": [
          [
            [
              116.353,
              39.9835
            ],
            [
              116.342,
              39.9835
            ],
            [
              116.342,
              39.9935
            ],
            [
              116.353,
              39.9935
            ],
            [
              116.353,
              39.9835
            ]
          ]
        ]
      }
    },
    {
      "type": "Feature",
      "id": "PHASE-004",
      "properties": {
        "id": "PHASE-004",
        "layer": "PHASE",
        "source_type": "agent_generated_design",
        "confidence": "medium",
        "geometry_role": "design_proposal",
        "phase_order": 3,
        "name_zh": "大钟寺相成日常试点",
        "name_en": "Dazhongsi everyday-district pilot",
        "indicative_period": "2029-2033",
        "gate_based": true,
        "field_authorisation_required": true,
        "status": "concept_only_not_authorised"
      },
      "geometry": {
        "type": "Polygon",
        "coordinates": [
          [
            [
              116.355,
              39.944
            ],
            [
              116.342,
              39.944
            ],
            [
              116.342,
              39.94984
            ],
            [
              116.355,
              39.94984
            ],
            [
              116.355,
              39.944
            ]
          ]
        ]
      }
    }
  ],
  "metadata": {
    "phasing_logic": "evidence_gates_before_dates"
  }
}
