{
  "type": "FeatureCollection",
  "name": "roads",
  "features": [
    {
      "type": "Feature",
      "id": "RD-001",
      "properties": {
        "id": "RD-001",
        "layer": "ROAD_CENTERLINE",
        "source_type": "agent_generated_design",
        "confidence": "medium",
        "geometry_role": "design_proposal",
        "name_zh": "京张生命—智能主线",
        "name_en": "Jing-Zhang Life–Intelligence Spine",
        "road_class": "greenway",
        "mode": [
          "walk",
          "cycle",
          "service_robot_limited"
        ],
        "length_m": 9384.42,
        "human_priority": true,
        "ecological_speed_limit": true
      },
      "geometry": {
        "type": "LineString",
        "coordinates": [
          [
            116.3478,
            39.9405
          ],
          [
            116.3477,
            39.949
          ],
          [
            116.3474,
            39.962
          ],
          [
            116.3472,
            39.976
          ],
          [
            116.3477,
            39.9885
          ],
          [
            116.3481,
            40.003
          ],
          [
            116.3484,
            40.015
          ],
          [
            116.3483,
            40.025
          ]
        ]
      }
    }
  ],
  "metadata": {
    "conceptual_network": true,
    "not_official_road_alignment": true
  }
}
