{
  "type": "FeatureCollection",
  "name": "site_boundary",
  "features": [
    {
      "type": "Feature",
      "id": "PROV-SITE-001",
      "properties": {
        "id": "PROV-SITE-001",
        "layer": "SITE_BOUNDARY",
        "source_type": "agent_inferred_from_public_data",
        "confidence": "medium",
        "geometry_role": "provisional_constraint",
        "scope_id": "overall_design_area",
        "name_zh": "总体设计范围粗略替代边界",
        "name_en": "Provisional Overall Design Boundary",
        "official_boundary": false,
        "boundary_precision": "provisional_rough",
        "source_id": "SRC-PROVISIONAL-BOUNDARIES",
        "area_sqm_declared": 11400000,
        "area_sqm_calculated": 11412825.386,
        "usage_note_zh": "仅用于概念生成、展示和临时自检；不是官方红线、法定规划或精确面积依据。",
        "usage_note_en": "For concept generation, presentation and interim checks only; not an official redline, statutory plan or precise-area basis."
      },
      "geometry": {
        "type": "Polygon",
        "coordinates": [
          [
            [
              116.3407,
              39.939
            ],
            [
              116.3553,
              39.939
            ],
            [
              116.3553,
              39.965
            ],
            [
              116.3533,
              39.99
            ],
            [
              116.3553,
              40.0265
            ],
            [
              116.3427,
              40.0265
            ],
            [
              116.3417,
              40.006
            ],
            [
              116.3397,
              39.975
            ],
            [
              116.3407,
              39.939
            ]
          ]
        ]
      }
    }
  ],
  "metadata": {
    "crs": "EPSG:4326",
    "area_check_crs": "EPSG:4548",
    "official_boundary_available": false,
    "recalculation_trigger": "official_or_cleared_boundary_received"
  }
}
