{
  "type": "FeatureCollection",
  "name": "green_space_scaffold",
  "features": [
    {
      "type": "Feature",
      "id": "GREEN-001",
      "properties": {
        "id": "GREEN-001",
        "layer": "GREEN_SPACE",
        "source_type": "agent_generated_design",
        "confidence": "medium",
        "geometry_role": "design_proposal",
        "name_zh": "京张遗址公园本体（绿地）",
        "area_sqm_declared": 2330405.657,
        "land_use_code": "1401"
      },
      "geometry": {
        "type": "Polygon",
        "coordinates": [
          [
            [
              116.3436,
              40.0265
            ],
            [
              116.346408,
              40.0265
            ],
            [
              116.346408,
              39.939
            ],
            [
              116.3436,
              39.939
            ],
            [
              116.3436,
              40.0265
            ]
          ]
        ]
      }
    }
  ]
}
