{
  "type": "FeatureCollection",
  "name": "public_space_scaffold",
  "features": [
    {
      "type": "Feature",
      "id": "PUBLIC-001",
      "properties": {
        "id": "PUBLIC-001",
        "layer": "PUBLIC_SPACE",
        "source_type": "agent_generated_design",
        "confidence": "medium",
        "geometry_role": "design_proposal",
        "name_zh": "遗址公园硬质铺装广场（公共空间）",
        "area_sqm_declared": 906268.452
      },
      "geometry": {
        "type": "Polygon",
        "coordinates": [
          [
            [
              116.3475,
              40.0265
            ],
            [
              116.3475,
              39.939
            ],
            [
              116.346408,
              39.939
            ],
            [
              116.346408,
              40.0265
            ],
            [
              116.3475,
              40.0265
            ]
          ]
        ]
      }
    }
  ]
}
