{
  "type": "FeatureCollection",
  "name": "roads_scaffold",
  "features": [
    {
      "type": "Feature",
      "id": "ROAD-001",
      "properties": {
        "id": "ROAD-001",
        "layer": "ROAD_CENTERLINE",
        "source_type": "agent_generated_design",
        "confidence": "medium",
        "geometry_role": "design_proposal",
        "road_class": "greenway",
        "name_zh": "慢行与创新服务廊道"
      },
      "geometry": {
        "type": "LineString",
        "coordinates": [
          [
            116.340948,
            39.9845
          ],
          [
            116.35374,
            39.9845
          ]
        ]
      }
    },
    {
      "type": "Feature",
      "id": "SPINE-001",
      "properties": {
        "id": "SPINE-001",
        "layer": "ROAD_CENTERLINE",
        "road_class": "greenway",
        "name_zh": "京张铁路遗址公园脊线（示意）",
        "name_en": "Jing-Zhang Heritage Park Spine (indicative)",
        "source_type": "agent_generated_design",
        "confidence": "low",
        "geometry_role": "design_proposal",
        "derivation_method": "由 key_areas.geojson 三个重点区质心按纬度排序连线，并向南北延伸至 site_boundary 边界",
        "usage_note": "示意走向，非精确测绘几何。官方精确线位未公开，待发布后重算"
      },
      "geometry": {
        "type": "LineString",
        "coordinates": [
          [
            116.3485,
            39.939
          ],
          [
            116.3485,
            39.946920000000006
          ],
          [
            116.3475,
            39.9885
          ],
          [
            116.3485,
            40.01675
          ],
          [
            116.3485,
            40.0265
          ]
        ]
      }
    }
  ]
}
