{"type":"FeatureCollection","name":"constraints","features":[{"type":"Feature","id":"CON-001","properties":{"id":"CON-001","layer":"EXISTING_PRIMARY_ROAD","name_zh":"北三环（现状，OSM）","source_type":"osm","confidence":"medium","geometry_role":"existing_condition"},"geometry":{"type":"LineString","coordinates":[[116.346772,39.966399],[116.343627,39.966376],[116.342962,39.966369],[116.342276,39.966362]]}},{"type":"Feature","id":"CON-002","properties":{"id":"CON-002","layer":"EXISTING_PRIMARY_ROAD","name_zh":"北二环（现状，OSM）","source_type":"osm","confidence":"medium","geometry_role":"existing_condition"},"geometry":{"type":"LineString","coordinates":[[116.352728,39.943166],[116.354046,39.943496],[116.35477,39.943698],[116.3553,39.943841]]}},{"type":"Feature","id":"CON-003","properties":{"id":"CON-003","layer":"EXISTING_PRIMARY_ROAD","name_zh":"西直门北大街（现状，OSM）","source_type":"osm","confidence":"medium","geometry_role":"existing_condition"},"geometry":{"type":"LineString","coordinates":[[116.349375,39.940267],[116.349338,39.94047],[116.349328,39.940516],[116.349324,39.94054],[116.349321,39.940563],[116.349318,39.940588],[116.349317,39.940613],[116.349316,39.940638],[116.349316,39.940663],[116.349316,39.940706],[116.349317,39.94075],[116.349319,39.940794],[116.349323,39.940838],[116.349327,39.940882],[116.349332,39.940925],[116.349338,39.940969],[116.349346,39.941013],[116.349359,39.941069],[116.349373,39.941124],[116.349388,39.94118],[116.349404,39.941236],[116.349419,39.941282],[116.349428,39.941305],[116.349437,39.941328],[116.349447,39.941352],[116.349458,39.941376],[116.349471,39.941399],[116.349484,39.941423],[116.349498,39.941446],[116.349513,39.94147],[116.349546,39.941518],[116.349613,39.941614],[116.349682,39.941712],[116.349717,39.941761],[116.349754,39.941815],[116.349782,39.941857],[116.349809,39.941898],[116.349833,39.941937],[116.349859,39.941981],[116.349879,39.942018],[116.349898,39.942054],[116.349908,39.942074],[116.349918,39.942093],[116.349926,39.94211],[116.349936,39.942133],[116.349948,39.942162],[116.349958,39.942189],[116.349971,39.942222],[116.349982,39.942251],[116.34999,39.942274],[116.349998,39.942297],[116.350004,39.94232],[116.350012,39.942347],[116.350018,39.942372],[116.350025,39.9424],[116.35003,39.94243],[116.350035,39.942459],[116.350039,39.942485],[116.350042,39.942516],[116.350048,39.942573],[116.350058,39.942686],[116.350066,39.942802],[116.350102,39.943379]]}},{"type":"Feature","id":"CON-004","properties":{"id":"CON-004","layer":"EXISTING_PRIMARY_ROAD","name_zh":"主干路（现状，OSM）","source_type":"osm","confidence":"medium","geometry_role":"existing_condition"},"geometry":{"type":"LineString","coordinates":[[116.346421,39.999693],[116.346422,39.999571]]}},{"type":"Feature","id":"CON-005","properties":{"id":"CON-005","layer":"EXISTING_PRIMARY_ROAD","name_zh":"主干路（现状，OSM）","source_type":"osm","confidence":"medium","geometry_role":"existing_condition"},"geometry":{"type":"LineString","coordinates":[[116.350584,40.018148],[116.350224,40.01858],[116.349816,40.019053],[116.349512,40.019461],[116.349432,40.019556],[116.349246,40.019775],[116.34871,40.020468]]}},{"type":"Feature","id":"CON-006","properties":{"id":"CON-006","layer":"EXISTING_PRIMARY_ROAD","name_zh":"北五环（现状，OSM）","source_type":"osm","confidence":"medium","geometry_role":"existing_condition"},"geometry":{"type":"LineString","coordinates":[[116.350939,40.021596],[116.35428,40.021582],[116.35503,40.021571]]}},{"type":"Feature","id":"CON-007","properties":{"id":"CON-007","layer":"EXISTING_PRIMARY_ROAD","name_zh":"主干路（现状，OSM）","source_type":"osm","confidence":"medium","geometry_role":"existing_condition"},"geometry":{"type":"LineString","coordinates":[[116.347255,39.975116],[116.348134,39.975118]]}},{"type":"Feature","id":"CON-008","properties":{"id":"CON-008","layer":"EXISTING_PRIMARY_ROAD","name_zh":"北五环（现状，OSM）","source_type":"osm","confidence":"medium","geometry_role":"existing_condition"},"geometry":{"type":"LineString","coordinates":[[116.342466,40.021704],[116.343352,40.021694],[116.34521,40.021668]]}},{"type":"Feature","id":"CON-009","properties":{"id":"CON-009","layer":"EXISTING_PRIMARY_ROAD","name_zh":"学院路（现状，OSM）","source_type":"osm","confidence":"medium","geometry_role":"existing_condition"},"geometry":{"type":"LineString","coordinates":[[116.347304,39.986969],[116.347277,39.987752]]}},{"type":"Feature","id":"CON-010","properties":{"id":"CON-010","layer":"EXISTING_PRIMARY_ROAD","name_zh":"学清路（现状，OSM）","source_type":"osm","confidence":"medium","geometry_role":"existing_condition"},"geometry":{"type":"LineString","coordinates":[[116.344781,40.022415],[116.344649,40.02216],[116.344644,40.021955],[116.344683,40.021726],[116.344726,40.021558],[116.344797,40.021388],[116.344891,40.021233]]}},{"type":"Feature","id":"CON-011","properties":{"id":"CON-011","layer":"EXISTING_PRIMARY_ROAD","name_zh":"北四环中路（现状，OSM）","source_type":"osm","confidence":"medium","geometry_role":"existing_condition"},"geometry":{"type":"LineString","coordinates":[[116.343985,39.985301],[116.346716,39.985408],[116.347979,39.985453],[116.350853,39.985533]]}},{"type":"Feature","id":"CON-012","properties":{"id":"CON-012","layer":"EXISTING_PRIMARY_ROAD","name_zh":"北四环中路（现状，OSM）","source_type":"osm","confidence":"medium","geometry_role":"existing_condition"},"geometry":{"type":"LineString","coordinates":[[116.350853,39.985533],[116.352554,39.985599]]}},{"type":"Feature","id":"CON-013","properties":{"id":"CON-013","layer":"EXISTING_PRIMARY_ROAD","name_zh":"北四环中路（现状，OSM）","source_type":"osm","confidence":"medium","geometry_role":"existing_condition"},"geometry":{"type":"LineString","coordinates":[[116.350842,39.985701],[116.347972,39.985619],[116.347041,39.985591],[116.346716,39.985579],[116.343976,39.985468]]}},{"type":"Feature","id":"CON-014","properties":{"id":"CON-014","layer":"EXISTING_PRIMARY_ROAD","name_zh":"学院路（现状，OSM）","source_type":"osm","confidence":"medium","geometry_role":"existing_condition"},"geometry":{"type":"LineString","coordinates":[[116.347453,39.983968],[116.347405,39.985105],[116.347397,39.98528]]}},{"type":"Feature","id":"CON-015","properties":{"id":"CON-015","layer":"EXISTING_PRIMARY_ROAD","name_zh":"学院路（现状，OSM）","source_type":"osm","confidence":"medium","geometry_role":"existing_condition"},"geometry":{"type":"LineString","coordinates":[[116.347261,39.983965],[116.347267,39.983793]]}},{"type":"Feature","id":"CON-016","properties":{"id":"CON-016","layer":"EXISTING_PRIMARY_ROAD","name_zh":"学知桥（现状，OSM）","source_type":"osm","confidence":"medium","geometry_role":"existing_condition"},"geometry":{"type":"LineString","coordinates":[[116.347794,39.976316],[116.347767,39.97602],[116.347713,39.975789],[116.347633,39.975562],[116.346982,39.974271],[116.346896,39.973975],[116.346876,39.973529]]}},{"type":"Feature","id":"CON-017","properties":{"id":"CON-017","layer":"EXISTING_PRIMARY_ROAD","name_zh":"学知桥（现状，OSM）","source_type":"osm","confidence":"medium","geometry_role":"existing_condition"},"geometry":{"type":"LineString","coordinates":[[116.348069,39.973751],[116.347919,39.976316]]}},{"type":"Feature","id":"CON-018","properties":{"id":"CON-018","layer":"EXISTING_PRIMARY_ROAD","name_zh":"西直门北大街（现状，OSM）","source_type":"osm","confidence":"medium","geometry_role":"existing_condition"},"geometry":{"type":"LineString","coordinates":[[116.34757,39.95853],[116.348453,39.956954],[116.348733,39.95646],[116.348812,39.956117],[116.348889,39.954755]]}},{"type":"Feature","id":"CON-019","properties":{"id":"CON-019","layer":"EXISTING_PRIMARY_ROAD","name_zh":"学院路（现状，OSM）","source_type":"osm","confidence":"medium","geometry_role":"existing_condition"},"geometry":{"type":"LineString","coordinates":[[116.347129,39.986963],[116.347164,39.985953],[116.347172,39.985718]]}},{"type":"Feature","id":"CON-020","properties":{"id":"CON-020","layer":"EXISTING_PRIMARY_ROAD","name_zh":"北三环（现状，OSM）","source_type":"osm","confidence":"medium","geometry_role":"existing_condition"},"geometry":{"type":"LineString","coordinates":[[116.346777,39.96629],[116.349102,39.966291]]}},{"type":"Feature","id":"CON-021","properties":{"id":"CON-021","layer":"EXISTING_PRIMARY_ROAD","name_zh":"北三环（现状，OSM）","source_type":"osm","confidence":"medium","geometry_role":"existing_condition"},"geometry":{"type":"LineString","coordinates":[[116.349095,39.966408],[116.346772,39.966399]]}},{"type":"Feature","id":"CON-022","properties":{"id":"CON-022","layer":"EXISTING_PRIMARY_ROAD","name_zh":"北四环中路（现状，OSM）","source_type":"osm","confidence":"medium","geometry_role":"existing_condition"},"geometry":{"type":"LineString","coordinates":[[116.353637,39.98579],[116.352557,39.985762]]}},{"type":"Feature","id":"CON-023","properties":{"id":"CON-023","layer":"EXISTING_PRIMARY_ROAD","name_zh":"京藏高速（现状，OSM）","source_type":"osm","confidence":"medium","geometry_role":"existing_condition"},"geometry":{"type":"LineString","coordinates":[[116.346901,40.02252],[116.347938,40.021167]]}},{"type":"Feature","id":"CON-024","properties":{"id":"CON-024","layer":"EXISTING_PRIMARY_ROAD","name_zh":"京藏高速（现状，OSM）","source_type":"osm","confidence":"medium","geometry_role":"existing_condition"},"geometry":{"type":"LineString","coordinates":[[116.347938,40.021167],[116.34962,40.018958],[116.352793,40.014905],[116.354203,40.012917],[116.354461,40.012546],[116.35453,40.012457]]}},{"type":"Feature","id":"CON-025","properties":{"id":"CON-025","layer":"EXISTING_PRIMARY_ROAD","name_zh":"西二环（现状，OSM）","source_type":"osm","confidence":"medium","geometry_role":"existing_condition"},"geometry":{"type":"LineString","coordinates":[[116.349177,39.94034],[116.349233,39.939]]}},{"type":"Feature","id":"CON-026","properties":{"id":"CON-026","layer":"EXISTING_PRIMARY_ROAD","name_zh":"西直门外大街（现状，OSM）","source_type":"osm","confidence":"medium","geometry_role":"existing_condition"},"geometry":{"type":"LineString","coordinates":[[116.34977,39.939194],[116.348924,39.939167]]}},{"type":"Feature","id":"CON-027","properties":{"id":"CON-027","layer":"EXISTING_PRIMARY_ROAD","name_zh":"科荟桥（现状，OSM）","source_type":"osm","confidence":"medium","geometry_role":"existing_condition"},"geometry":{"type":"LineString","coordinates":[[116.354182,40.007099],[116.354238,40.007111]]}},{"type":"Feature","id":"CON-028","properties":{"id":"CON-028","layer":"EXISTING_PRIMARY_ROAD","name_zh":"石板房南路（现状，OSM）","source_type":"osm","confidence":"medium","geometry_role":"existing_condition"},"geometry":{"type":"LineString","coordinates":[[116.353032,40.006869],[116.353092,40.006879],[116.353311,40.006924],[116.353334,40.006929],[116.354182,40.007099]]}},{"type":"Feature","id":"CON-029","properties":{"id":"CON-029","layer":"EXISTING_PRIMARY_ROAD","name_zh":"主干路（现状，OSM）","source_type":"osm","confidence":"medium","geometry_role":"existing_condition"},"geometry":{"type":"LineString","coordinates":[[116.346134,40.006335],[116.346384,40.006352]]}},{"type":"Feature","id":"CON-030","properties":{"id":"CON-030","layer":"EXISTING_PRIMARY_ROAD","name_zh":"北二环（现状，OSM）","source_type":"osm","confidence":"medium","geometry_role":"existing_condition"},"geometry":{"type":"LineString","coordinates":[[116.350461,39.942674],[116.350429,39.942663],[116.35038,39.942645],[116.350335,39.942627],[116.35029,39.942609],[116.350244,39.942591],[116.350201,39.942572],[116.350154,39.94255],[116.350108,39.942528],[116.350061,39.942502],[116.350015,39.942476],[116.349967,39.942448],[116.349921,39.942421],[116.349878,39.942393],[116.349837,39.942366],[116.34979,39.942333],[116.349745,39.9423]]}},{"type":"Feature","id":"CON-031","properties":{"id":"CON-031","layer":"EXISTING_PRIMARY_ROAD","name_zh":"G6辅路（现状，OSM）","source_type":"osm","confidence":"medium","geometry_role":"existing_condition"},"geometry":{"type":"LineString","coordinates":[[116.350121,40.020444],[116.350173,40.020555],[116.350508,40.021266],[116.350552,40.021406]]}},{"type":"Feature","id":"CON-032","properties":{"id":"CON-032","layer":"EXISTING_PRIMARY_ROAD","name_zh":"G6辅路（现状，OSM）","source_type":"osm","confidence":"medium","geometry_role":"existing_condition"},"geometry":{"type":"LineString","coordinates":[[116.3459,40.020908],[116.34608,40.02084],[116.346414,40.020713],[116.347306,40.020272],[116.348077,40.019849],[116.348742,40.019485],[116.348838,40.019408],[116.349116,40.019186],[116.34946,40.018832],[116.350429,40.017609],[116.351215,40.016604],[116.351283,40.016517],[116.351499,40.016241],[116.353616,40.013534],[116.35394,40.013091],[116.354109,40.012802],[116.354361,40.012039],[116.354492,40.011754]]}},{"type":"Feature","id":"CON-033","properties":{"id":"CON-033","layer":"EXISTING_PRIMARY_ROAD","name_zh":"西直门北大街（现状，OSM）","source_type":"osm","confidence":"medium","geometry_role":"existing_condition"},"geometry":{"type":"LineString","coordinates":[[116.348889,39.954755],[116.348898,39.954304]]}},{"type":"Feature","id":"CON-034","properties":{"id":"CON-034","layer":"EXISTING_PRIMARY_ROAD","name_zh":"北二环（现状，OSM）","source_type":"osm","confidence":"medium","geometry_role":"existing_condition"},"geometry":{"type":"LineString","coordinates":[[116.349375,39.940267],[116.349384,39.940297],[116.349385,39.940317],[116.349388,39.940335],[116.349391,39.94036],[116.349396,39.94039],[116.349399,39.940417],[116.349403,39.940443],[116.349405,39.94047],[116.349407,39.940497],[116.34941,39.940533],[116.349412,39.94057],[116.349414,39.940646],[116.349417,39.940722],[116.349419,39.940762],[116.349422,39.940803],[116.349423,39.940823],[116.349425,39.940843],[116.349431,39.94088],[116.349436,39.940904],[116.349441,39.940927],[116.349448,39.940956],[116.349458,39.94099],[116.349471,39.941032],[116.34949,39.941077],[116.34951,39.941122],[116.349531,39.941166],[116.349553,39.94121],[116.349571,39.941243],[116.349589,39.941277],[116.349607,39.941307],[116.349626,39.941337],[116.349651,39.941375],[116.349676,39.941414],[116.3497,39.941451],[116.349726,39.941489],[116.349753,39.941528],[116.349779,39.941565],[116.349833,39.941641]]}},{"type":"Feature","id":"CON-035","properties":{"id":"CON-035","layer":"EXISTING_PRIMARY_ROAD","name_zh":"西直门外大街（现状，OSM）","source_type":"osm","confidence":"medium","geometry_role":"existing_condition"},"geometry":{"type":"LineString","coordinates":[[116.348926,39.939062],[116.349774,39.93908]]}},{"type":"Feature","id":"CON-036","properties":{"id":"CON-036","layer":"EXISTING_PRIMARY_ROAD","name_zh":"西直门外大街（现状，OSM）","source_type":"osm","confidence":"medium","geometry_role":"existing_condition"},"geometry":{"type":"LineString","coordinates":[[116.348924,39.939167],[116.348844,39.939164],[116.348758,39.939159],[116.34866,39.939152],[116.348565,39.939146],[116.348482,39.93914],[116.348417,39.939135],[116.348364,39.939132],[116.348312,39.939128],[116.348211,39.939122],[116.348117,39.939117],[116.348009,39.939112],[116.347888,39.939108],[116.347786,39.939104],[116.347677,39.939098]]}},{"type":"Feature","id":"CON-037","properties":{"id":"CON-037","layer":"EXISTING_PRIMARY_ROAD","name_zh":"石板房南路（现状，OSM）","source_type":"osm","confidence":"medium","geometry_role":"existing_condition"},"geometry":{"type":"LineString","coordinates":[[116.354133,40.007202],[116.353302,40.007024],[116.353151,40.006999],[116.353049,40.006983],[116.352988,40.006972]]}},{"type":"Feature","id":"CON-038","properties":{"id":"CON-038","layer":"EXISTING_PRIMARY_ROAD","name_zh":"京藏高速（现状，OSM）","source_type":"osm","confidence":"medium","geometry_role":"existing_condition"},"geometry":{"type":"LineString","coordinates":[[116.347117,40.022566],[116.345478,40.024519],[116.345115,40.025059]]}},{"type":"Feature","id":"CON-039","properties":{"id":"CON-039","layer":"EXISTING_PRIMARY_ROAD","name_zh":"京藏高速（现状，OSM）","source_type":"osm","confidence":"medium","geometry_role":"existing_condition"},"geometry":{"type":"LineString","coordinates":[[116.343795,40.0265],[116.344404,40.025672]]}},{"type":"Feature","id":"CON-040","properties":{"id":"CON-040","layer":"EXISTING_PRIMARY_ROAD","name_zh":"主干路（现状，OSM）","source_type":"osm","confidence":"medium","geometry_role":"existing_condition"},"geometry":{"type":"LineString","coordinates":[[116.344214,40.025638],[116.344721,40.024972]]}},{"type":"Feature","id":"CON-041","properties":{"id":"CON-041","layer":"EXISTING_PRIMARY_ROAD","name_zh":"京藏高速（现状，OSM）","source_type":"osm","confidence":"medium","geometry_role":"existing_condition"},"geometry":{"type":"LineString","coordinates":[[116.345115,40.025059],[116.344623,40.025707]]}},{"type":"Feature","id":"CON-042","properties":{"id":"CON-042","layer":"EXISTING_PRIMARY_ROAD","name_zh":"北五环（现状，OSM）","source_type":"osm","confidence":"medium","geometry_role":"existing_condition"},"geometry":{"type":"LineString","coordinates":[[116.350293,40.021599],[116.350939,40.021596]]}},{"type":"Feature","id":"CON-043","properties":{"id":"CON-043","layer":"EXISTING_PRIMARY_ROAD","name_zh":"主干路（现状，OSM）","source_type":"osm","confidence":"medium","geometry_role":"existing_condition"},"geometry":{"type":"LineString","coordinates":[[116.345264,40.025091],[116.344762,40.02575]]}},{"type":"Feature","id":"CON-044","properties":{"id":"CON-044","layer":"EXISTING_PRIMARY_ROAD","name_zh":"G6辅路（现状，OSM）","source_type":"osm","confidence":"medium","geometry_role":"existing_condition"},"geometry":{"type":"LineString","coordinates":[[116.344721,40.024972],[116.345029,40.024553],[116.345228,40.024282],[116.345371,40.023983],[116.345382,40.023665],[116.345324,40.023266],[116.345146,40.022909],[116.344781,40.022415]]}},{"type":"Feature","id":"CON-045","properties":{"id":"CON-045","layer":"EXISTING_PRIMARY_ROAD","name_zh":"北五环（现状，OSM）","source_type":"osm","confidence":"medium","geometry_role":"existing_condition"},"geometry":{"type":"LineString","coordinates":[[116.345203,40.021828],[116.342473,40.021851]]}},{"type":"Feature","id":"CON-046","properties":{"id":"CON-046","layer":"EXISTING_PRIMARY_ROAD","name_zh":"北五环（现状，OSM）","source_type":"osm","confidence":"medium","geometry_role":"existing_condition"},"geometry":{"type":"LineString","coordinates":[[116.350939,40.021763],[116.350304,40.02177]]}},{"type":"Feature","id":"CON-047","properties":{"id":"CON-047","layer":"EXISTING_PRIMARY_ROAD","name_zh":"京藏高速（现状，OSM）","source_type":"osm","confidence":"medium","geometry_role":"existing_condition"},"geometry":{"type":"LineString","coordinates":[[116.344623,40.025707],[116.344017,40.0265]]}},{"type":"Feature","id":"CON-048","properties":{"id":"CON-048","layer":"EXISTING_PRIMARY_ROAD","name_zh":"京藏高速（现状，OSM）","source_type":"osm","confidence":"medium","geometry_role":"existing_condition"},"geometry":{"type":"LineString","coordinates":[[116.344404,40.025672],[116.34493,40.024999]]}},{"type":"Feature","id":"CON-049","properties":{"id":"CON-049","layer":"EXISTING_PRIMARY_ROAD","name_zh":"北五环（现状，OSM）","source_type":"osm","confidence":"medium","geometry_role":"existing_condition"},"geometry":{"type":"LineString","coordinates":[[116.34521,40.021668],[116.350293,40.021599]]}},{"type":"Feature","id":"CON-050","properties":{"id":"CON-050","layer":"EXISTING_PRIMARY_ROAD","name_zh":"京藏高速（现状，OSM）","source_type":"osm","confidence":"medium","geometry_role":"existing_condition"},"geometry":{"type":"LineString","coordinates":[[116.34493,40.024999],[116.345414,40.024377],[116.346901,40.02252]]}},{"type":"Feature","id":"CON-051","properties":{"id":"CON-051","layer":"EXISTING_PRIMARY_ROAD","name_zh":"北五环（现状，OSM）","source_type":"osm","confidence":"medium","geometry_role":"existing_condition"},"geometry":{"type":"LineString","coordinates":[[116.350304,40.02177],[116.346862,40.021823],[116.345203,40.021828]]}},{"type":"Feature","id":"CON-052","properties":{"id":"CON-052","layer":"EXISTING_PRIMARY_ROAD","name_zh":"京藏高速（现状，OSM）","source_type":"osm","confidence":"medium","geometry_role":"existing_condition"},"geometry":{"type":"LineString","coordinates":[[116.348079,40.021217],[116.347117,40.022566]]}},{"type":"Feature","id":"CON-053","properties":{"id":"CON-053","layer":"EXISTING_PRIMARY_ROAD","name_zh":"学院路（现状，OSM）","source_type":"osm","confidence":"medium","geometry_role":"existing_condition"},"geometry":{"type":"LineString","coordinates":[[116.347919,39.976316],[116.347822,39.97784],[116.347834,39.978106]]}},{"type":"Feature","id":"CON-054","properties":{"id":"CON-054","layer":"EXISTING_PRIMARY_ROAD","name_zh":"西土城路（现状，OSM）","source_type":"osm","confidence":"medium","geometry_role":"existing_condition"},"geometry":{"type":"LineString","coordinates":[[116.348862,39.958556],[116.348813,39.959912]]}},{"type":"Feature","id":"CON-055","properties":{"id":"CON-055","layer":"EXISTING_PRIMARY_ROAD","name_zh":"西土城路（现状，OSM）","source_type":"osm","confidence":"medium","geometry_role":"existing_condition"},"geometry":{"type":"LineString","coordinates":[[116.346876,39.973529],[116.346951,39.971849],[116.346987,39.970319]]}},{"type":"Feature","id":"CON-056","properties":{"id":"CON-056","layer":"EXISTING_PRIMARY_ROAD","name_zh":"西直门北大街（现状，OSM）","source_type":"osm","confidence":"medium","geometry_role":"existing_condition"},"geometry":{"type":"LineString","coordinates":[[116.349811,39.948853],[116.349902,39.948514],[116.349991,39.947931]]}},{"type":"Feature","id":"CON-057","properties":{"id":"CON-057","layer":"EXISTING_PRIMARY_ROAD","name_zh":"西直门北大街（现状，OSM）","source_type":"osm","confidence":"medium","geometry_role":"existing_condition"},"geometry":{"type":"LineString","coordinates":[[116.349938,39.948867],[116.349684,39.949634],[116.349364,39.950616],[116.349286,39.950948]]}},{"type":"Feature","id":"CON-058","properties":{"id":"CON-058","layer":"EXISTING_PRIMARY_ROAD","name_zh":"西直门北大街（现状，OSM）","source_type":"osm","confidence":"medium","geometry_role":"existing_condition"},"geometry":{"type":"LineString","coordinates":[[116.349174,39.950935],[116.34926,39.950599],[116.349589,39.949601],[116.349811,39.948853]]}},{"type":"Feature","id":"CON-059","properties":{"id":"CON-059","layer":"EXISTING_PRIMARY_ROAD","name_zh":"西直门北大街（现状，OSM）","source_type":"osm","confidence":"medium","geometry_role":"existing_condition"},"geometry":{"type":"LineString","coordinates":[[116.349286,39.950948],[116.349201,39.951308],[116.349133,39.951833],[116.349072,39.953105],[116.349046,39.953722]]}},{"type":"Feature","id":"CON-060","properties":{"id":"CON-060","layer":"EXISTING_PRIMARY_ROAD","name_zh":"学清路（现状，OSM）","source_type":"osm","confidence":"medium","geometry_role":"existing_condition"},"geometry":{"type":"LineString","coordinates":[[116.346291,40.008076],[116.346205,40.009662],[116.346131,40.011046],[116.346085,40.012079],[116.346094,40.01226],[116.346093,40.012424],[116.346076,40.013028],[116.346061,40.013142],[116.346006,40.013377],[116.345984,40.013746],[116.345982,40.013794],[116.345976,40.013903],[116.346062,40.014008]]}},{"type":"Feature","id":"CON-061","properties":{"id":"CON-061","layer":"EXISTING_PRIMARY_ROAD","name_zh":"学院路（现状，OSM）","source_type":"osm","confidence":"medium","geometry_role":"existing_condition"},"geometry":{"type":"LineString","coordinates":[[116.346422,39.999571],[116.346423,39.999475],[116.346423,39.999403],[116.346424,39.999324],[116.346473,39.998437],[116.346509,39.997752],[116.346533,39.99755],[116.346623,39.99576],[116.346631,39.995591],[116.346725,39.993722],[116.346879,39.992231],[116.346894,39.992098],[116.346898,39.992031]]}},{"type":"Feature","id":"CON-062","properties":{"id":"CON-062","layer":"EXISTING_PRIMARY_ROAD","name_zh":"京藏高速（现状，OSM）","source_type":"osm","confidence":"medium","geometry_role":"existing_condition"},"geometry":{"type":"LineString","coordinates":[[116.354547,40.012754],[116.354388,40.012954],[116.349555,40.019198],[116.348583,40.020463],[116.348079,40.021217]]}},{"type":"Feature","id":"CON-063","properties":{"id":"CON-063","layer":"EXISTING_PRIMARY_ROAD","name_zh":"石板房南路（现状，OSM）","source_type":"osm","confidence":"medium","geometry_role":"existing_condition"},"geometry":{"type":"LineString","coordinates":[[116.352988,40.006972],[116.352553,40.006893]]}},{"type":"Feature","id":"CON-064","properties":{"id":"CON-064","layer":"EXISTING_PRIMARY_ROAD","name_zh":"石板房南路（现状，OSM）","source_type":"osm","confidence":"medium","geometry_role":"existing_condition"},"geometry":{"type":"LineString","coordinates":[[116.352616,40.006793],[116.353032,40.006869]]}},{"type":"Feature","id":"CON-065","properties":{"id":"CON-065","layer":"EXISTING_PRIMARY_ROAD","name_zh":"石板房南路（现状，OSM）","source_type":"osm","confidence":"medium","geometry_role":"existing_condition"},"geometry":{"type":"LineString","coordinates":[[116.352553,40.006893],[116.3525,40.006889],[116.351248,40.006752],[116.350848,40.006731],[116.348976,40.006624],[116.348894,40.006619],[116.347833,40.006559],[116.347748,40.006554],[116.346618,40.00649],[116.346574,40.006485],[116.346395,40.006468]]}},{"type":"Feature","id":"CON-066","properties":{"id":"CON-066","layer":"EXISTING_PRIMARY_ROAD","name_zh":"石板房南路（现状，OSM）","source_type":"osm","confidence":"medium","geometry_role":"existing_condition"},"geometry":{"type":"LineString","coordinates":[[116.346509,40.006366],[116.34658,40.00637],[116.350922,40.006614],[116.351358,40.006639],[116.352436,40.006766],[116.352546,40.006781],[116.352616,40.006793]]}},{"type":"Feature","id":"CON-067","properties":{"id":"CON-067","layer":"EXISTING_PRIMARY_ROAD","name_zh":"主干路（现状，OSM）","source_type":"osm","confidence":"medium","geometry_role":"existing_condition"},"geometry":{"type":"LineString","coordinates":[[116.346395,40.006468],[116.346152,40.006456]]}},{"type":"Feature","id":"CON-068","properties":{"id":"CON-068","layer":"EXISTING_PRIMARY_ROAD","name_zh":"主干路（现状，OSM）","source_type":"osm","confidence":"medium","geometry_role":"existing_condition"},"geometry":{"type":"LineString","coordinates":[[116.346655,39.999589],[116.346657,39.999698]]}},{"type":"Feature","id":"CON-069","properties":{"id":"CON-069","layer":"EXISTING_PRIMARY_ROAD","name_zh":"主干路（现状，OSM）","source_type":"osm","confidence":"medium","geometry_role":"existing_condition"},"geometry":{"type":"LineString","coordinates":[[116.348125,39.975219],[116.347302,39.975213]]}},{"type":"Feature","id":"CON-070","properties":{"id":"CON-070","layer":"EXISTING_PRIMARY_ROAD","name_zh":"北四环中路（现状，OSM）","source_type":"osm","confidence":"medium","geometry_role":"existing_condition"},"geometry":{"type":"LineString","coordinates":[[116.340357,39.985181],[116.341829,39.985209],[116.343985,39.985301]]}},{"type":"Feature","id":"CON-071","properties":{"id":"CON-071","layer":"EXISTING_PRIMARY_ROAD","name_zh":"北四环中路（现状，OSM）","source_type":"osm","confidence":"medium","geometry_role":"existing_condition"},"geometry":{"type":"LineString","coordinates":[[116.343976,39.985468],[116.34179,39.985389],[116.340368,39.985361]]}},{"type":"Feature","id":"CON-072","properties":{"id":"CON-072","layer":"EXISTING_PRIMARY_ROAD","name_zh":"西二环（现状，OSM）","source_type":"osm","confidence":"medium","geometry_role":"existing_condition"},"geometry":{"type":"LineString","coordinates":[[116.349433,39.939],[116.349402,39.939785],[116.349375,39.940267]]}},{"type":"Feature","id":"CON-073","properties":{"id":"CON-073","layer":"EXISTING_PRIMARY_ROAD","name_zh":"西土城路（现状，OSM）","source_type":"osm","confidence":"medium","geometry_role":"existing_condition"},"geometry":{"type":"LineString","coordinates":[[116.346987,39.970319],[116.347042,39.968981],[116.347054,39.968773],[116.347244,39.967897],[116.347307,39.967118]]}},{"type":"Feature","id":"CON-074","properties":{"id":"CON-074","layer":"EXISTING_PRIMARY_ROAD","name_zh":"学院路（现状，OSM）","source_type":"osm","confidence":"medium","geometry_role":"existing_condition"},"geometry":{"type":"LineString","coordinates":[[116.347727,39.97794],[116.347794,39.976316]]}},{"type":"Feature","id":"CON-075","properties":{"id":"CON-075","layer":"EXISTING_PRIMARY_ROAD","name_zh":"学院路（现状，OSM）","source_type":"osm","confidence":"medium","geometry_role":"existing_condition"},"geometry":{"type":"LineString","coordinates":[[116.346904,39.99194],[116.346899,39.991854],[116.346988,39.989503],[116.346998,39.989304],[116.347069,39.988107]]}},{"type":"Feature","id":"CON-076","properties":{"id":"CON-076","layer":"EXISTING_PRIMARY_ROAD","name_zh":"西直门北大街（现状，OSM）","source_type":"osm","confidence":"medium","geometry_role":"existing_condition"},"geometry":{"type":"LineString","coordinates":[[116.349973,39.94334],[116.349945,39.942847],[116.349942,39.942767],[116.349937,39.942686],[116.349934,39.942646],[116.34993,39.942601],[116.349924,39.942554],[116.349919,39.942513],[116.349912,39.942463],[116.3499,39.942413],[116.349889,39.942366],[116.349874,39.942318],[116.34986,39.942278],[116.349844,39.942238],[116.349828,39.942198],[116.349812,39.942164],[116.349795,39.942126],[116.349777,39.942088],[116.34976,39.942053],[116.349743,39.94202],[116.349724,39.941986],[116.349704,39.941952],[116.349681,39.941916],[116.349658,39.94188],[116.349633,39.941844],[116.349609,39.941808],[116.34958,39.941766],[116.34955,39.941723],[116.349497,39.941645],[116.349473,39.941606],[116.349448,39.941567],[116.349427,39.94153],[116.349406,39.941492],[116.349386,39.941451],[116.349367,39.94141],[116.349351,39.941369],[116.349334,39.941327],[116.349315,39.941274],[116.349296,39.941223],[116.349281,39.941174],[116.349267,39.941117],[116.349259,39.941077],[116.34925,39.94103],[116.349242,39.940985],[116.349233,39.940931],[116.349228,39.940895],[116.349224,39.940854],[116.349221,39.940814],[116.349216,39.940744],[116.349211,39.940675],[116.349206,39.940606],[116.3492,39.940536],[116.349194,39.940479],[116.349188,39.940427],[116.349177,39.94034]]}},{"type":"Feature","id":"CON-077","properties":{"id":"CON-077","layer":"EXISTING_PRIMARY_ROAD","name_zh":"西直门北大街（现状，OSM）","source_type":"osm","confidence":"medium","geometry_role":"existing_condition"},"geometry":{"type":"LineString","coordinates":[[116.350102,39.943379],[116.350108,39.943485],[116.35011,39.943538],[116.350115,39.943591],[116.350119,39.943645],[116.350124,39.943697],[116.350129,39.94375],[116.350134,39.943803],[116.35014,39.94387],[116.350147,39.943938],[116.350152,39.944005],[116.350158,39.944073],[116.350161,39.944117],[116.350164,39.94416],[116.350166,39.94421],[116.350168,39.944262],[116.35017,39.944346],[116.35017,39.944585],[116.350146,39.947685]]}},{"type":"Feature","id":"CON-078","properties":{"id":"CON-078","layer":"EXISTING_PRIMARY_ROAD","name_zh":"北二环（现状，OSM）","source_type":"osm","confidence":"medium","geometry_role":"existing_condition"},"geometry":{"type":"LineString","coordinates":[[116.3553,39.943989],[116.353538,39.943511],[116.352735,39.943314]]}},{"type":"Feature","id":"CON-079","properties":{"id":"CON-079","layer":"EXISTING_PRIMARY_ROAD","name_zh":"西直门外大街（现状，OSM）","source_type":"osm","confidence":"medium","geometry_role":"existing_condition"},"geometry":{"type":"LineString","coordinates":[[116.347862,39.939],[116.347942,39.939008],[116.348159,39.939028],[116.34835,39.93904],[116.348557,39.939051],[116.348745,39.939057],[116.348926,39.939062]]}},{"type":"Feature","id":"CON-080","properties":{"id":"CON-080","layer":"EXISTING_PRIMARY_ROAD","name_zh":"西土城路（现状，OSM）","source_type":"osm","confidence":"medium","geometry_role":"existing_condition"},"geometry":{"type":"LineString","coordinates":[[116.348813,39.959912],[116.348784,39.960392],[116.348648,39.962691],[116.348597,39.963812],[116.348596,39.963946]]}},{"type":"Feature","id":"CON-081","properties":{"id":"CON-081","layer":"EXISTING_PRIMARY_ROAD","name_zh":"西土城路（现状，OSM）","source_type":"osm","confidence":"medium","geometry_role":"existing_condition"},"geometry":{"type":"LineString","coordinates":[[116.348596,39.963946],[116.348493,39.965786],[116.348442,39.966967],[116.348432,39.967516]]}},{"type":"Feature","id":"CON-082","properties":{"id":"CON-082","layer":"EXISTING_PRIMARY_ROAD","name_zh":"学院路（现状，OSM）","source_type":"osm","confidence":"medium","geometry_role":"existing_condition"},"geometry":{"type":"LineString","coordinates":[[116.347097,39.992038],[116.347093,39.992104],[116.346913,39.995794],[116.346846,39.996602],[116.346838,39.996787],[116.34681,39.997063],[116.346804,39.997197],[116.346685,39.998733],[116.346652,39.999387],[116.346653,39.999414],[116.346654,39.999478],[116.346655,39.999589]]}},{"type":"Feature","id":"CON-083","properties":{"id":"CON-083","layer":"EXISTING_PRIMARY_ROAD","name_zh":"学院路（现状，OSM）","source_type":"osm","confidence":"medium","geometry_role":"existing_condition"},"geometry":{"type":"LineString","coordinates":[[116.347834,39.978106],[116.347792,39.979106],[116.347696,39.980753]]}},{"type":"Feature","id":"CON-084","properties":{"id":"CON-084","layer":"EXISTING_PRIMARY_ROAD","name_zh":"知春路（现状，OSM）","source_type":"osm","confidence":"medium","geometry_role":"existing_condition"},"geometry":{"type":"LineString","coordinates":[[116.347302,39.975213],[116.346172,39.975194],[116.34423,39.975159],[116.342084,39.975131],[116.339708,39.975126]]}},{"type":"Feature","id":"CON-085","properties":{"id":"CON-085","layer":"EXISTING_PRIMARY_ROAD","name_zh":"北土城西路（现状，OSM）","source_type":"osm","confidence":"medium","geometry_role":"existing_condition"},"geometry":{"type":"LineString","coordinates":[[116.348134,39.975118],[116.349323,39.975129],[116.350193,39.975137],[116.35378,39.975169],[116.354486,39.975175]]}},{"type":"Feature","id":"CON-086","properties":{"id":"CON-086","layer":"EXISTING_PRIMARY_ROAD","name_zh":"西直门北大街（现状，OSM）","source_type":"osm","confidence":"medium","geometry_role":"existing_condition"},"geometry":{"type":"LineString","coordinates":[[116.350146,39.947685],[116.350086,39.94806],[116.350026,39.948515],[116.349938,39.948867]]}},{"type":"Feature","id":"CON-087","properties":{"id":"CON-087","layer":"EXISTING_PRIMARY_ROAD","name_zh":"学院路（现状，OSM）","source_type":"osm","confidence":"medium","geometry_role":"existing_condition"},"geometry":{"type":"LineString","coordinates":[[116.347196,39.989533],[116.347136,39.990666],[116.347101,39.991801],[116.347102,39.991859],[116.347101,39.991944]]}},{"type":"Feature","id":"CON-088","properties":{"id":"CON-088","layer":"EXISTING_PRIMARY_ROAD","name_zh":"西直门北大街（现状，OSM）","source_type":"osm","confidence":"medium","geometry_role":"existing_condition"},"geometry":{"type":"LineString","coordinates":[[116.349991,39.947931],[116.350022,39.947512],[116.350036,39.94469]]}},{"type":"Feature","id":"CON-089","properties":{"id":"CON-089","layer":"EXISTING_PRIMARY_ROAD","name_zh":"北五环（现状，OSM）","source_type":"osm","confidence":"medium","geometry_role":"existing_condition"},"geometry":{"type":"LineString","coordinates":[[116.355037,40.021693],[116.354236,40.021704],[116.352832,40.02172],[116.350939,40.021763]]}},{"type":"Feature","id":"CON-090","properties":{"id":"CON-090","layer":"EXISTING_PRIMARY_ROAD","name_zh":"北三环（现状，OSM）","source_type":"osm","confidence":"medium","geometry_role":"existing_condition"},"geometry":{"type":"LineString","coordinates":[[116.353823,39.966399],[116.349095,39.966408]]}},{"type":"Feature","id":"CON-091","properties":{"id":"CON-091","layer":"EXISTING_PRIMARY_ROAD","name_zh":"西土城路（现状，OSM）","source_type":"osm","confidence":"medium","geometry_role":"existing_condition"},"geometry":{"type":"LineString","coordinates":[[116.347307,39.967118],[116.347343,39.965303]]}},{"type":"Feature","id":"CON-092","properties":{"id":"CON-092","layer":"EXISTING_PRIMARY_ROAD","name_zh":"西直门北大街（现状，OSM）","source_type":"osm","confidence":"medium","geometry_role":"existing_condition"},"geometry":{"type":"LineString","coordinates":[[116.348898,39.954304],[116.348916,39.953891]]}},{"type":"Feature","id":"CON-093","properties":{"id":"CON-093","layer":"EXISTING_PRIMARY_ROAD","name_zh":"G6辅路（现状，OSM）","source_type":"osm","confidence":"medium","geometry_role":"existing_condition"},"geometry":{"type":"LineString","coordinates":[[116.343565,40.0265],[116.344131,40.02574],[116.344214,40.025638]]}},{"type":"Feature","id":"CON-094","properties":{"id":"CON-094","layer":"EXISTING_PRIMARY_ROAD","name_zh":"北二环（现状，OSM）","source_type":"osm","confidence":"medium","geometry_role":"existing_condition"},"geometry":{"type":"LineString","coordinates":[[116.350382,39.942294],[116.350414,39.94232],[116.350446,39.942346],[116.35048,39.942371],[116.350516,39.942396],[116.350553,39.942421],[116.350591,39.942446],[116.350627,39.942468],[116.350664,39.94249],[116.350705,39.942514],[116.350747,39.942537],[116.350792,39.942561],[116.350837,39.942585],[116.350886,39.942608],[116.350939,39.942632],[116.350989,39.942653],[116.351043,39.942675],[116.351083,39.94269],[116.351123,39.942704],[116.351167,39.942718],[116.351211,39.942732],[116.351301,39.942758],[116.35139,39.942785],[116.351757,39.942889],[116.351883,39.942925],[116.352007,39.942961],[116.352125,39.942994],[116.352245,39.943027],[116.352364,39.943062],[116.352493,39.943098],[116.352728,39.943166]]}},{"type":"Feature","id":"CON-095","properties":{"id":"CON-095","layer":"EXISTING_PRIMARY_ROAD","name_zh":"北二环（现状，OSM）","source_type":"osm","confidence":"medium","geometry_role":"existing_condition"},"geometry":{"type":"LineString","coordinates":[[116.349745,39.9423],[116.349708,39.942272],[116.34967,39.942243],[116.349636,39.942214],[116.349602,39.942185],[116.349569,39.942154],[116.349536,39.942124],[116.349506,39.942094],[116.349475,39.942062],[116.349442,39.942025],[116.349411,39.941989],[116.349381,39.941952],[116.349353,39.941916],[116.349326,39.941877],[116.3493,39.941838],[116.349275,39.941797],[116.349255,39.941763],[116.349238,39.941729],[116.349221,39.941696],[116.349206,39.941667],[116.349193,39.941639],[116.349181,39.941609],[116.349169,39.941574],[116.349161,39.941544],[116.349152,39.941512]]}},{"type":"Feature","id":"CON-096","properties":{"id":"CON-096","layer":"EXISTING_PRIMARY_ROAD","name_zh":"北二环（现状，OSM）","source_type":"osm","confidence":"medium","geometry_role":"existing_condition"},"geometry":{"type":"LineString","coordinates":[[116.349833,39.941641],[116.349971,39.941834],[116.350004,39.94188],[116.350037,39.941925],[116.350055,39.941949],[116.350072,39.941972],[116.350089,39.941994],[116.350106,39.942016],[116.350136,39.942053],[116.350167,39.942089],[116.350201,39.942125],[116.350238,39.942162],[116.350272,39.942195],[116.350308,39.942228],[116.350344,39.942261],[116.350382,39.942294]]}},{"type":"Feature","id":"CON-097","properties":{"id":"CON-097","layer":"EXISTING_PRIMARY_ROAD","name_zh":"西直门北大街（现状，OSM）","source_type":"osm","confidence":"medium","geometry_role":"existing_condition"},"geometry":{"type":"LineString","coordinates":[[116.348916,39.953891],[116.348924,39.953719]]}},{"type":"Feature","id":"CON-098","properties":{"id":"CON-098","layer":"EXISTING_PRIMARY_ROAD","name_zh":"西直门北大街（现状，OSM）","source_type":"osm","confidence":"medium","geometry_role":"existing_condition"},"geometry":{"type":"LineString","coordinates":[[116.349046,39.953722],[116.349039,39.953893]]}},{"type":"Feature","id":"CON-099","properties":{"id":"CON-099","layer":"EXISTING_PRIMARY_ROAD","name_zh":"西直门北大街（现状，OSM）","source_type":"osm","confidence":"medium","geometry_role":"existing_condition"},"geometry":{"type":"LineString","coordinates":[[116.349039,39.953893],[116.349021,39.954293],[116.349016,39.954785]]}},{"type":"Feature","id":"CON-100","properties":{"id":"CON-100","layer":"EXISTING_PRIMARY_ROAD","name_zh":"西直门北大街（现状，OSM）","source_type":"osm","confidence":"medium","geometry_role":"existing_condition"},"geometry":{"type":"LineString","coordinates":[[116.348924,39.953719],[116.348952,39.953055],[116.349031,39.951834],[116.349086,39.951343],[116.349174,39.950935]]}},{"type":"Feature","id":"CON-101","properties":{"id":"CON-101","layer":"EXISTING_PRIMARY_ROAD","name_zh":"学院路（现状，OSM）","source_type":"osm","confidence":"medium","geometry_role":"existing_condition"},"geometry":{"type":"LineString","coordinates":[[116.347696,39.980753],[116.347649,39.981141],[116.347631,39.981366],[116.347612,39.981608],[116.347493,39.983123],[116.347495,39.983192],[116.347501,39.983361]]}},{"type":"Feature","id":"CON-102","properties":{"id":"CON-102","layer":"EXISTING_PRIMARY_ROAD","name_zh":"北三环（现状，OSM）","source_type":"osm","confidence":"medium","geometry_role":"existing_condition"},"geometry":{"type":"LineString","coordinates":[[116.342274,39.966226],[116.343142,39.966233],[116.34362,39.966236],[116.346777,39.96629]]}},{"type":"Feature","id":"CON-103","properties":{"id":"CON-103","layer":"EXISTING_PRIMARY_ROAD","name_zh":"学院路（现状，OSM）","source_type":"osm","confidence":"medium","geometry_role":"existing_condition"},"geometry":{"type":"LineString","coordinates":[[116.347197,39.985273],[116.347214,39.985115],[116.347261,39.983965]]}},{"type":"Feature","id":"CON-104","properties":{"id":"CON-104","layer":"EXISTING_PRIMARY_ROAD","name_zh":"学院路（现状，OSM）","source_type":"osm","confidence":"medium","geometry_role":"existing_condition"},"geometry":{"type":"LineString","coordinates":[[116.347372,39.985727],[116.347304,39.986969]]}},{"type":"Feature","id":"CON-105","properties":{"id":"CON-105","layer":"EXISTING_PRIMARY_ROAD","name_zh":"学院路（现状，OSM）","source_type":"osm","confidence":"medium","geometry_role":"existing_condition"},"geometry":{"type":"LineString","coordinates":[[116.347397,39.98528],[116.347372,39.985727]]}},{"type":"Feature","id":"CON-106","properties":{"id":"CON-106","layer":"EXISTING_PRIMARY_ROAD","name_zh":"学院路（现状，OSM）","source_type":"osm","confidence":"medium","geometry_role":"existing_condition"},"geometry":{"type":"LineString","coordinates":[[116.347172,39.985718],[116.347197,39.985273]]}},{"type":"Feature","id":"CON-107","properties":{"id":"CON-107","layer":"EXISTING_PRIMARY_ROAD","name_zh":"知春路（现状，OSM）","source_type":"osm","confidence":"medium","geometry_role":"existing_condition"},"geometry":{"type":"LineString","coordinates":[[116.339702,39.975038],[116.340219,39.975043],[116.342081,39.97506]]}},{"type":"Feature","id":"CON-108","properties":{"id":"CON-108","layer":"EXISTING_PRIMARY_ROAD","name_zh":"知春路（现状，OSM）","source_type":"osm","confidence":"medium","geometry_role":"existing_condition"},"geometry":{"type":"LineString","coordinates":[[116.342081,39.97506],[116.343963,39.97508],[116.347255,39.975116]]}},{"type":"Feature","id":"CON-109","properties":{"id":"CON-109","layer":"EXISTING_PRIMARY_ROAD","name_zh":"北四环中路（现状，OSM）","source_type":"osm","confidence":"medium","geometry_role":"existing_condition"},"geometry":{"type":"LineString","coordinates":[[116.352554,39.985599],[116.35365,39.985629]]}},{"type":"Feature","id":"CON-110","properties":{"id":"CON-110","layer":"EXISTING_PRIMARY_ROAD","name_zh":"G6辅路（现状，OSM）","source_type":"osm","confidence":"medium","geometry_role":"existing_condition"},"geometry":{"type":"LineString","coordinates":[[116.344781,40.022415],[116.344753,40.02216],[116.344755,40.021946],[116.34477,40.021721],[116.344837,40.021521],[116.344953,40.021332],[116.345175,40.021198],[116.345698,40.020989],[116.3459,40.020908]]}},{"type":"Feature","id":"CON-111","properties":{"id":"CON-111","layer":"EXISTING_PRIMARY_ROAD","name_zh":"学清路（现状，OSM）","source_type":"osm","confidence":"medium","geometry_role":"existing_condition"},"geometry":{"type":"LineString","coordinates":[[116.345827,40.013907],[116.345846,40.013791],[116.345853,40.013746],[116.345872,40.013439],[116.34588,40.013302],[116.345879,40.013261],[116.345902,40.013013],[116.345923,40.012634],[116.345932,40.012478],[116.34596,40.012302],[116.345996,40.012129],[116.346228,40.007348],[116.346173,40.007003],[116.346175,40.006613],[116.346168,40.006568],[116.346152,40.006456],[116.346134,40.006335]]}},{"type":"Feature","id":"CON-112","properties":{"id":"CON-112","layer":"EXISTING_PRIMARY_ROAD","name_zh":"西直门北大街（现状，OSM）","source_type":"osm","confidence":"medium","geometry_role":"existing_condition"},"geometry":{"type":"LineString","coordinates":[[116.349016,39.954785],[116.348862,39.958556]]}},{"type":"Feature","id":"CON-113","properties":{"id":"CON-113","layer":"EXISTING_PRIMARY_ROAD","name_zh":"北三环（现状，OSM）","source_type":"osm","confidence":"medium","geometry_role":"existing_condition"},"geometry":{"type":"LineString","coordinates":[[116.342276,39.966362],[116.339941,39.966339]]}},{"type":"Feature","id":"CON-114","properties":{"id":"CON-114","layer":"EXISTING_PRIMARY_ROAD","name_zh":"西二环（现状，OSM）","source_type":"osm","confidence":"medium","geometry_role":"existing_condition"},"geometry":{"type":"LineString","coordinates":[[116.349152,39.941512],[116.349143,39.941479],[116.349136,39.941451],[116.349131,39.941421],[116.349125,39.941375],[116.34912,39.941329],[116.349117,39.941281],[116.349115,39.941234],[116.349114,39.941138],[116.349114,39.941045],[116.349116,39.940951],[116.349123,39.940764],[116.349177,39.94034]]}},{"type":"Feature","id":"CON-115","properties":{"id":"CON-115","layer":"EXISTING_PRIMARY_ROAD","name_zh":"西直门外大街（现状，OSM）","source_type":"osm","confidence":"medium","geometry_role":"existing_condition"},"geometry":{"type":"LineString","coordinates":[[116.347677,39.939098],[116.347466,39.939079],[116.347228,39.939057],[116.346927,39.939026],[116.346701,39.939]]}},{"type":"Feature","id":"CON-116","properties":{"id":"CON-116","layer":"EXISTING_PRIMARY_ROAD","name_zh":"北三环（现状，OSM）","source_type":"osm","confidence":"medium","geometry_role":"existing_condition"},"geometry":{"type":"LineString","coordinates":[[116.355187,39.966412],[116.353823,39.966399]]}},{"type":"Feature","id":"CON-117","properties":{"id":"CON-117","layer":"EXISTING_PRIMARY_ROAD","name_zh":"北土城西路（现状，OSM）","source_type":"osm","confidence":"medium","geometry_role":"existing_condition"},"geometry":{"type":"LineString","coordinates":[[116.353479,39.975252],[116.350336,39.975227],[116.349321,39.97522],[116.348125,39.975219]]}},{"type":"Feature","id":"CON-118","properties":{"id":"CON-118","layer":"EXISTING_PRIMARY_ROAD","name_zh":"北土城西路（现状，OSM）","source_type":"osm","confidence":"medium","geometry_role":"existing_condition"},"geometry":{"type":"LineString","coordinates":[[116.354479,39.97526],[116.353479,39.975252]]}},{"type":"Feature","id":"CON-119","properties":{"id":"CON-119","layer":"EXISTING_PRIMARY_ROAD","name_zh":"G6辅路（现状，OSM）","source_type":"osm","confidence":"medium","geometry_role":"existing_condition"},"geometry":{"type":"LineString","coordinates":[[116.350552,40.021406],[116.350589,40.021531],[116.350618,40.02168],[116.350582,40.021897],[116.350535,40.022022],[116.350356,40.022305],[116.35026,40.022427],[116.350157,40.022535],[116.349992,40.02269],[116.349768,40.022849],[116.348952,40.023209],[116.347025,40.023847],[116.346302,40.024084],[116.346106,40.024185],[116.34593,40.02431],[116.345778,40.024442],[116.345687,40.024522],[116.345587,40.024649],[116.345536,40.024719],[116.345416,40.024883],[116.345328,40.025004],[116.345264,40.025091]]}},{"type":"Feature","id":"CON-120","properties":{"id":"CON-120","layer":"EXISTING_PRIMARY_ROAD","name_zh":"西直门北大街（现状，OSM）","source_type":"osm","confidence":"medium","geometry_role":"existing_condition"},"geometry":{"type":"LineString","coordinates":[[116.350036,39.94469],[116.350038,39.944662],[116.350039,39.94464],[116.35004,39.944617],[116.350043,39.944591],[116.350044,39.944568],[116.350046,39.944544],[116.350048,39.944519],[116.35005,39.944493],[116.350051,39.944475],[116.350052,39.944457],[116.350053,39.94444],[116.350054,39.944423],[116.350054,39.944415],[116.350054,39.944407],[116.350055,39.944399],[116.350055,39.944391],[116.350055,39.944372],[116.350055,39.944353],[116.350054,39.944323],[116.350054,39.944293],[116.350052,39.944262],[116.350051,39.944231],[116.35005,39.944212],[116.350049,39.944193],[116.350048,39.944175],[116.350046,39.944156],[116.350045,39.944137],[116.350043,39.944118],[116.350042,39.944099],[116.35004,39.94408],[116.350039,39.944064],[116.350037,39.944048],[116.350034,39.944015],[116.350031,39.943982],[116.350027,39.943949],[116.35002,39.943878],[116.350013,39.943807],[116.350007,39.94375],[116.350001,39.943693],[116.349999,39.943664],[116.349996,39.943636],[116.349994,39.943607],[116.349992,39.943577],[116.349989,39.943542],[116.349986,39.943506],[116.349982,39.94347],[116.349981,39.943452],[116.349979,39.943435],[116.349978,39.943422],[116.349977,39.943411],[116.349976,39.9434],[116.349975,39.943387],[116.349975,39.943376],[116.349974,39.943364],[116.349973,39.943352],[116.349973,39.94334]]}},{"type":"Feature","id":"CON-121","properties":{"id":"CON-121","layer":"EXISTING_PRIMARY_ROAD","name_zh":"北四环中路（现状，OSM）","source_type":"osm","confidence":"medium","geometry_role":"existing_condition"},"geometry":{"type":"LineString","coordinates":[[116.352557,39.985762],[116.350842,39.985701]]}},{"type":"Feature","id":"CON-122","properties":{"id":"CON-122","layer":"EXISTING_PRIMARY_ROAD","name_zh":"学院路（现状，OSM）","source_type":"osm","confidence":"medium","geometry_role":"existing_condition"},"geometry":{"type":"LineString","coordinates":[[116.347267,39.983793],[116.347301,39.98357],[116.347335,39.983144],[116.347471,39.98148],[116.347483,39.981331],[116.347566,39.980302],[116.347637,39.979027],[116.347646,39.978731],[116.347727,39.97794]]}},{"type":"Feature","id":"CON-123","properties":{"id":"CON-123","layer":"EXISTING_PRIMARY_ROAD","name_zh":"G6辅路（现状，OSM）","source_type":"osm","confidence":"medium","geometry_role":"existing_condition"},"geometry":{"type":"LineString","coordinates":[[116.354563,40.013055],[116.354425,40.013211],[116.354366,40.013282],[116.354182,40.013503],[116.353788,40.014043],[116.353748,40.014103],[116.353371,40.014593],[116.353012,40.015105],[116.352252,40.016071]]}},{"type":"Feature","id":"CON-124","properties":{"id":"CON-124","layer":"EXISTING_PRIMARY_ROAD","name_zh":"学清路（现状，OSM）","source_type":"osm","confidence":"medium","geometry_role":"existing_condition"},"geometry":{"type":"LineString","coordinates":[[116.344891,40.021233],[116.345445,40.020855],[116.34549,40.020766],[116.345504,40.020691],[116.345585,40.018844],[116.345613,40.018223],[116.345874,40.017566],[116.345897,40.017176],[116.345984,40.01547],[116.345912,40.015138],[116.345843,40.01464],[116.345869,40.014113],[116.345863,40.014092],[116.345836,40.013998],[116.345827,40.013907]]}},{"type":"Feature","id":"CON-125","properties":{"id":"CON-125","layer":"EXISTING_PRIMARY_ROAD","name_zh":"学清路（现状，OSM）","source_type":"osm","confidence":"medium","geometry_role":"existing_condition"},"geometry":{"type":"LineString","coordinates":[[116.346062,40.014008],[116.34606,40.014092],[116.346043,40.014737],[116.346049,40.014885],[116.346071,40.015447],[116.346048,40.015784],[116.346026,40.017181],[116.346026,40.017407],[116.345919,40.01785],[116.345719,40.018223],[116.345718,40.018482],[116.345672,40.019031],[116.345644,40.020614],[116.345687,40.020699],[116.34573,40.020783],[116.3459,40.020908]]}},{"type":"Feature","id":"CON-126","properties":{"id":"CON-126","layer":"EXISTING_PRIMARY_ROAD","name_zh":"学院路（现状，OSM）","source_type":"osm","confidence":"medium","geometry_role":"existing_condition"},"geometry":{"type":"LineString","coordinates":[[116.347069,39.988107],[116.347129,39.986963]]}},{"type":"Feature","id":"CON-127","properties":{"id":"CON-127","layer":"EXISTING_PRIMARY_ROAD","name_zh":"北三环（现状，OSM）","source_type":"osm","confidence":"medium","geometry_role":"existing_condition"},"geometry":{"type":"LineString","coordinates":[[116.339944,39.966209],[116.342274,39.966226]]}},{"type":"Feature","id":"CON-128","properties":{"id":"CON-128","layer":"EXISTING_PRIMARY_ROAD","name_zh":"西土城路（现状，OSM）","source_type":"osm","confidence":"medium","geometry_role":"existing_condition"},"geometry":{"type":"LineString","coordinates":[[116.348432,39.967516],[116.348384,39.968401],[116.348148,39.972807],[116.348069,39.973751]]}},{"type":"Feature","id":"CON-129","properties":{"id":"CON-129","layer":"EXISTING_PRIMARY_ROAD","name_zh":"北三环（现状，OSM）","source_type":"osm","confidence":"medium","geometry_role":"existing_condition"},"geometry":{"type":"LineString","coordinates":[[116.349102,39.966291],[116.353204,39.966272]]}},{"type":"Feature","id":"CON-130","properties":{"id":"CON-130","layer":"EXISTING_PRIMARY_ROAD","name_zh":"学院路（现状，OSM）","source_type":"osm","confidence":"medium","geometry_role":"existing_condition"},"geometry":{"type":"LineString","coordinates":[[116.347501,39.983361],[116.347483,39.983481],[116.347453,39.983968]]}},{"type":"Feature","id":"CON-131","properties":{"id":"CON-131","layer":"EXISTING_PRIMARY_ROAD","name_zh":"G6辅路（现状，OSM）","source_type":"osm","confidence":"medium","geometry_role":"existing_condition"},"geometry":{"type":"LineString","coordinates":[[116.344762,40.02575],[116.344685,40.025959],[116.344256,40.0265]]}},{"type":"Feature","id":"CON-132","properties":{"id":"CON-132","layer":"EXISTING_PRIMARY_ROAD","name_zh":"学清路（现状，OSM）","source_type":"osm","confidence":"medium","geometry_role":"existing_condition"},"geometry":{"type":"LineString","coordinates":[[116.346395,40.006468],[116.34637,40.006571],[116.346357,40.006625],[116.346334,40.00706],[116.346291,40.008076]]}},{"type":"Feature","id":"CON-133","properties":{"id":"CON-133","layer":"EXISTING_PRIMARY_ROAD","name_zh":"学清路（现状，OSM）","source_type":"osm","confidence":"medium","geometry_role":"existing_condition"},"geometry":{"type":"LineString","coordinates":[[116.346657,39.999698],[116.346658,39.999786],[116.346659,39.999889],[116.34666,39.999931],[116.346617,40.00067],[116.346578,40.001055],[116.346484,40.002821],[116.346478,40.002946],[116.346459,40.003293],[116.346368,40.004957],[116.346399,40.005724],[116.346383,40.006172],[116.346383,40.006201],[116.346384,40.006352]]}},{"type":"Feature","id":"CON-134","properties":{"id":"CON-134","layer":"EXISTING_PRIMARY_ROAD","name_zh":"石板房南路（现状，OSM）","source_type":"osm","confidence":"medium","geometry_role":"existing_condition"},"geometry":{"type":"LineString","coordinates":[[116.346384,40.006352],[116.346509,40.006366]]}},{"type":"Feature","id":"CON-135","properties":{"id":"CON-135","layer":"EXISTING_PRIMARY_ROAD","name_zh":"北二环（现状，OSM）","source_type":"osm","confidence":"medium","geometry_role":"existing_condition"},"geometry":{"type":"LineString","coordinates":[[116.352735,39.943314],[116.351698,39.943031],[116.35072,39.942754],[116.350596,39.942717],[116.350493,39.942685],[116.350461,39.942674]]}},{"type":"Feature","id":"CON-136","properties":{"id":"CON-136","layer":"EXISTING_PRIMARY_ROAD","name_zh":"学院路（现状，OSM）","source_type":"osm","confidence":"medium","geometry_role":"existing_condition"},"geometry":{"type":"LineString","coordinates":[[116.347101,39.991944],[116.347097,39.992038]]}},{"type":"Feature","id":"CON-137","properties":{"id":"CON-137","layer":"EXISTING_PRIMARY_ROAD","name_zh":"学清路（现状，OSM）","source_type":"osm","confidence":"medium","geometry_role":"existing_condition"},"geometry":{"type":"LineString","coordinates":[[116.346384,40.006352],[116.346395,40.006468]]}},{"type":"Feature","id":"CON-138","properties":{"id":"CON-138","layer":"EXISTING_PRIMARY_ROAD","name_zh":"北三环（现状，OSM）","source_type":"osm","confidence":"medium","geometry_role":"existing_condition"},"geometry":{"type":"LineString","coordinates":[[116.353204,39.966272],[116.355198,39.966281]]}},{"type":"Feature","id":"CON-139","properties":{"id":"CON-139","layer":"EXISTING_PRIMARY_ROAD","name_zh":"学院路（现状，OSM）","source_type":"osm","confidence":"medium","geometry_role":"existing_condition"},"geometry":{"type":"LineString","coordinates":[[116.347277,39.987752],[116.347203,39.989362],[116.347196,39.989533]]}},{"type":"Feature","id":"CON-140","properties":{"id":"CON-140","layer":"EXISTING_PRIMARY_ROAD","name_zh":"学清路（现状，OSM）","source_type":"osm","confidence":"medium","geometry_role":"existing_condition"},"geometry":{"type":"LineString","coordinates":[[116.346222,40.003555],[116.346256,40.0029],[116.346268,40.002689],[116.346355,40.001024],[116.34637,40.000751],[116.346419,39.999909],[116.34642,39.999885],[116.34642,39.999786],[116.346421,39.999693]]}},{"type":"Feature","id":"CON-141","properties":{"id":"CON-141","layer":"EXISTING_PRIMARY_ROAD","name_zh":"学清路（现状，OSM）","source_type":"osm","confidence":"medium","geometry_role":"existing_condition"},"geometry":{"type":"LineString","coordinates":[[116.346134,40.006335],[116.346113,40.006196],[116.346101,40.006116],[116.346222,40.003555]]}},{"type":"Feature","id":"CON-142","properties":{"id":"CON-142","layer":"EXISTING_PRIMARY_ROAD","name_zh":"学院路（现状，OSM）","source_type":"osm","confidence":"medium","geometry_role":"existing_condition"},"geometry":{"type":"LineString","coordinates":[[116.346898,39.992031],[116.346904,39.99194]]}},{"type":"Feature","id":"CON-143","properties":{"id":"CON-143","layer":"EXISTING_PRIMARY_ROAD","name_zh":"G6辅路（现状，OSM）","source_type":"osm","confidence":"medium","geometry_role":"existing_condition"},"geometry":{"type":"LineString","coordinates":[[116.352252,40.016071],[116.352019,40.016365],[116.351951,40.01645],[116.351438,40.017098],[116.350885,40.017796],[116.35083,40.017865],[116.350584,40.018148],[116.35004,40.018926],[116.349892,40.019215],[116.349824,40.019462],[116.349796,40.019642],[116.349811,40.019839],[116.349876,40.020068],[116.350001,40.020268],[116.350121,40.020444]]}},{"type":"Feature","id":"CON-144","properties":{"id":"CON-144","layer":"EXISTING_PRIMARY_ROAD","name_zh":"科荟桥（现状，OSM）","source_type":"osm","confidence":"medium","geometry_role":"existing_condition"},"geometry":{"type":"LineString","coordinates":[[116.354244,40.007224],[116.354133,40.007202]]}},{"type":"Feature","id":"CON-145","properties":{"id":"CON-145","layer":"EXISTING_WATER","name_zh":"清河/小月河等现状水系（OSM）","source_type":"osm","confidence":"medium","geometry_role":"existing_condition"},"geometry":{"type":"MultiLineString","coordinates":[[[116.354124,40.005041],[116.353386,40.005803],[116.353017,40.006368],[116.35289,40.006638],[116.351558,40.009458],[116.350184,40.012093],[116.349512,40.013041],[116.348162,40.015362],[116.346746,40.017212],[116.346025,40.018233]],[[116.344262,40.024623],[116.344143,40.02506]],[[116.345144,40.019663],[116.344546,40.020679],[116.344143,40.021307],[116.344003,40.021494],[116.343792,40.021982],[116.343775,40.022087],[116.343774,40.022198],[116.343812,40.022374],[116.343866,40.022478],[116.343996,40.022681],[116.344132,40.022917],[116.344175,40.023059],[116.344305,40.024193],[116.344295,40.024386],[116.344262,40.024623]],[[116.347854,39.958334],[116.347734,39.960244],[116.347726,39.961142],[116.347578,39.963381],[116.34753,39.964295],[116.347639,39.964823],[116.347603,39.965446],[116.34758,39.965574],[116.347532,39.965909],[116.347497,39.966742],[116.347523,39.967088],[116.347303,39.968702],[116.347261,39.96991],[116.347216,39.97074],[116.347151,39.972003],[116.34713,39.972598],[116.3471,39.973245],[116.347057,39.973714],[116.347058,39.973841],[116.347076,39.974117],[116.347128,39.974286],[116.347207,39.974361],[116.347283,39.974414],[116.347523,39.974517],[116.347909,39.97457],[116.348468,39.974555],[116.349187,39.974509],[116.349887,39.974515],[116.351249,39.974528],[116.354535,39.974568]],[[116.3553,39.944541],[116.348874,39.942167],[116.348467,39.941307],[116.348572,39.940333],[116.348077,39.939896],[116.348068,39.939808],[116.348074,39.939728],[116.348159,39.939]],[[116.342629,40.025048],[116.344049,40.025271]],[[116.344049,40.025271],[116.348761,40.026004],[116.352217,40.0265]],[[116.344143,40.02506],[116.344049,40.025271]],[[116.34061,39.942246],[116.341026,39.942223],[116.341349,39.942141],[116.342351,39.94197],[116.343635,39.941638],[116.34405,39.941602],[116.344252,39.94164],[116.344514,39.941694],[116.34515,39.941866],[116.345408,39.942084],[116.345702,39.942519],[116.345743,39.942613],[116.345767,39.942744],[116.345755,39.942845],[116.345727,39.94295],[116.345671,39.943087],[116.345574,39.943303],[116.345211,39.944234],[116.345076,39.944574],[116.344968,39.944916],[116.344838,39.945364],[116.344806,39.94555],[116.344797,39.945698],[116.344797,39.945805],[116.344809,39.945931],[116.344914,39.946706],[116.345014,39.947345],[116.345282,39.949047],[116.345317,39.949125],[116.345377,39.949215],[116.345554,39.949315],[116.345622,39.949335],[116.346147,39.94949],[116.34765,39.949921],[116.348898,39.950225],[116.349438,39.950219],[116.349978,39.950066],[116.350259,39.94983],[116.350608,39.948887],[116.350811,39.948122],[116.350691,39.947625],[116.350578,39.947227],[116.350554,39.946818],[116.350606,39.94663],[116.350823,39.946509],[116.350949,39.946476],[116.351349,39.946393],[116.353645,39.946266],[116.353904,39.946306],[116.3553,39.94694]]]}},{"type":"Feature","id":"CON-146","properties":{"id":"CON-146","layer":"EXISTING_RAIL","name_zh":"京张铁路遗址走廊（推导参考轴线）","source_type":"agent_inferred_from_public_data","confidence":"medium","geometry_role":"existing_condition"},"geometry":{"type":"LineString","coordinates":[[116.343,39.942],[116.3419,39.9568],[116.3391,39.9662],[116.3341,39.975],[116.3324,39.9849],[116.3318,39.9915],[116.3315,39.9992],[116.334,40.012]]}}]}