{"type":"FeatureCollection","name":"green_space","features":[{"type":"Feature","id":"GREEN-001","properties":{"id":"GREEN-001","layer":"GREEN_SPACE","land_use_code":"1401","name_zh":"京张遗址公园活力带绿地（概念）","source_type":"agent_generated_design","confidence":"medium","geometry_role":"design_proposal","area_sqm_declared":288927.5},"geometry":{"type":"Polygon","coordinates":[[[116.340106,39.960406],[116.339957,39.965741],[116.342584,39.956921],[116.342595,39.956876],[116.342601,39.956831],[116.343701,39.942031],[116.343701,39.941978],[116.343695,39.941925],[116.343682,39.941873],[116.343663,39.941822],[116.343637,39.941773],[116.343605,39.941726],[116.343567,39.941682],[116.343524,39.94164],[116.343476,39.941603],[116.343423,39.941569],[116.343366,39.941539],[116.343305,39.941513],[116.343242,39.941493],[116.343176,39.941477],[116.343109,39.941466],[116.34304,39.941461],[116.342971,39.94146],[116.342903,39.941465],[116.342835,39.941475],[116.342769,39.94149],[116.342705,39.94151],[116.342644,39.941534],[116.342586,39.941563],[116.342533,39.941597],[116.342484,39.941634],[116.34244,39.941675],[116.342401,39.941718],[116.342368,39.941765],[116.342341,39.941814],[116.34232,39.941864],[116.342306,39.941916],[116.342299,39.941969],[116.341202,39.956724],[116.340106,39.960406]]]}},{"type":"Feature","id":"GREEN-006","properties":{"id":"GREEN-006","layer":"GREEN_SPACE","land_use_code":"1401","name_zh":"滨水绿带（概念）","source_type":"agent_inferred_from_public_data","confidence":"medium","geometry_role":"design_proposal","area_sqm_declared":98939.7},"geometry":{"type":"Polygon","coordinates":[[[116.353104,40.005641],[116.353087,40.005661],[116.353072,40.005681],[116.352703,40.006247],[116.352687,40.006276],[116.35256,40.006545],[116.35123,40.009362],[116.349866,40.011977],[116.349204,40.012912],[116.349192,40.012931],[116.347849,40.015238],[116.346443,40.017075],[116.346437,40.017084],[116.345716,40.018104],[116.345701,40.018128],[116.345689,40.018152],[116.345681,40.018178],[116.345675,40.018204],[116.345673,40.018231],[116.345675,40.018257],[116.34568,40.018284],[116.345688,40.018309],[116.345699,40.018334],[116.345714,40.018358],[116.345731,40.018381],[116.345752,40.018403],[116.345775,40.018422],[116.3458,40.01844],[116.345827,40.018456],[116.345857,40.01847],[116.345888,40.018482],[116.34592,40.018491],[116.345954,40.018497],[116.345988,40.018501],[116.346022,40.018503],[116.346057,40.018502],[116.346091,40.018498],[116.346124,40.018492],[116.346157,40.018483],[116.346188,40.018472],[116.346218,40.018458],[116.346246,40.018443],[116.346271,40.018425],[116.346295,40.018406],[116.346316,40.018384],[116.346333,40.018362],[116.347052,40.017346],[116.348465,40.015499],[116.348483,40.015473],[116.349828,40.013161],[116.350493,40.012222],[116.350511,40.012193],[116.351884,40.009559],[116.351888,40.00955],[116.35322,40.00673],[116.35334,40.006475],[116.353686,40.005945],[116.354147,40.005469],[116.354101,40.004613],[116.353104,40.005641]]]}},{"type":"Feature","id":"GREEN-009","properties":{"id":"GREEN-009","layer":"GREEN_SPACE","land_use_code":"1401","name_zh":"滨水绿带（概念）","source_type":"agent_inferred_from_public_data","confidence":"medium","geometry_role":"design_proposal","area_sqm_declared":5802.0},"geometry":{"type":"Polygon","coordinates":[[[116.343794,40.025031],[116.343792,40.025058],[116.343793,40.025084],[116.343798,40.025111],[116.343806,40.025136],[116.343817,40.025161],[116.343832,40.025185],[116.343849,40.025208],[116.34387,40.02523],[116.343893,40.02525],[116.343918,40.025268],[116.343945,40.025284],[116.343975,40.025297],[116.344006,40.025309],[116.344038,40.025318],[116.344071,40.025325],[116.344106,40.025329],[116.34414,40.025331],[116.344174,40.02533],[116.344209,40.025326],[116.344242,40.02532],[116.344275,40.025311],[116.344306,40.0253],[116.344336,40.025286],[116.344364,40.025271],[116.344389,40.025253],[116.344413,40.025234],[116.344434,40.025213],[116.344452,40.02519],[116.344467,40.025166],[116.344479,40.025141],[116.344487,40.025116],[116.344606,40.024678],[116.344612,40.024652],[116.344614,40.024625],[116.344612,40.024599],[116.344608,40.024573],[116.3446,40.024547],[116.344588,40.024522],[116.344574,40.024498],[116.344556,40.024475],[116.344536,40.024453],[116.344513,40.024434],[116.344488,40.024416],[116.34446,40.0244],[116.344431,40.024386],[116.3444,40.024374],[116.344368,40.024365],[116.344334,40.024358],[116.3443,40.024354],[116.344266,40.024353],[116.344231,40.024354],[116.344197,40.024357],[116.344164,40.024363],[116.344131,40.024372],[116.3441,40.024383],[116.34407,40.024397],[116.344042,40.024412],[116.344016,40.02443],[116.343993,40.024449],[116.343972,40.02447],[116.343954,40.024493],[116.343939,40.024517],[116.343927,40.024542],[116.343918,40.024567],[116.343799,40.025005],[116.343794,40.025031]]]}},{"type":"Feature","id":"GREEN-010","properties":{"id":"GREEN-010","layer":"GREEN_SPACE","land_use_code":"1401","name_zh":"滨水绿带（概念）","source_type":"agent_inferred_from_public_data","confidence":"medium","geometry_role":"design_proposal","area_sqm_declared":37816.6},"geometry":{"type":"Polygon","coordinates":[[[116.343832,40.02118],[116.343698,40.021359],[116.343682,40.021384],[116.343669,40.021409],[116.343459,40.021897],[116.343449,40.021922],[116.343443,40.021949],[116.343426,40.022053],[116.343424,40.022085],[116.343423,40.022197],[116.343424,40.02222],[116.343428,40.022243],[116.343466,40.022419],[116.343474,40.022447],[116.343486,40.022474],[116.34354,40.022578],[116.343551,40.022598],[116.343678,40.022796],[116.343798,40.023003],[116.343827,40.023101],[116.343953,40.0242],[116.343945,40.024367],[116.343913,40.024594],[116.343911,40.02462],[116.343912,40.024647],[116.343917,40.024673],[116.343925,40.024699],[116.343937,40.024724],[116.343951,40.024748],[116.343969,40.024771],[116.343989,40.024792],[116.344012,40.024812],[116.344037,40.02483],[116.344065,40.024846],[116.344094,40.02486],[116.344125,40.024871],[116.344157,40.024881],[116.344191,40.024887],[116.344225,40.024891],[116.344259,40.024893],[116.344294,40.024892],[116.344328,40.024888],[116.344362,40.024882],[116.344394,40.024873],[116.344425,40.024862],[116.344455,40.024849],[116.344483,40.024833],[116.344509,40.024815],[116.344532,40.024796],[116.344553,40.024775],[116.344571,40.024752],[116.344586,40.024728],[116.344598,40.024703],[116.344606,40.024678],[116.344612,40.024652],[116.344645,40.024415],[116.344647,40.024396],[116.344656,40.024203],[116.344655,40.024169],[116.344525,40.023035],[116.344517,40.022997],[116.344475,40.022856],[116.344466,40.022831],[116.344454,40.022807],[116.344318,40.022572],[116.344312,40.022562],[116.344188,40.022368],[116.344153,40.022301],[116.344126,40.022176],[116.344126,40.022104],[116.344137,40.022042],[116.344325,40.021605],[116.344447,40.021442],[116.344458,40.021427],[116.344861,40.020798],[116.344866,40.02079],[116.345464,40.019774],[116.345477,40.019749],[116.345486,40.019724],[116.345493,40.019698],[116.345495,40.019671],[116.345495,40.019645],[116.345491,40.019618],[116.345483,40.019592],[116.345473,40.019567],[116.345459,40.019543],[116.345442,40.01952],[116.345423,40.019498],[116.3454,40.019478],[116.345376,40.019459],[116.345349,40.019443],[116.34532,40.019428],[116.345289,40.019416],[116.345257,40.019407],[116.345224,40.019399],[116.34519,40.019395],[116.345155,40.019392],[116.345121,40.019393],[116.345087,40.019396],[116.345053,40.019402],[116.34502,40.01941],[116.344989,40.01942],[116.344958,40.019433],[116.34493,40.019448],[116.344904,40.019465],[116.34488,40.019484],[116.344858,40.019505],[116.34484,40.019527],[116.344824,40.019551],[116.344228,40.020564],[116.343832,40.02118]]]}},{"type":"Feature","id":"GREEN-013","properties":{"id":"GREEN-013","layer":"GREEN_SPACE","land_use_code":"1401","name_zh":"滨水绿带（概念）","source_type":"agent_inferred_from_public_data","confidence":"medium","geometry_role":"design_proposal","area_sqm_declared":146479.8},"geometry":{"type":"Polygon","coordinates":[[[116.347383,39.960242],[116.347375,39.961134],[116.347227,39.963367],[116.347227,39.96337],[116.347179,39.964284],[116.347179,39.964311],[116.347183,39.964338],[116.347287,39.964838],[116.347253,39.965421],[116.347232,39.965537],[116.347231,39.965544],[116.347183,39.965879],[116.347181,39.9659],[116.347146,39.966733],[116.347147,39.966757],[116.34717,39.967081],[116.346954,39.968674],[116.346952,39.968695],[116.34691,39.969901],[116.346865,39.970729],[116.346865,39.97073],[116.346801,39.971993],[116.3468,39.971996],[116.346779,39.97259],[116.34675,39.973231],[116.346707,39.973694],[116.346706,39.973716],[116.346707,39.973844],[116.346708,39.973854],[116.346725,39.97413],[116.346728,39.974156],[116.346734,39.974181],[116.346787,39.974349],[116.346796,39.974372],[116.346807,39.974395],[116.346821,39.974416],[116.346837,39.974436],[116.346855,39.974456],[116.346933,39.97453],[116.346951,39.974546],[116.34697,39.974561],[116.347046,39.974614],[116.347078,39.974634],[116.347112,39.97465],[116.347352,39.974753],[116.347387,39.974766],[116.347424,39.974776],[116.347462,39.974783],[116.347848,39.974836],[116.347885,39.974839],[116.347921,39.97484],[116.34848,39.974825],[116.348497,39.974824],[116.349199,39.97478],[116.349883,39.974785],[116.351244,39.974798],[116.354513,39.974838],[116.354556,39.974298],[116.351254,39.974258],[116.351253,39.974258],[116.349891,39.974245],[116.34989,39.974245],[116.34919,39.974239],[116.349158,39.97424],[116.348447,39.974285],[116.347934,39.974299],[116.347643,39.974259],[116.347489,39.974193],[116.347463,39.974175],[116.347451,39.974164],[116.347425,39.974079],[116.347409,39.973833],[116.347408,39.973722],[116.347451,39.973265],[116.347451,39.973255],[116.347481,39.972608],[116.347481,39.972606],[116.347502,39.972013],[116.347567,39.970751],[116.347611,39.969921],[116.347612,39.969917],[116.347653,39.96872],[116.347872,39.967116],[116.347874,39.967094],[116.347873,39.967073],[116.347849,39.966738],[116.347882,39.965928],[116.347928,39.965607],[116.347951,39.965483],[116.347954,39.965458],[116.34799,39.964835],[116.34799,39.964808],[116.347986,39.96478],[116.347882,39.964279],[116.347929,39.963393],[116.348077,39.961156],[116.348077,39.961144],[116.348085,39.960251],[116.348205,39.958347],[116.348205,39.958321],[116.348201,39.958294],[116.348194,39.958268],[116.348184,39.958243],[116.348171,39.958219],[116.348155,39.958195],[116.348136,39.958173],[116.348114,39.958153],[116.34809,39.958134],[116.348063,39.958117],[116.348034,39.958102],[116.348004,39.95809],[116.347972,39.95808],[116.347939,39.958072],[116.347905,39.958067],[116.347871,39.958064],[116.347836,39.958064],[116.347802,39.958067],[116.347768,39.958072],[116.347735,39.95808],[116.347704,39.95809],[116.347673,39.958103],[116.347645,39.958117],[116.347618,39.958134],[116.347594,39.958153],[116.347572,39.958174],[116.347553,39.958196],[116.347537,39.958219],[116.347523,39.958243],[116.347513,39.958269],[116.347507,39.958295],[116.347503,39.958321],[116.347383,39.960231],[116.347383,39.960242]]]}},{"type":"Feature","id":"GREEN-016","properties":{"id":"GREEN-016","layer":"GREEN_SPACE","land_use_code":"1401","name_zh":"滨水绿带（概念）","source_type":"agent_inferred_from_public_data","confidence":"medium","geometry_role":"design_proposal","area_sqm_declared":58959.3},"geometry":{"type":"Polygon","coordinates":[[[116.348424,39.939748],[116.348511,39.939],[116.347806,39.939],[116.347724,39.939704],[116.347723,39.939713],[116.347717,39.939792],[116.347718,39.939829],[116.347727,39.939918],[116.347731,39.939942],[116.347738,39.939966],[116.347747,39.93999],[116.34776,39.940013],[116.347775,39.940034],[116.347793,39.940055],[116.347813,39.940074],[116.34821,39.940424],[116.348117,39.941284],[116.348116,39.941314],[116.348119,39.941343],[116.348126,39.941371],[116.348137,39.941399],[116.348544,39.942259],[116.348557,39.942283],[116.348573,39.942306],[116.348592,39.942328],[116.348614,39.942348],[116.348638,39.942367],[116.348664,39.942383],[116.348692,39.942398],[116.348722,39.94241],[116.3553,39.94484],[116.3553,39.944241],[116.349155,39.941971],[116.348823,39.94127],[116.348922,39.940355],[116.348923,39.940328],[116.34892,39.940301],[116.348915,39.940274],[116.348905,39.940248],[116.348893,39.940223],[116.348877,39.940199],[116.348858,39.940176],[116.348836,39.940155],[116.348421,39.939789],[116.348424,39.939748]]]}},{"type":"Feature","id":"GREEN-020","properties":{"id":"GREEN-020","layer":"GREEN_SPACE","land_use_code":"1401","name_zh":"滨水绿带（概念）","source_type":"agent_inferred_from_public_data","confidence":"medium","geometry_role":"design_proposal","area_sqm_declared":1299.1},"geometry":{"type":"Polygon","coordinates":[[[116.340634,39.942515],[116.340668,39.94251],[116.340701,39.942503],[116.340733,39.942493],[116.340764,39.942481],[116.340793,39.942467],[116.34082,39.94245],[116.340845,39.942432],[116.340867,39.942411],[116.340886,39.94239],[116.340903,39.942366],[116.340917,39.942342],[116.340927,39.942317],[116.340934,39.942291],[116.340938,39.942265],[116.340939,39.942238],[116.340936,39.942212],[116.34093,39.942185],[116.34092,39.94216],[116.340907,39.942135],[116.340892,39.942112],[116.340873,39.94209],[116.340851,39.942069],[116.340827,39.94205],[116.340801,39.942033],[116.340773,39.942018],[116.340743,39.942005],[116.340711,39.941994],[116.340678,39.941986],[116.340644,39.941981],[116.340617,39.941978],[116.340602,39.942517],[116.340634,39.942515]]]}},{"type":"Feature","id":"GREEN-021","properties":{"id":"GREEN-021","layer":"GREEN_SPACE","land_use_code":"1401","name_zh":"滨水绿带（概念）","source_type":"agent_inferred_from_public_data","confidence":"medium","geometry_role":"design_proposal","area_sqm_declared":8832.8},"geometry":{"type":"Polygon","coordinates":[[[116.343978,40.025536],[116.344012,40.02554],[116.344047,40.025541],[116.344081,40.02554],[116.344115,40.025537],[116.344149,40.02553],[116.344181,40.025521],[116.344212,40.02551],[116.344242,40.025497],[116.34427,40.025481],[116.344296,40.025463],[116.344319,40.025444],[116.34434,40.025423],[116.344358,40.0254],[116.344373,40.025376],[116.344384,40.025351],[116.344393,40.025326],[116.344398,40.025299],[116.3444,40.025273],[116.344399,40.025246],[116.344394,40.02522],[116.344385,40.025194],[116.344374,40.025169],[116.344359,40.025145],[116.344342,40.025122],[116.344322,40.025101],[116.344299,40.025081],[116.344273,40.025063],[116.344246,40.025048],[116.344216,40.025034],[116.344185,40.025022],[116.344153,40.025013],[116.344119,40.025007],[116.342616,40.02477],[116.342643,40.025326],[116.343978,40.025536]]]}},{"type":"Feature","id":"GREEN-022","properties":{"id":"GREEN-022","layer":"GREEN_SPACE","land_use_code":"1401","name_zh":"滨水绿带（概念）","source_type":"agent_inferred_from_public_data","confidence":"medium","geometry_role":"design_proposal","area_sqm_declared":45079.4},"geometry":{"type":"Polygon","coordinates":[[[116.348697,40.026269],[116.350303,40.0265],[116.3553,40.0265],[116.3553,40.026496],[116.352879,40.02632],[116.348829,40.025739],[116.344118,40.025006],[116.344084,40.025003],[116.34405,40.025001],[116.344015,40.025002],[116.343981,40.025006],[116.343948,40.025013],[116.343915,40.025021],[116.343884,40.025033],[116.343854,40.025046],[116.343827,40.025062],[116.343801,40.02508],[116.343778,40.025099],[116.343757,40.02512],[116.343739,40.025143],[116.343724,40.025167],[116.343713,40.025192],[116.343704,40.025218],[116.343699,40.025244],[116.343697,40.02527],[116.343699,40.025297],[116.343704,40.025323],[116.343712,40.025349],[116.343723,40.025374],[116.343738,40.025398],[116.343756,40.025421],[116.343776,40.025442],[116.343799,40.025462],[116.343825,40.02548],[116.343852,40.025495],[116.343882,40.025509],[116.343913,40.025521],[116.343946,40.02553],[116.343979,40.025536],[116.348692,40.026269],[116.348697,40.026269]]]}},{"type":"Feature","id":"GREEN-023","properties":{"id":"GREEN-023","layer":"GREEN_SPACE","land_use_code":"1401","name_zh":"滨水绿带（概念）","source_type":"agent_inferred_from_public_data","confidence":"medium","geometry_role":"design_proposal","area_sqm_declared":4309.5},"geometry":{"type":"Polygon","coordinates":[[[116.343707,40.025209],[116.3437,40.025235],[116.343697,40.025261],[116.343698,40.025287],[116.343702,40.025314],[116.343709,40.02534],[116.343719,40.025365],[116.343733,40.025389],[116.343749,40.025413],[116.343769,40.025435],[116.343791,40.025455],[116.343815,40.025473],[116.343842,40.02549],[116.343871,40.025505],[116.343902,40.025517],[116.343934,40.025527],[116.343967,40.025534],[116.344001,40.025539],[116.344035,40.025541],[116.34407,40.025541],[116.344104,40.025538],[116.344138,40.025533],[116.344171,40.025525],[116.344202,40.025514],[116.344233,40.025502],[116.344261,40.025487],[116.344287,40.025469],[116.344312,40.025451],[116.344333,40.02543],[116.344352,40.025408],[116.344368,40.025384],[116.344381,40.02536],[116.344476,40.025149],[116.344485,40.025123],[116.344492,40.025097],[116.344495,40.025071],[116.344494,40.025044],[116.34449,40.025018],[116.344483,40.024992],[116.344473,40.024967],[116.344459,40.024942],[116.344443,40.024919],[116.344423,40.024897],[116.344401,40.024877],[116.344377,40.024858],[116.34435,40.024842],[116.344321,40.024827],[116.34429,40.024815],[116.344258,40.024805],[116.344225,40.024798],[116.344191,40.024793],[116.344157,40.02479],[116.344122,40.024791],[116.344088,40.024794],[116.344054,40.024799],[116.344021,40.024807],[116.34399,40.024817],[116.343959,40.02483],[116.343931,40.024845],[116.343905,40.024862],[116.34388,40.024881],[116.343859,40.024902],[116.34384,40.024924],[116.343824,40.024948],[116.343811,40.024972],[116.343716,40.025183],[116.343707,40.025209]]]}},{"type":"Feature","id":"GREEN-024","properties":{"id":"GREEN-024","layer":"GREEN_SPACE","land_use_code":"1401","name_zh":"滨水绿带（概念）","source_type":"agent_inferred_from_public_data","confidence":"medium","geometry_role":"design_proposal","area_sqm_declared":149548.1},"geometry":{"type":"Polygon","coordinates":[[[116.34108,39.94249],[116.341109,39.942486],[116.341137,39.94248],[116.341443,39.942402],[116.342427,39.942234],[116.342463,39.942226],[116.343711,39.941903],[116.344027,39.941876],[116.344166,39.941902],[116.34441,39.941952],[116.34495,39.942098],[116.345117,39.94224],[116.345378,39.942625],[116.3454,39.942676],[116.345414,39.942751],[116.345407,39.942805],[116.345387,39.942882],[116.345337,39.943002],[116.345242,39.943216],[116.345238,39.943225],[116.344875,39.944156],[116.34474,39.944495],[116.344735,39.94451],[116.344627,39.944852],[116.344625,39.944857],[116.344496,39.945306],[116.344491,39.945328],[116.344458,39.945513],[116.344455,39.945538],[116.344447,39.945686],[116.344446,39.945697],[116.344446,39.945805],[116.344447,39.945825],[116.344459,39.945951],[116.34446,39.945959],[116.344565,39.946735],[116.344565,39.946739],[116.344665,39.947377],[116.344933,39.949079],[116.34494,39.949108],[116.344951,39.949137],[116.344986,39.949215],[116.345005,39.949248],[116.345065,39.949338],[116.345081,39.94936],[116.3451,39.949381],[116.345121,39.9494],[116.345145,39.949417],[116.34517,39.949433],[116.345347,39.949533],[116.345373,39.949546],[116.3454,39.949558],[116.345429,39.949567],[116.345497,39.949587],[116.346021,39.949742],[116.346025,39.949743],[116.347527,39.950174],[116.347544,39.950179],[116.348792,39.950483],[116.348829,39.95049],[116.348866,39.950494],[116.348904,39.950495],[116.349444,39.950489],[116.349483,39.950487],[116.349522,39.950481],[116.34956,39.950472],[116.350099,39.950319],[116.35013,39.950309],[116.350159,39.950297],[116.350187,39.950283],[116.350213,39.950267],[116.350237,39.950249],[116.350518,39.950013],[116.350539,39.949994],[116.350557,39.949973],[116.350573,39.949951],[116.350586,39.949928],[116.350597,39.949904],[116.350945,39.948961],[116.350952,39.948942],[116.351155,39.948176],[116.35116,39.948151],[116.351162,39.948125],[116.35116,39.948099],[116.351156,39.948073],[116.351036,39.947575],[116.351034,39.947567],[116.350927,39.947191],[116.350906,39.94684],[116.350921,39.946788],[116.350986,39.946752],[116.351052,39.946735],[116.351408,39.94666],[116.353622,39.946538],[116.353776,39.946562],[116.3553,39.947254],[116.3553,39.946627],[116.354082,39.946074],[116.354048,39.94606],[116.354012,39.946049],[116.353974,39.946042],[116.353715,39.946001],[116.353683,39.945997],[116.353651,39.945996],[116.353619,39.945996],[116.351324,39.946123],[116.35129,39.946126],[116.351257,39.946132],[116.350857,39.946215],[116.350834,39.946221],[116.350709,39.946254],[116.350678,39.946264],[116.350647,39.946276],[116.350619,39.94629],[116.350401,39.94641],[116.350376,39.946425],[116.350352,39.946443],[116.350331,39.946461],[116.350312,39.946482],[116.350296,39.946503],[116.350282,39.946526],[116.350271,39.946549],[116.350262,39.946573],[116.35021,39.946762],[116.350205,39.946785],[116.350203,39.946808],[116.350203,39.946831],[116.350228,39.947239],[116.35023,39.947262],[116.350235,39.947284],[116.350347,39.947678],[116.350453,39.94812],[116.350266,39.948823],[116.349944,39.949695],[116.349777,39.949835],[116.349373,39.949949],[116.34895,39.949954],[116.347764,39.949665],[116.346271,39.949237],[116.345748,39.949083],[116.345748,39.949083],[116.345724,39.949076],[116.345652,39.949035],[116.345641,39.949018],[116.345625,39.948985],[116.345362,39.947312],[116.345263,39.946676],[116.345159,39.945908],[116.345148,39.945796],[116.345148,39.945704],[116.345156,39.945574],[116.345184,39.945412],[116.34531,39.944977],[116.345414,39.944645],[116.345546,39.944313],[116.345547,39.944312],[116.345908,39.943386],[116.346003,39.943174],[116.346005,39.943169],[116.346061,39.943032],[116.346071,39.943005],[116.346099,39.9429],[116.346104,39.942871],[116.346117,39.94277],[116.346118,39.942738],[116.346115,39.942706],[116.34609,39.942575],[116.346084,39.942551],[116.346076,39.942528],[116.346035,39.942434],[116.346025,39.942414],[116.346014,39.942394],[116.345719,39.941959],[116.345704,39.941939],[116.345686,39.94192],[116.345667,39.941902],[116.345409,39.941684],[116.345384,39.941665],[116.345358,39.941649],[116.345329,39.941634],[116.345298,39.941621],[116.345266,39.941611],[116.344631,39.941439],[116.344605,39.941433],[116.344343,39.941379],[116.344335,39.941378],[116.344133,39.94134],[116.344103,39.941335],[116.344072,39.941333],[116.344041,39.941332],[116.344011,39.941334],[116.343596,39.94137],[116.343559,39.941374],[116.343523,39.941382],[116.342257,39.941709],[116.341273,39.941877],[116.341238,39.941885],[116.340958,39.941956],[116.340617,39.941975],[116.340602,39.942517],[116.340613,39.942517],[116.341051,39.942493],[116.34108,39.94249]]]}},{"type":"Feature","id":"GREEN-026","properties":{"id":"GREEN-026","layer":"GREEN_SPACE","land_use_code":"1401","name_zh":"社区公园（概念）","source_type":"agent_generated_design","confidence":"medium","geometry_role":"design_proposal","area_sqm_declared":160000.0},"geometry":{"type":"Polygon","coordinates":[[[116.344417,39.971361],[116.344383,39.974963],[116.349065,39.97499],[116.349099,39.971388],[116.344417,39.971361]]]}},{"type":"Feature","id":"GREEN-027","properties":{"id":"GREEN-027","layer":"GREEN_SPACE","land_use_code":"1401","name_zh":"社区公园（概念）","source_type":"agent_generated_design","confidence":"medium","geometry_role":"design_proposal","area_sqm_declared":48506.5},"geometry":{"type":"Polygon","coordinates":[[[116.348586,40.025421],[116.3439,40.025395],[116.34389,40.0265],[116.348576,40.0265],[116.348586,40.025421]]]}},{"type":"Feature","id":"GREEN-028","properties":{"id":"GREEN-028","layer":"GREEN_SPACE","land_use_code":"1401","name_zh":"社区公园（概念）","source_type":"agent_generated_design","confidence":"medium","geometry_role":"design_proposal","area_sqm_declared":47337.2},"geometry":{"type":"Polygon","coordinates":[[[116.353271,40.025448],[116.348586,40.025421],[116.348576,40.0265],[116.353262,40.0265],[116.353271,40.025448]]]}},{"type":"Feature","id":"GREEN-029","properties":{"id":"GREEN-029","layer":"GREEN_SPACE","land_use_code":"1401","name_zh":"社区公园（概念）","source_type":"agent_generated_design","confidence":"medium","geometry_role":"design_proposal","area_sqm_declared":43237.7},"geometry":{"type":"Polygon","coordinates":[[[116.354052,39.942596],[116.354018,39.946198],[116.3553,39.946205],[116.3553,39.942602],[116.354052,39.942596]]]}},{"type":"Feature","id":"GREEN-030","properties":{"id":"GREEN-030","layer":"GREEN_SPACE","land_use_code":"1401","name_zh":"社区公园（概念）","source_type":"agent_generated_design","confidence":"medium","geometry_role":"design_proposal","area_sqm_declared":30022.1},"geometry":{"type":"Polygon","coordinates":[[[116.353781,39.971414],[116.353747,39.975016],[116.354499,39.97502],[116.354787,39.971419],[116.353781,39.971414]]]}},{"type":"Feature","id":"GREEN-031","properties":{"id":"GREEN-031","layer":"GREEN_SPACE","land_use_code":"1401","name_zh":"社区公园（概念）","source_type":"agent_generated_design","confidence":"medium","geometry_role":"design_proposal","area_sqm_declared":23849.5},"geometry":{"type":"Polygon","coordinates":[[[116.353475,40.003834],[116.353441,40.007436],[116.354255,40.007441],[116.354058,40.003837],[116.353475,40.003834]]]}},{"type":"Feature","id":"GREEN-032","properties":{"id":"GREEN-032","layer":"GREEN_SPACE","land_use_code":"1401","name_zh":"绿园（现状）","source_type":"osm","confidence":"medium","geometry_role":"existing_condition","area_sqm_declared":18241.8},"geometry":{"type":"Polygon","coordinates":[[[116.340628,39.983307],[116.341432,39.98333],[116.341436,39.98329],[116.341302,39.983288],[116.341309,39.983125],[116.34152,39.98313],[116.341519,39.983212],[116.341592,39.983212],[116.341634,39.9821],[116.341504,39.981949],[116.340864,39.981915],[116.340146,39.981906],[116.340235,39.983296],[116.340628,39.983307]]]}},{"type":"Feature","id":"GREEN-033","properties":{"id":"GREEN-033","layer":"GREEN_SPACE","land_use_code":"1401","name_zh":"元大都城垣遗址公园（现状）","source_type":"osm","confidence":"medium","geometry_role":"existing_condition","area_sqm_declared":83771.2},"geometry":{"type":"Polygon","coordinates":[[[116.348402,39.973618],[116.348376,39.974675],[116.348707,39.974666],[116.348698,39.975031],[116.349222,39.975036],[116.349326,39.975042],[116.349752,39.975068],[116.351346,39.975081],[116.354491,39.975108],[116.354609,39.973633],[116.348402,39.973618]]]}},{"type":"Feature","id":"GREEN-034","properties":{"id":"GREEN-034","layer":"GREEN_SPACE","land_use_code":"1401","name_zh":"元大都城垣遗址公园（现状）","source_type":"osm","confidence":"medium","geometry_role":"existing_condition","area_sqm_declared":137687.5},"geometry":{"type":"Polygon","coordinates":[[[116.348768,39.956893],[116.348532,39.956897],[116.347882,39.958071],[116.347621,39.95859],[116.347496,39.958989],[116.347489,39.959373],[116.347435,39.960106],[116.34751,39.960116],[116.347476,39.960592],[116.347401,39.960623],[116.347274,39.96363],[116.347298,39.963771],[116.347425,39.96378],[116.347677,39.963886],[116.347667,39.964359],[116.347736,39.964902],[116.347704,39.965675],[116.347624,39.966065],[116.347575,39.966888],[116.347614,39.96725],[116.347664,39.967568],[116.347654,39.967882],[116.347525,39.968586],[116.347406,39.970587],[116.34738,39.97091],[116.34728,39.972117],[116.34719,39.972994],[116.347141,39.973988],[116.347183,39.974099],[116.347254,39.974188],[116.347336,39.97428],[116.347435,39.974362],[116.347598,39.974409],[116.347892,39.97443],[116.347962,39.972752],[116.348026,39.971378],[116.347975,39.971272],[116.347987,39.970832],[116.348061,39.970803],[116.348249,39.967795],[116.348198,39.967761],[116.348206,39.967486],[116.348245,39.967461],[116.348314,39.966078],[116.348385,39.965215],[116.348348,39.965188],[116.348362,39.964894],[116.348399,39.964868],[116.348441,39.963765],[116.34878,39.957217],[116.348768,39.956893]]]}},{"type":"Feature","id":"GREEN-035","properties":{"id":"GREEN-035","layer":"GREEN_SPACE","land_use_code":"1401","name_zh":"青年园（现状）","source_type":"osm","confidence":"medium","geometry_role":"existing_condition","area_sqm_declared":195.1},"geometry":{"type":"Polygon","coordinates":[[[116.353508,39.995149],[116.353582,39.995154],[116.353552,39.994597],[116.353508,39.995149]]]}},{"type":"Feature","id":"GREEN-036","properties":{"id":"GREEN-036","layer":"GREEN_SPACE","land_use_code":"1401","name_zh":"小松林（现状）","source_type":"osm","confidence":"medium","geometry_role":"existing_condition","area_sqm_declared":529.6},"geometry":{"type":"Polygon","coordinates":[[[116.351294,39.961883],[116.351306,39.961635],[116.351082,39.961628],[116.351069,39.961876],[116.351294,39.961883]]]}},{"type":"Feature","id":"GREEN-037","properties":{"id":"GREEN-037","layer":"GREEN_SPACE","land_use_code":"1401","name_zh":"元大都公园明光村小区处（现状）","source_type":"osm","confidence":"medium","geometry_role":"existing_condition","area_sqm_declared":5591.6},"geometry":{"type":"Polygon","coordinates":[[[116.348449,39.956577],[116.348544,39.956455],[116.348584,39.956233],[116.348565,39.956049],[116.348544,39.956009],[116.348374,39.955967],[116.348058,39.955929],[116.347869,39.95597],[116.347685,39.956065],[116.347619,39.956199],[116.347545,39.956452],[116.347519,39.956609],[116.348449,39.956577]]]}},{"type":"Feature","id":"GREEN-038","properties":{"id":"GREEN-038","layer":"GREEN_SPACE","land_use_code":"1401","name_zh":"冬日广场（现状）","source_type":"osm","confidence":"medium","geometry_role":"existing_condition","area_sqm_declared":3524.3},"geometry":{"type":"Polygon","coordinates":[[[116.341616,39.989686],[116.341632,39.989199],[116.341638,39.989005],[116.341092,39.988994],[116.341071,39.989676],[116.341616,39.989686]]]}},{"type":"Feature","id":"GREEN-039","properties":{"id":"GREEN-039","layer":"GREEN_SPACE","land_use_code":"1401","name_zh":"小花园（现状）","source_type":"osm","confidence":"medium","geometry_role":"existing_condition","area_sqm_declared":1950.4},"geometry":{"type":"Polygon","coordinates":[[[116.344628,39.990648],[116.344639,39.990226],[116.344153,39.990219],[116.344142,39.990641],[116.344628,39.990648]]]}},{"type":"Feature","id":"GREEN-040","properties":{"id":"GREEN-040","layer":"GREEN_SPACE","land_use_code":"1401","name_zh":"花园（现状）","source_type":"osm","confidence":"medium","geometry_role":"existing_condition","area_sqm_declared":4598.5},"geometry":{"type":"Polygon","coordinates":[[[116.345844,39.991169],[116.345863,39.990703],[116.344826,39.990677],[116.344806,39.991144],[116.345844,39.991169]]]}},{"type":"Feature","id":"GREEN-041","properties":{"id":"GREEN-041","layer":"GREEN_SPACE","land_use_code":"1401","name_zh":"来园（现状）","source_type":"osm","confidence":"medium","geometry_role":"existing_condition","area_sqm_declared":3831.4},"geometry":{"type":"Polygon","coordinates":[[[116.343912,39.993228],[116.343957,39.99278],[116.343047,39.992751],[116.343032,39.993205],[116.343912,39.993228]]]}},{"type":"Feature","id":"GREEN-042","properties":{"id":"GREEN-042","layer":"GREEN_SPACE","land_use_code":"1401","name_zh":"北语苗圃园（现状）","source_type":"osm","confidence":"medium","geometry_role":"existing_condition","area_sqm_declared":7004.3},"geometry":{"type":"Polygon","coordinates":[[[116.343495,39.994966],[116.343563,39.993722],[116.342971,39.99371],[116.342895,39.994943],[116.343495,39.994966]]]}},{"type":"Feature","id":"GREEN-043","properties":{"id":"GREEN-043","layer":"GREEN_SPACE","land_use_code":"1401","name_zh":"凌霜园（现状）","source_type":"osm","confidence":"medium","geometry_role":"existing_condition","area_sqm_declared":3370.5},"geometry":{"type":"Polygon","coordinates":[[[116.346019,39.994183],[116.34603,39.994044],[116.345697,39.993789],[116.345011,39.993772],[116.345005,39.994163],[116.346019,39.994183]]]}},{"type":"Feature","id":"GREEN-044","properties":{"id":"GREEN-044","layer":"GREEN_SPACE","land_use_code":"1401","name_zh":"唯实园（现状）","source_type":"osm","confidence":"medium","geometry_role":"existing_condition","area_sqm_declared":22549.7},"geometry":{"type":"Polygon","coordinates":[[[116.345801,39.977583],[116.345807,39.97747],[116.345958,39.977474],[116.346007,39.976603],[116.344319,39.976555],[116.344216,39.976551],[116.344154,39.97793],[116.34578,39.977967],[116.345801,39.977583]]]}},{"type":"Feature","id":"GREEN-045","properties":{"id":"GREEN-045","layer":"GREEN_SPACE","land_use_code":"1401","name_zh":"小月河公园（现状）","source_type":"osm","confidence":"medium","geometry_role":"existing_condition","area_sqm_declared":24204.4},"geometry":{"type":"Polygon","coordinates":[[[116.342586,40.020613],[116.343213,40.020822],[116.343887,40.020957],[116.344104,40.020496],[116.344206,40.020263],[116.34429,40.020086],[116.344332,40.019913],[116.344346,40.019649],[116.344285,40.019388],[116.342354,40.019399],[116.342406,40.020478],[116.342586,40.020613]]]}},{"type":"Feature","id":"GREEN-046","properties":{"id":"GREEN-046","layer":"GREEN_SPACE","land_use_code":"1401","name_zh":"海棠园（现状）","source_type":"osm","confidence":"medium","geometry_role":"existing_condition","area_sqm_declared":466.9},"geometry":{"type":"Polygon","coordinates":[[[116.343882,39.981092],[116.343896,39.980839],[116.343801,39.980836],[116.343702,39.980832],[116.343688,39.981086],[116.343882,39.981092]]]}},{"type":"Feature","id":"GREEN-047","properties":{"id":"GREEN-047","layer":"GREEN_SPACE","land_use_code":"1401","name_zh":"东升清河培黎公园（现状）","source_type":"osm","confidence":"medium","geometry_role":"existing_condition","area_sqm_declared":8884.4},"geometry":{"type":"Polygon","coordinates":[[[116.342715,40.021604],[116.343092,40.021561],[116.343758,40.021532],[116.344028,40.021118],[116.342942,40.020897],[116.342577,40.020746],[116.342414,40.02064],[116.342461,40.021604],[116.342715,40.021604]]]}},{"type":"Feature","id":"GREEN-048","properties":{"id":"GREEN-048","layer":"GREEN_SPACE","land_use_code":"1401","name_zh":"王庄公园（东区）（现状）","source_type":"osm","confidence":"medium","geometry_role":"existing_condition","area_sqm_declared":2973.2},"geometry":{"type":"Polygon","coordinates":[[[116.342562,39.999338],[116.342575,39.999143],[116.342521,39.999141],[116.342522,39.999095],[116.341252,39.999064],[116.341268,39.999305],[116.342562,39.999338]]]}},{"type":"Feature","id":"GREEN-049","properties":{"id":"GREEN-049","layer":"GREEN_SPACE","land_use_code":"1401","name_zh":"元大都城垣遗址公园（现状）","source_type":"osm","confidence":"medium","geometry_role":"existing_condition","area_sqm_declared":2953.9},"geometry":{"type":"Polygon","coordinates":[[[116.347547,39.956956],[116.347475,39.957006],[116.347463,39.957235],[116.34744,39.958011],[116.348066,39.956966],[116.347547,39.956956]]]}},{"type":"Feature","id":"GREEN-050","properties":{"id":"GREEN-050","layer":"GREEN_SPACE","land_use_code":"1401","name_zh":"雨水花园（现状）","source_type":"osm","confidence":"medium","geometry_role":"existing_condition","area_sqm_declared":731.1},"geometry":{"type":"Polygon","coordinates":[[[116.342383,40.004515],[116.342389,40.004414],[116.341598,40.004418],[116.341604,40.004514],[116.342383,40.004515]]]}},{"type":"Feature","id":"GREEN-051","properties":{"id":"GREEN-051","layer":"GREEN_SPACE","land_use_code":"1401","name_zh":"晨读园（现状）","source_type":"osm","confidence":"medium","geometry_role":"existing_condition","area_sqm_declared":6751.8},"geometry":{"type":"Polygon","coordinates":[[[116.343825,39.983314],[116.343881,39.98205],[116.343318,39.982036],[116.343262,39.983299],[116.343825,39.983314]]]}}]}