{"type":"FeatureCollection","name":"land_use","features":[{"type":"Feature","id":"LU-001","properties":{"id":"LU-001","layer":"LAND_USE","land_use_code":"0802","name_zh":"科研用地(创新廊)","source_type":"agent_generated_design","confidence":"medium","geometry_role":"design_proposal","area_sqm_declared":136009.2},"geometry":{"type":"Polygon","coordinates":[[[116.344692,39.942543],[116.344726,39.939],[116.3407,39.939],[116.340602,39.94252],[116.344692,39.942543]]]}},{"type":"Feature","id":"LU-002","properties":{"id":"LU-002","layer":"LAND_USE","land_use_code":"1401","name_zh":"公园绿地","source_type":"agent_generated_design","confidence":"medium","geometry_role":"design_proposal","area_sqm_declared":140949.8},"geometry":{"type":"Polygon","coordinates":[[[116.344658,39.946145],[116.344692,39.942543],[116.340602,39.94252],[116.340502,39.946122],[116.344658,39.946145]]]}},{"type":"Feature","id":"LU-003","properties":{"id":"LU-003","layer":"LAND_USE","land_use_code":"1401","name_zh":"公园绿地","source_type":"agent_generated_design","confidence":"medium","geometry_role":"design_proposal","area_sqm_declared":143186.4},"geometry":{"type":"Polygon","coordinates":[[[116.344624,39.949748],[116.344658,39.946145],[116.340502,39.946122],[116.340402,39.949724],[116.344624,39.949748]]]}},{"type":"Feature","id":"LU-004","properties":{"id":"LU-004","layer":"LAND_USE","land_use_code":"1401","name_zh":"公园绿地","source_type":"agent_generated_design","confidence":"medium","geometry_role":"design_proposal","area_sqm_declared":145423.0},"geometry":{"type":"Polygon","coordinates":[[[116.344589,39.95335],[116.344624,39.949748],[116.340402,39.949724],[116.340302,39.953326],[116.344589,39.95335]]]}},{"type":"Feature","id":"LU-005","properties":{"id":"LU-005","layer":"LAND_USE","land_use_code":"1401","name_zh":"公园绿地","source_type":"agent_generated_design","confidence":"medium","geometry_role":"design_proposal","area_sqm_declared":147659.6},"geometry":{"type":"Polygon","coordinates":[[[116.344555,39.956952],[116.344589,39.95335],[116.340302,39.953326],[116.340202,39.956927],[116.344555,39.956952]]]}},{"type":"Feature","id":"LU-006","properties":{"id":"LU-006","layer":"LAND_USE","land_use_code":"0802","name_zh":"科研用地(创新廊)","source_type":"agent_generated_design","confidence":"medium","geometry_role":"design_proposal","area_sqm_declared":149896.1},"geometry":{"type":"Polygon","coordinates":[[[116.34452,39.960554],[116.344555,39.956952],[116.340202,39.956927],[116.340102,39.960529],[116.34452,39.960554]]]}},{"type":"Feature","id":"LU-007","properties":{"id":"LU-007","layer":"LAND_USE","land_use_code":"0802","name_zh":"科研用地(创新廊)","source_type":"agent_generated_design","confidence":"medium","geometry_role":"design_proposal","area_sqm_declared":152132.7},"geometry":{"type":"Polygon","coordinates":[[[116.344486,39.964157],[116.34452,39.960554],[116.340102,39.960529],[116.340002,39.964131],[116.344486,39.964157]]]}},{"type":"Feature","id":"LU-008","properties":{"id":"LU-008","layer":"LAND_USE","land_use_code":"05","name_zh":"商业服务业用地","source_type":"agent_generated_design","confidence":"medium","geometry_role":"design_proposal","area_sqm_declared":154369.3},"geometry":{"type":"Polygon","coordinates":[[[116.344452,39.967759],[116.344486,39.964157],[116.340002,39.964131],[116.339902,39.967733],[116.344452,39.967759]]]}},{"type":"Feature","id":"LU-009","properties":{"id":"LU-009","layer":"LAND_USE","land_use_code":"0802","name_zh":"科研用地(创新廊)","source_type":"agent_generated_design","confidence":"medium","geometry_role":"design_proposal","area_sqm_declared":156605.9},"geometry":{"type":"Polygon","coordinates":[[[116.344417,39.971361],[116.344452,39.967759],[116.339902,39.967733],[116.339802,39.971335],[116.344417,39.971361]]]}},{"type":"Feature","id":"LU-010","properties":{"id":"LU-010","layer":"LAND_USE","land_use_code":"0701","name_zh":"城镇住宅用地(职住平衡)","source_type":"agent_generated_design","confidence":"medium","geometry_role":"design_proposal","area_sqm_declared":158842.5},"geometry":{"type":"Polygon","coordinates":[[[116.344383,39.974963],[116.344417,39.971361],[116.339802,39.971335],[116.339702,39.974937],[116.344383,39.974963]]]}},{"type":"Feature","id":"LU-011","properties":{"id":"LU-011","layer":"LAND_USE","land_use_code":"0701","name_zh":"城镇住宅用地(职住平衡)","source_type":"agent_generated_design","confidence":"medium","geometry_role":"design_proposal","area_sqm_declared":155595.0},"geometry":{"type":"Polygon","coordinates":[[[116.344348,39.978566],[116.344383,39.974963],[116.339702,39.974937],[116.3397,39.975],[116.339928,39.978541],[116.344348,39.978566]]]}},{"type":"Feature","id":"LU-012","properties":{"id":"LU-012","layer":"LAND_USE","land_use_code":"0701","name_zh":"城镇住宅用地(职住平衡)","source_type":"agent_generated_design","confidence":"medium","geometry_role":"design_proposal","area_sqm_declared":146470.2},"geometry":{"type":"Polygon","coordinates":[[[116.344314,39.982168],[116.344348,39.978566],[116.339928,39.978541],[116.340161,39.982144],[116.344314,39.982168]]]}},{"type":"Feature","id":"LU-013","properties":{"id":"LU-013","layer":"LAND_USE","land_use_code":"0804","name_zh":"教育科研用地","source_type":"agent_generated_design","confidence":"medium","geometry_role":"design_proposal","area_sqm_declared":137343.6},"geometry":{"type":"Polygon","coordinates":[[[116.344279,39.98577],[116.344314,39.982168],[116.340161,39.982144],[116.340393,39.985748],[116.344279,39.98577]]]}},{"type":"Feature","id":"LU-014","properties":{"id":"LU-014","layer":"LAND_USE","land_use_code":"0804","name_zh":"教育科研用地","source_type":"agent_generated_design","confidence":"medium","geometry_role":"design_proposal","area_sqm_declared":128217.1},"geometry":{"type":"Polygon","coordinates":[[[116.344245,39.989372],[116.344279,39.98577],[116.340393,39.985748],[116.340626,39.989352],[116.344245,39.989372]]]}},{"type":"Feature","id":"LU-015","properties":{"id":"LU-015","layer":"LAND_USE","land_use_code":"0804","name_zh":"教育科研用地","source_type":"agent_generated_design","confidence":"medium","geometry_role":"design_proposal","area_sqm_declared":119090.5},"geometry":{"type":"Polygon","coordinates":[[[116.344211,39.992975],[116.344245,39.989372],[116.340626,39.989352],[116.340858,39.992956],[116.344211,39.992975]]]}},{"type":"Feature","id":"LU-016","properties":{"id":"LU-016","layer":"LAND_USE","land_use_code":"0804","name_zh":"教育科研用地","source_type":"agent_generated_design","confidence":"medium","geometry_role":"design_proposal","area_sqm_declared":109964.0},"geometry":{"type":"Polygon","coordinates":[[[116.344176,39.996577],[116.344211,39.992975],[116.340858,39.992956],[116.341091,39.996559],[116.344176,39.996577]]]}},{"type":"Feature","id":"LU-017","properties":{"id":"LU-017","layer":"LAND_USE","land_use_code":"0701","name_zh":"城镇住宅用地(职住平衡)","source_type":"agent_generated_design","confidence":"medium","geometry_role":"design_proposal","area_sqm_declared":100837.4},"geometry":{"type":"Polygon","coordinates":[[[116.344142,40.000179],[116.344176,39.996577],[116.341091,39.996559],[116.341323,40.000163],[116.344142,40.000179]]]}},{"type":"Feature","id":"LU-018","properties":{"id":"LU-018","layer":"LAND_USE","land_use_code":"0701","name_zh":"城镇住宅用地(职住平衡)","source_type":"agent_generated_design","confidence":"medium","geometry_role":"design_proposal","area_sqm_declared":91710.8},"geometry":{"type":"Polygon","coordinates":[[[116.344107,40.003781],[116.344142,40.000179],[116.341323,40.000163],[116.341556,40.003767],[116.344107,40.003781]]]}},{"type":"Feature","id":"LU-019","properties":{"id":"LU-019","layer":"LAND_USE","land_use_code":"05","name_zh":"商业服务业用地(现状生活特征)(POI主导,43点)","source_type":"agent_generated_design","confidence":"medium","geometry_role":"design_proposal","area_sqm_declared":82724.8},"geometry":{"type":"Polygon","coordinates":[[[116.344073,40.007384],[116.344107,40.003781],[116.341556,40.003767],[116.3417,40.006],[116.341767,40.007371],[116.344073,40.007384]]]}},{"type":"Feature","id":"LU-020","properties":{"id":"LU-020","layer":"LAND_USE","land_use_code":"0802","name_zh":"科研用地(AI研发)","source_type":"agent_generated_design","confidence":"medium","geometry_role":"design_proposal","area_sqm_declared":75167.6},"geometry":{"type":"Polygon","coordinates":[[[116.344038,40.010986],[116.344073,40.007384],[116.341767,40.007371],[116.341943,40.010974],[116.344038,40.010986]]]}},{"type":"Feature","id":"LU-021","properties":{"id":"LU-021","layer":"LAND_USE","land_use_code":"05","name_zh":"商业服务业用地","source_type":"agent_generated_design","confidence":"medium","geometry_role":"design_proposal","area_sqm_declared":67983.3},"geometry":{"type":"Polygon","coordinates":[[[116.344004,40.014588],[116.344038,40.010986],[116.341943,40.010974],[116.342118,40.014577],[116.344004,40.014588]]]}},{"type":"Feature","id":"LU-022","properties":{"id":"LU-022","layer":"LAND_USE","land_use_code":"0802","name_zh":"科研用地(AI研发)","source_type":"agent_generated_design","confidence":"medium","geometry_role":"design_proposal","area_sqm_declared":60799.1},"geometry":{"type":"Polygon","coordinates":[[[116.343969,40.01819],[116.344004,40.014588],[116.342118,40.014577],[116.342294,40.018181],[116.343969,40.01819]]]}},{"type":"Feature","id":"LU-023","properties":{"id":"LU-023","layer":"LAND_USE","land_use_code":"0802","name_zh":"科研用地(AI研发)","source_type":"agent_generated_design","confidence":"medium","geometry_role":"design_proposal","area_sqm_declared":53614.8},"geometry":{"type":"Polygon","coordinates":[[[116.343935,40.021793],[116.343969,40.01819],[116.342294,40.018181],[116.34247,40.021784],[116.343935,40.021793]]]}},{"type":"Feature","id":"LU-024","properties":{"id":"LU-024","layer":"LAND_USE","land_use_code":"0802","name_zh":"科研用地(AI研发)","source_type":"agent_generated_design","confidence":"medium","geometry_role":"design_proposal","area_sqm_declared":46430.5},"geometry":{"type":"Polygon","coordinates":[[[116.3439,40.025395],[116.343935,40.021793],[116.34247,40.021784],[116.342646,40.025388],[116.3439,40.025395]]]}},{"type":"Feature","id":"LU-025","properties":{"id":"LU-025","layer":"LAND_USE","land_use_code":"0802","name_zh":"科研用地(AI研发)","source_type":"agent_generated_design","confidence":"medium","geometry_role":"design_proposal","area_sqm_declared":12843.2},"geometry":{"type":"Polygon","coordinates":[[[116.3439,40.025395],[116.342646,40.025388],[116.3427,40.0265],[116.34389,40.0265],[116.3439,40.025395]]]}},{"type":"Feature","id":"LU-026","properties":{"id":"LU-026","layer":"LAND_USE","land_use_code":"0802","name_zh":"科研用地(创新廊)","source_type":"agent_generated_design","confidence":"medium","geometry_role":"design_proposal","area_sqm_declared":157943.4},"geometry":{"type":"Polygon","coordinates":[[[116.344692,39.942543],[116.349372,39.942569],[116.349406,39.939],[116.344726,39.939],[116.344692,39.942543]]]}},{"type":"Feature","id":"LU-027","properties":{"id":"LU-027","layer":"LAND_USE","land_use_code":"05","name_zh":"商业服务业用地","source_type":"agent_generated_design","confidence":"medium","geometry_role":"design_proposal","area_sqm_declared":160000.0},"geometry":{"type":"Polygon","coordinates":[[[116.344692,39.942543],[116.344658,39.946145],[116.349338,39.946172],[116.349372,39.942569],[116.344692,39.942543]]]}},{"type":"Feature","id":"LU-028","properties":{"id":"LU-028","layer":"LAND_USE","land_use_code":"05","name_zh":"商业服务业用地","source_type":"agent_generated_design","confidence":"medium","geometry_role":"design_proposal","area_sqm_declared":160000.0},"geometry":{"type":"Polygon","coordinates":[[[116.344658,39.946145],[116.344624,39.949748],[116.349304,39.949774],[116.349338,39.946172],[116.344658,39.946145]]]}},{"type":"Feature","id":"LU-029","properties":{"id":"LU-029","layer":"LAND_USE","land_use_code":"05","name_zh":"商业服务业用地","source_type":"agent_generated_design","confidence":"medium","geometry_role":"design_proposal","area_sqm_declared":160000.0},"geometry":{"type":"Polygon","coordinates":[[[116.344624,39.949748],[116.344589,39.95335],[116.34927,39.953376],[116.349304,39.949774],[116.344624,39.949748]]]}},{"type":"Feature","id":"LU-030","properties":{"id":"LU-030","layer":"LAND_USE","land_use_code":"0802","name_zh":"科研用地(创新廊)","source_type":"agent_generated_design","confidence":"medium","geometry_role":"design_proposal","area_sqm_declared":160000.0},"geometry":{"type":"Polygon","coordinates":[[[116.344589,39.95335],[116.344555,39.956952],[116.349236,39.956978],[116.34927,39.953376],[116.344589,39.95335]]]}},{"type":"Feature","id":"LU-031","properties":{"id":"LU-031","layer":"LAND_USE","land_use_code":"0802","name_zh":"科研用地(创新廊)","source_type":"agent_generated_design","confidence":"medium","geometry_role":"design_proposal","area_sqm_declared":160000.0},"geometry":{"type":"Polygon","coordinates":[[[116.344555,39.956952],[116.34452,39.960554],[116.349202,39.960581],[116.349236,39.956978],[116.344555,39.956952]]]}},{"type":"Feature","id":"LU-032","properties":{"id":"LU-032","layer":"LAND_USE","land_use_code":"0701","name_zh":"城镇住宅用地(职住平衡)","source_type":"agent_generated_design","confidence":"medium","geometry_role":"design_proposal","area_sqm_declared":160000.0},"geometry":{"type":"Polygon","coordinates":[[[116.34452,39.960554],[116.344486,39.964157],[116.349167,39.964183],[116.349202,39.960581],[116.34452,39.960554]]]}},{"type":"Feature","id":"LU-033","properties":{"id":"LU-033","layer":"LAND_USE","land_use_code":"0701","name_zh":"城镇住宅用地(职住平衡)","source_type":"agent_generated_design","confidence":"medium","geometry_role":"design_proposal","area_sqm_declared":160000.0},"geometry":{"type":"Polygon","coordinates":[[[116.344486,39.964157],[116.344452,39.967759],[116.349133,39.967785],[116.349167,39.964183],[116.344486,39.964157]]]}},{"type":"Feature","id":"LU-034","properties":{"id":"LU-034","layer":"LAND_USE","land_use_code":"0701","name_zh":"城镇住宅用地(职住平衡)","source_type":"agent_generated_design","confidence":"medium","geometry_role":"design_proposal","area_sqm_declared":160000.0},"geometry":{"type":"Polygon","coordinates":[[[116.344452,39.967759],[116.344417,39.971361],[116.349099,39.971388],[116.349133,39.967785],[116.344452,39.967759]]]}},{"type":"Feature","id":"LU-035","properties":{"id":"LU-035","layer":"LAND_USE","land_use_code":"1401","name_zh":"公园绿地","source_type":"agent_generated_design","confidence":"medium","geometry_role":"design_proposal","area_sqm_declared":160000.0},"geometry":{"type":"Polygon","coordinates":[[[116.344417,39.971361],[116.344383,39.974963],[116.349065,39.97499],[116.349099,39.971388],[116.344417,39.971361]]]}},{"type":"Feature","id":"LU-036","properties":{"id":"LU-036","layer":"LAND_USE","land_use_code":"0802","name_zh":"科研用地(现状企业特征)(POI主导,157点)","source_type":"agent_generated_design","confidence":"medium","geometry_role":"design_proposal","area_sqm_declared":160000.0},"geometry":{"type":"Polygon","coordinates":[[[116.344383,39.974963],[116.344348,39.978566],[116.349031,39.978592],[116.349065,39.97499],[116.344383,39.974963]]]}},{"type":"Feature","id":"LU-037","properties":{"id":"LU-037","layer":"LAND_USE","land_use_code":"0701","name_zh":"城镇住宅用地(职住平衡)","source_type":"agent_generated_design","confidence":"medium","geometry_role":"design_proposal","area_sqm_declared":160000.0},"geometry":{"type":"Polygon","coordinates":[[[116.344348,39.978566],[116.344314,39.982168],[116.348997,39.982194],[116.349031,39.978592],[116.344348,39.978566]]]}},{"type":"Feature","id":"LU-038","properties":{"id":"LU-038","layer":"LAND_USE","land_use_code":"0804","name_zh":"教育科研用地","source_type":"agent_generated_design","confidence":"medium","geometry_role":"design_proposal","area_sqm_declared":160000.0},"geometry":{"type":"Polygon","coordinates":[[[116.344314,39.982168],[116.344279,39.98577],[116.348962,39.985797],[116.348997,39.982194],[116.344314,39.982168]]]}},{"type":"Feature","id":"LU-039","properties":{"id":"LU-039","layer":"LAND_USE","land_use_code":"05","name_zh":"商业服务业用地","source_type":"agent_generated_design","confidence":"medium","geometry_role":"design_proposal","area_sqm_declared":160000.0},"geometry":{"type":"Polygon","coordinates":[[[116.344279,39.98577],[116.344245,39.989372],[116.348928,39.989399],[116.348962,39.985797],[116.344279,39.98577]]]}},{"type":"Feature","id":"LU-040","properties":{"id":"LU-040","layer":"LAND_USE","land_use_code":"0804","name_zh":"教育科研用地","source_type":"agent_generated_design","confidence":"medium","geometry_role":"design_proposal","area_sqm_declared":160000.0},"geometry":{"type":"Polygon","coordinates":[[[116.344245,39.989372],[116.344211,39.992975],[116.348894,39.993001],[116.348928,39.989399],[116.344245,39.989372]]]}},{"type":"Feature","id":"LU-041","properties":{"id":"LU-041","layer":"LAND_USE","land_use_code":"0804","name_zh":"教育科研用地","source_type":"agent_generated_design","confidence":"medium","geometry_role":"design_proposal","area_sqm_declared":160000.0},"geometry":{"type":"Polygon","coordinates":[[[116.344211,39.992975],[116.344176,39.996577],[116.34886,39.996603],[116.348894,39.993001],[116.344211,39.992975]]]}},{"type":"Feature","id":"LU-042","properties":{"id":"LU-042","layer":"LAND_USE","land_use_code":"05","name_zh":"商业服务业用地(现状生活特征)(POI主导,165点)","source_type":"agent_generated_design","confidence":"medium","geometry_role":"design_proposal","area_sqm_declared":160000.0},"geometry":{"type":"Polygon","coordinates":[[[116.344176,39.996577],[116.344142,40.000179],[116.348826,40.000206],[116.34886,39.996603],[116.344176,39.996577]]]}},{"type":"Feature","id":"LU-043","properties":{"id":"LU-043","layer":"LAND_USE","land_use_code":"05","name_zh":"商业服务业用地(现状生活特征)(POI主导,111点)","source_type":"agent_generated_design","confidence":"medium","geometry_role":"design_proposal","area_sqm_declared":160000.0},"geometry":{"type":"Polygon","coordinates":[[[116.344142,40.000179],[116.344107,40.003781],[116.348791,40.003808],[116.348826,40.000206],[116.344142,40.000179]]]}},{"type":"Feature","id":"LU-044","properties":{"id":"LU-044","layer":"LAND_USE","land_use_code":"0701","name_zh":"城镇住宅用地(职住平衡)","source_type":"agent_generated_design","confidence":"medium","geometry_role":"design_proposal","area_sqm_declared":160000.0},"geometry":{"type":"Polygon","coordinates":[[[116.344107,40.003781],[116.344073,40.007384],[116.348757,40.00741],[116.348791,40.003808],[116.344107,40.003781]]]}},{"type":"Feature","id":"LU-045","properties":{"id":"LU-045","layer":"LAND_USE","land_use_code":"0802","name_zh":"科研用地(AI研发)","source_type":"agent_generated_design","confidence":"medium","geometry_role":"design_proposal","area_sqm_declared":160000.0},"geometry":{"type":"Polygon","coordinates":[[[116.344073,40.007384],[116.344038,40.010986],[116.348723,40.011012],[116.348757,40.00741],[116.344073,40.007384]]]}},{"type":"Feature","id":"LU-046","properties":{"id":"LU-046","layer":"LAND_USE","land_use_code":"05","name_zh":"商业服务业用地","source_type":"agent_generated_design","confidence":"medium","geometry_role":"design_proposal","area_sqm_declared":160000.0},"geometry":{"type":"Polygon","coordinates":[[[116.344038,40.010986],[116.344004,40.014588],[116.348689,40.014615],[116.348723,40.011012],[116.344038,40.010986]]]}},{"type":"Feature","id":"LU-047","properties":{"id":"LU-047","layer":"LAND_USE","land_use_code":"0802","name_zh":"科研用地(AI研发)","source_type":"agent_generated_design","confidence":"medium","geometry_role":"design_proposal","area_sqm_declared":160000.0},"geometry":{"type":"Polygon","coordinates":[[[116.344004,40.014588],[116.343969,40.01819],[116.348654,40.018217],[116.348689,40.014615],[116.344004,40.014588]]]}},{"type":"Feature","id":"LU-048","properties":{"id":"LU-048","layer":"LAND_USE","land_use_code":"0802","name_zh":"科研用地(AI研发)","source_type":"agent_generated_design","confidence":"medium","geometry_role":"design_proposal","area_sqm_declared":160000.0},"geometry":{"type":"Polygon","coordinates":[[[116.343969,40.01819],[116.343935,40.021793],[116.34862,40.021819],[116.348654,40.018217],[116.343969,40.01819]]]}},{"type":"Feature","id":"LU-049","properties":{"id":"LU-049","layer":"LAND_USE","land_use_code":"0802","name_zh":"科研用地(AI研发)","source_type":"agent_generated_design","confidence":"medium","geometry_role":"design_proposal","area_sqm_declared":160000.0},"geometry":{"type":"Polygon","coordinates":[[[116.343935,40.021793],[116.3439,40.025395],[116.348586,40.025421],[116.34862,40.021819],[116.343935,40.021793]]]}},{"type":"Feature","id":"LU-050","properties":{"id":"LU-050","layer":"LAND_USE","land_use_code":"1401","name_zh":"公园绿地","source_type":"agent_generated_design","confidence":"medium","geometry_role":"design_proposal","area_sqm_declared":48506.5},"geometry":{"type":"Polygon","coordinates":[[[116.348586,40.025421],[116.3439,40.025395],[116.34389,40.0265],[116.348576,40.0265],[116.348586,40.025421]]]}},{"type":"Feature","id":"LU-051","properties":{"id":"LU-051","layer":"LAND_USE","land_use_code":"0701","name_zh":"城镇住宅用地(职住平衡)","source_type":"agent_generated_design","confidence":"medium","geometry_role":"design_proposal","area_sqm_declared":159112.3},"geometry":{"type":"Polygon","coordinates":[[[116.349372,39.942569],[116.354052,39.942596],[116.354086,39.939],[116.349406,39.939],[116.349372,39.942569]]]}},{"type":"Feature","id":"LU-052","properties":{"id":"LU-052","layer":"LAND_USE","land_use_code":"05","name_zh":"商业服务业用地","source_type":"agent_generated_design","confidence":"medium","geometry_role":"design_proposal","area_sqm_declared":160000.0},"geometry":{"type":"Polygon","coordinates":[[[116.349372,39.942569],[116.349338,39.946172],[116.354018,39.946198],[116.354052,39.942596],[116.349372,39.942569]]]}},{"type":"Feature","id":"LU-053","properties":{"id":"LU-053","layer":"LAND_USE","land_use_code":"05","name_zh":"商业服务业用地","source_type":"agent_generated_design","confidence":"medium","geometry_role":"design_proposal","area_sqm_declared":160000.0},"geometry":{"type":"Polygon","coordinates":[[[116.349338,39.946172],[116.349304,39.949774],[116.353984,39.9498],[116.354018,39.946198],[116.349338,39.946172]]]}},{"type":"Feature","id":"LU-054","properties":{"id":"LU-054","layer":"LAND_USE","land_use_code":"0802","name_zh":"科研用地(AI原生)","source_type":"agent_generated_design","confidence":"medium","geometry_role":"design_proposal","area_sqm_declared":160000.0},"geometry":{"type":"Polygon","coordinates":[[[116.349304,39.949774],[116.34927,39.953376],[116.353951,39.953402],[116.353984,39.9498],[116.349304,39.949774]]]}},{"type":"Feature","id":"LU-055","properties":{"id":"LU-055","layer":"LAND_USE","land_use_code":"05","name_zh":"商业服务业用地(现状生活特征)(POI主导,72点)","source_type":"agent_generated_design","confidence":"medium","geometry_role":"design_proposal","area_sqm_declared":160000.0},"geometry":{"type":"Polygon","coordinates":[[[116.34927,39.953376],[116.349236,39.956978],[116.353917,39.957005],[116.353951,39.953402],[116.34927,39.953376]]]}},{"type":"Feature","id":"LU-056","properties":{"id":"LU-056","layer":"LAND_USE","land_use_code":"0804","name_zh":"教育科研用地(现状特征)(POI主导,32点)","source_type":"agent_generated_design","confidence":"medium","geometry_role":"design_proposal","area_sqm_declared":160000.0},"geometry":{"type":"Polygon","coordinates":[[[116.349236,39.956978],[116.349202,39.960581],[116.353883,39.960607],[116.353917,39.957005],[116.349236,39.956978]]]}},{"type":"Feature","id":"LU-057","properties":{"id":"LU-057","layer":"LAND_USE","land_use_code":"05","name_zh":"商业服务业用地(现状生活特征)(POI主导,34点)","source_type":"agent_generated_design","confidence":"medium","geometry_role":"design_proposal","area_sqm_declared":160000.0},"geometry":{"type":"Polygon","coordinates":[[[116.349202,39.960581],[116.349167,39.964183],[116.353849,39.964209],[116.353883,39.960607],[116.349202,39.960581]]]}},{"type":"Feature","id":"LU-058","properties":{"id":"LU-058","layer":"LAND_USE","land_use_code":"0802","name_zh":"科研用地(现状企业特征)(POI主导,71点)","source_type":"agent_generated_design","confidence":"medium","geometry_role":"design_proposal","area_sqm_declared":160000.0},"geometry":{"type":"Polygon","coordinates":[[[116.349167,39.964183],[116.349133,39.967785],[116.353815,39.967811],[116.353849,39.964209],[116.349167,39.964183]]]}},{"type":"Feature","id":"LU-059","properties":{"id":"LU-059","layer":"LAND_USE","land_use_code":"0804","name_zh":"教育科研用地(现状特征)(POI主导,15点)","source_type":"agent_generated_design","confidence":"medium","geometry_role":"design_proposal","area_sqm_declared":160000.0},"geometry":{"type":"Polygon","coordinates":[[[116.349133,39.967785],[116.349099,39.971388],[116.353781,39.971414],[116.353815,39.967811],[116.349133,39.967785]]]}},{"type":"Feature","id":"LU-060","properties":{"id":"LU-060","layer":"LAND_USE","land_use_code":"05","name_zh":"商业服务业用地(现状生活特征)(POI主导,32点)","source_type":"agent_generated_design","confidence":"medium","geometry_role":"design_proposal","area_sqm_declared":160000.0},"geometry":{"type":"Polygon","coordinates":[[[116.349099,39.971388],[116.349065,39.97499],[116.353747,39.975016],[116.353781,39.971414],[116.349099,39.971388]]]}},{"type":"Feature","id":"LU-061","properties":{"id":"LU-061","layer":"LAND_USE","land_use_code":"05","name_zh":"商业服务业用地(现状生活特征)(POI主导,61点)","source_type":"agent_generated_design","confidence":"medium","geometry_role":"design_proposal","area_sqm_declared":160000.0},"geometry":{"type":"Polygon","coordinates":[[[116.349065,39.97499],[116.349031,39.978592],[116.353713,39.978618],[116.353747,39.975016],[116.349065,39.97499]]]}},{"type":"Feature","id":"LU-062","properties":{"id":"LU-062","layer":"LAND_USE","land_use_code":"0701","name_zh":"城镇住宅用地(职住平衡)","source_type":"agent_generated_design","confidence":"medium","geometry_role":"design_proposal","area_sqm_declared":160000.0},"geometry":{"type":"Polygon","coordinates":[[[116.349031,39.978592],[116.348997,39.982194],[116.353679,39.982221],[116.353713,39.978618],[116.349031,39.978592]]]}},{"type":"Feature","id":"LU-063","properties":{"id":"LU-063","layer":"LAND_USE","land_use_code":"0804","name_zh":"教育科研用地","source_type":"agent_generated_design","confidence":"medium","geometry_role":"design_proposal","area_sqm_declared":159991.9},"geometry":{"type":"Polygon","coordinates":[[[116.353679,39.982221],[116.348997,39.982194],[116.348962,39.985797],[116.353634,39.985823],[116.353647,39.985667],[116.353679,39.982221]]]}},{"type":"Feature","id":"LU-064","properties":{"id":"LU-064","layer":"LAND_USE","land_use_code":"0804","name_zh":"教育科研用地","source_type":"agent_generated_design","confidence":"medium","geometry_role":"design_proposal","area_sqm_declared":155282.0},"geometry":{"type":"Polygon","coordinates":[[[116.348962,39.985797],[116.348928,39.989399],[116.353346,39.989424],[116.353634,39.985823],[116.348962,39.985797]]]}},{"type":"Feature","id":"LU-065","properties":{"id":"LU-065","layer":"LAND_USE","land_use_code":"0804","name_zh":"教育科研用地","source_type":"agent_generated_design","confidence":"medium","geometry_role":"design_proposal","area_sqm_declared":152448.3},"geometry":{"type":"Polygon","coordinates":[[[116.348928,39.989399],[116.348894,39.993001],[116.353466,39.993027],[116.3533,39.99],[116.353346,39.989424],[116.348928,39.989399]]]}},{"type":"Feature","id":"LU-066","properties":{"id":"LU-066","layer":"LAND_USE","land_use_code":"0804","name_zh":"教育科研用地","source_type":"agent_generated_design","confidence":"medium","geometry_role":"design_proposal","area_sqm_declared":159080.4},"geometry":{"type":"Polygon","coordinates":[[[116.348894,39.993001],[116.34886,39.996603],[116.353543,39.99663],[116.353561,39.994765],[116.353466,39.993027],[116.348894,39.993001]]]}},{"type":"Feature","id":"LU-067","properties":{"id":"LU-067","layer":"LAND_USE","land_use_code":"05","name_zh":"商业服务业用地(现状生活特征)(POI主导,33点)","source_type":"agent_generated_design","confidence":"medium","geometry_role":"design_proposal","area_sqm_declared":160000.0},"geometry":{"type":"Polygon","coordinates":[[[116.34886,39.996603],[116.348826,40.000206],[116.353509,40.000232],[116.353543,39.99663],[116.34886,39.996603]]]}},{"type":"Feature","id":"LU-068","properties":{"id":"LU-068","layer":"LAND_USE","land_use_code":"0804","name_zh":"教育科研用地(现状特征)(POI主导,17点)","source_type":"agent_generated_design","confidence":"medium","geometry_role":"design_proposal","area_sqm_declared":160000.0},"geometry":{"type":"Polygon","coordinates":[[[116.348826,40.000206],[116.348791,40.003808],[116.353475,40.003834],[116.353509,40.000232],[116.348826,40.000206]]]}},{"type":"Feature","id":"LU-069","properties":{"id":"LU-069","layer":"LAND_USE","land_use_code":"05","name_zh":"商业服务业用地(枢纽特征)(POI主导,26点)","source_type":"agent_generated_design","confidence":"medium","geometry_role":"design_proposal","area_sqm_declared":160000.0},"geometry":{"type":"Polygon","coordinates":[[[116.348791,40.003808],[116.348757,40.00741],[116.353441,40.007436],[116.353475,40.003834],[116.348791,40.003808]]]}},{"type":"Feature","id":"LU-070","properties":{"id":"LU-070","layer":"LAND_USE","land_use_code":"0802","name_zh":"科研用地(AI研发)","source_type":"agent_generated_design","confidence":"medium","geometry_role":"design_proposal","area_sqm_declared":160000.0},"geometry":{"type":"Polygon","coordinates":[[[116.348757,40.00741],[116.348723,40.011012],[116.353407,40.011039],[116.353441,40.007436],[116.348757,40.00741]]]}},{"type":"Feature","id":"LU-071","properties":{"id":"LU-071","layer":"LAND_USE","land_use_code":"0802","name_zh":"科研用地(AI研发)","source_type":"agent_generated_design","confidence":"medium","geometry_role":"design_proposal","area_sqm_declared":160000.0},"geometry":{"type":"Polygon","coordinates":[[[116.348723,40.011012],[116.348689,40.014615],[116.353373,40.014641],[116.353407,40.011039],[116.348723,40.011012]]]}},{"type":"Feature","id":"LU-072","properties":{"id":"LU-072","layer":"LAND_USE","land_use_code":"0802","name_zh":"科研用地(AI研发)","source_type":"agent_generated_design","confidence":"medium","geometry_role":"design_proposal","area_sqm_declared":160000.0},"geometry":{"type":"Polygon","coordinates":[[[116.348689,40.014615],[116.348654,40.018217],[116.353339,40.018243],[116.353373,40.014641],[116.348689,40.014615]]]}},{"type":"Feature","id":"LU-073","properties":{"id":"LU-073","layer":"LAND_USE","land_use_code":"0802","name_zh":"科研用地(AI研发)","source_type":"agent_generated_design","confidence":"medium","geometry_role":"design_proposal","area_sqm_declared":160000.0},"geometry":{"type":"Polygon","coordinates":[[[116.348654,40.018217],[116.34862,40.021819],[116.353305,40.021845],[116.353339,40.018243],[116.348654,40.018217]]]}},{"type":"Feature","id":"LU-074","properties":{"id":"LU-074","layer":"LAND_USE","land_use_code":"0802","name_zh":"科研用地(AI研发)","source_type":"agent_generated_design","confidence":"medium","geometry_role":"design_proposal","area_sqm_declared":160000.0},"geometry":{"type":"Polygon","coordinates":[[[116.34862,40.021819],[116.348586,40.025421],[116.353271,40.025448],[116.353305,40.021845],[116.34862,40.021819]]]}},{"type":"Feature","id":"LU-075","properties":{"id":"LU-075","layer":"LAND_USE","land_use_code":"1401","name_zh":"公园绿地","source_type":"agent_generated_design","confidence":"medium","geometry_role":"design_proposal","area_sqm_declared":47337.2},"geometry":{"type":"Polygon","coordinates":[[[116.353271,40.025448],[116.348586,40.025421],[116.348576,40.0265],[116.353262,40.0265],[116.353271,40.025448]]]}},{"type":"Feature","id":"LU-076","properties":{"id":"LU-076","layer":"LAND_USE","land_use_code":"0701","name_zh":"城镇住宅用地(现状特征)(POI主导,16点)","source_type":"agent_generated_design","confidence":"medium","geometry_role":"design_proposal","area_sqm_declared":42042.2},"geometry":{"type":"Polygon","coordinates":[[[116.354052,39.942596],[116.3553,39.942602],[116.3553,39.939],[116.354086,39.939],[116.354052,39.942596]]]}},{"type":"Feature","id":"LU-077","properties":{"id":"LU-077","layer":"LAND_USE","land_use_code":"1401","name_zh":"公园绿地","source_type":"agent_generated_design","confidence":"medium","geometry_role":"design_proposal","area_sqm_declared":43237.7},"geometry":{"type":"Polygon","coordinates":[[[116.354052,39.942596],[116.354018,39.946198],[116.3553,39.946205],[116.3553,39.942602],[116.354052,39.942596]]]}},{"type":"Feature","id":"LU-078","properties":{"id":"LU-078","layer":"LAND_USE","land_use_code":"0802","name_zh":"科研用地(AI原生)","source_type":"agent_generated_design","confidence":"medium","geometry_role":"design_proposal","area_sqm_declared":44393.8},"geometry":{"type":"Polygon","coordinates":[[[116.354018,39.946198],[116.353984,39.9498],[116.3553,39.949807],[116.3553,39.946205],[116.354018,39.946198]]]}},{"type":"Feature","id":"LU-079","properties":{"id":"LU-079","layer":"LAND_USE","land_use_code":"0802","name_zh":"科研用地(AI原生)","source_type":"agent_generated_design","confidence":"medium","geometry_role":"design_proposal","area_sqm_declared":45549.9},"geometry":{"type":"Polygon","coordinates":[[[116.353984,39.9498],[116.353951,39.953402],[116.3553,39.95341],[116.3553,39.949807],[116.353984,39.9498]]]}},{"type":"Feature","id":"LU-080","properties":{"id":"LU-080","layer":"LAND_USE","land_use_code":"05","name_zh":"商业服务业用地(现状生活特征)(POI主导,21点)","source_type":"agent_generated_design","confidence":"medium","geometry_role":"design_proposal","area_sqm_declared":46706.0},"geometry":{"type":"Polygon","coordinates":[[[116.353951,39.953402],[116.353917,39.957005],[116.3553,39.957012],[116.3553,39.95341],[116.353951,39.953402]]]}},{"type":"Feature","id":"LU-081","properties":{"id":"LU-081","layer":"LAND_USE","land_use_code":"05","name_zh":"商业服务业用地(现状生活特征)(POI主导,11点)","source_type":"agent_generated_design","confidence":"medium","geometry_role":"design_proposal","area_sqm_declared":47862.2},"geometry":{"type":"Polygon","coordinates":[[[116.353917,39.957005],[116.353883,39.960607],[116.3553,39.960615],[116.3553,39.957012],[116.353917,39.957005]]]}},{"type":"Feature","id":"LU-082","properties":{"id":"LU-082","layer":"LAND_USE","land_use_code":"05","name_zh":"商业服务业用地(现状生活特征)(POI主导,12点)","source_type":"agent_generated_design","confidence":"medium","geometry_role":"design_proposal","area_sqm_declared":49018.3},"geometry":{"type":"Polygon","coordinates":[[[116.353883,39.960607],[116.353849,39.964209],[116.3553,39.964217],[116.3553,39.960615],[116.353883,39.960607]]]}},{"type":"Feature","id":"LU-083","properties":{"id":"LU-083","layer":"LAND_USE","land_use_code":"05","name_zh":"商业服务业用地(现状生活特征)(POI主导,69点)","source_type":"agent_generated_design","confidence":"medium","geometry_role":"design_proposal","area_sqm_declared":47159.8},"geometry":{"type":"Polygon","coordinates":[[[116.353849,39.964209],[116.353815,39.967811],[116.355075,39.967818],[116.3553,39.965],[116.3553,39.964217],[116.353849,39.964209]]]}},{"type":"Feature","id":"LU-084","properties":{"id":"LU-084","layer":"LAND_USE","land_use_code":"0701","name_zh":"城镇住宅用地","source_type":"agent_generated_design","confidence":"medium","geometry_role":"design_proposal","area_sqm_declared":38707.1},"geometry":{"type":"Polygon","coordinates":[[[116.353815,39.967811],[116.353781,39.971414],[116.354787,39.971419],[116.355075,39.967818],[116.353815,39.967811]]]}},{"type":"Feature","id":"LU-085","properties":{"id":"LU-085","layer":"LAND_USE","land_use_code":"1401","name_zh":"公园绿地(现状特征)(POI主导,5点)","source_type":"agent_generated_design","confidence":"medium","geometry_role":"design_proposal","area_sqm_declared":30022.1},"geometry":{"type":"Polygon","coordinates":[[[116.353781,39.971414],[116.353747,39.975016],[116.354499,39.97502],[116.354787,39.971419],[116.353781,39.971414]]]}},{"type":"Feature","id":"LU-086","properties":{"id":"LU-086","layer":"LAND_USE","land_use_code":"05","name_zh":"商业服务业用地(现状生活特征)(POI主导,11点)","source_type":"agent_generated_design","confidence":"medium","geometry_role":"design_proposal","area_sqm_declared":21337.1},"geometry":{"type":"Polygon","coordinates":[[[116.353747,39.975016],[116.353713,39.978618],[116.354211,39.978621],[116.354499,39.97502],[116.353747,39.975016]]]}},{"type":"Feature","id":"LU-087","properties":{"id":"LU-087","layer":"LAND_USE","land_use_code":"0806","name_zh":"医疗卫生用地(现状特征)(POI主导,10点)","source_type":"agent_generated_design","confidence":"medium","geometry_role":"design_proposal","area_sqm_declared":12652.0},"geometry":{"type":"Polygon","coordinates":[[[116.353713,39.978618],[116.353679,39.982221],[116.353922,39.982222],[116.354211,39.978621],[116.353713,39.978618]]]}},{"type":"Feature","id":"LU-088","properties":{"id":"LU-088","layer":"LAND_USE","land_use_code":"0701","name_zh":"城镇住宅用地(职住平衡)","source_type":"agent_generated_design","confidence":"medium","geometry_role":"design_proposal","area_sqm_declared":3975.2},"geometry":{"type":"Polygon","coordinates":[[[116.353679,39.982221],[116.353647,39.985667],[116.353922,39.982222],[116.353679,39.982221]]]}},{"type":"Feature","id":"LU-089","properties":{"id":"LU-089","layer":"LAND_USE","land_use_code":"0701","name_zh":"城镇住宅用地","source_type":"agent_generated_design","confidence":"medium","geometry_role":"design_proposal","area_sqm_declared":1058.8},"geometry":{"type":"Polygon","coordinates":[[[116.353543,39.99663],[116.353663,39.99663],[116.353561,39.994765],[116.353543,39.99663]]]}},{"type":"Feature","id":"LU-090","properties":{"id":"LU-090","layer":"LAND_USE","land_use_code":"0701","name_zh":"城镇住宅用地","source_type":"agent_generated_design","confidence":"medium","geometry_role":"design_proposal","area_sqm_declared":8042.6},"geometry":{"type":"Polygon","coordinates":[[[116.353543,39.99663],[116.353509,40.000232],[116.353861,40.000234],[116.353663,39.99663],[116.353543,39.99663]]]}},{"type":"Feature","id":"LU-091","properties":{"id":"LU-091","layer":"LAND_USE","land_use_code":"0701","name_zh":"城镇住宅用地","source_type":"agent_generated_design","confidence":"medium","geometry_role":"design_proposal","area_sqm_declared":15946.1},"geometry":{"type":"Polygon","coordinates":[[[116.353509,40.000232],[116.353475,40.003834],[116.354058,40.003837],[116.353861,40.000234],[116.353509,40.000232]]]}},{"type":"Feature","id":"LU-092","properties":{"id":"LU-092","layer":"LAND_USE","land_use_code":"1401","name_zh":"公园绿地","source_type":"agent_generated_design","confidence":"medium","geometry_role":"design_proposal","area_sqm_declared":23849.5},"geometry":{"type":"Polygon","coordinates":[[[116.353475,40.003834],[116.353441,40.007436],[116.354255,40.007441],[116.354058,40.003837],[116.353475,40.003834]]]}},{"type":"Feature","id":"LU-093","properties":{"id":"LU-093","layer":"LAND_USE","land_use_code":"0802","name_zh":"科研用地(AI研发)","source_type":"agent_generated_design","confidence":"medium","geometry_role":"design_proposal","area_sqm_declared":31753.0},"geometry":{"type":"Polygon","coordinates":[[[116.353441,40.007436],[116.353407,40.011039],[116.354453,40.011044],[116.354255,40.007441],[116.353441,40.007436]]]}},{"type":"Feature","id":"LU-094","properties":{"id":"LU-094","layer":"LAND_USE","land_use_code":"0802","name_zh":"科研用地(AI研发)","source_type":"agent_generated_design","confidence":"medium","geometry_role":"design_proposal","area_sqm_declared":39656.4},"geometry":{"type":"Polygon","coordinates":[[[116.353407,40.011039],[116.353373,40.014641],[116.35465,40.014648],[116.354453,40.011044],[116.353407,40.011039]]]}},{"type":"Feature","id":"LU-095","properties":{"id":"LU-095","layer":"LAND_USE","land_use_code":"0802","name_zh":"科研用地(AI研发)","source_type":"agent_generated_design","confidence":"medium","geometry_role":"design_proposal","area_sqm_declared":47559.8},"geometry":{"type":"Polygon","coordinates":[[[116.353373,40.014641],[116.353339,40.018243],[116.354848,40.018251],[116.35465,40.014648],[116.353373,40.014641]]]}},{"type":"Feature","id":"LU-096","properties":{"id":"LU-096","layer":"LAND_USE","land_use_code":"0802","name_zh":"科研用地(AI研发)","source_type":"agent_generated_design","confidence":"medium","geometry_role":"design_proposal","area_sqm_declared":55463.3},"geometry":{"type":"Polygon","coordinates":[[[116.353339,40.018243],[116.353305,40.021845],[116.355045,40.021855],[116.354848,40.018251],[116.353339,40.018243]]]}},{"type":"Feature","id":"LU-097","properties":{"id":"LU-097","layer":"LAND_USE","land_use_code":"0802","name_zh":"科研用地(AI研发)","source_type":"agent_generated_design","confidence":"medium","geometry_role":"design_proposal","area_sqm_declared":63366.7},"geometry":{"type":"Polygon","coordinates":[[[116.353305,40.021845],[116.353271,40.025448],[116.355243,40.025458],[116.355045,40.021855],[116.353305,40.021845]]]}},{"type":"Feature","id":"LU-098","properties":{"id":"LU-098","layer":"LAND_USE","land_use_code":"0802","name_zh":"科研用地(AI研发)","source_type":"agent_generated_design","confidence":"medium","geometry_role":"design_proposal","area_sqm_declared":19897.4},"geometry":{"type":"Polygon","coordinates":[[[116.353271,40.025448],[116.353262,40.0265],[116.3553,40.0265],[116.355243,40.025458],[116.353271,40.025448]]]}}]}