{"type":"FeatureCollection","name":"phasing","features":[{"type":"Feature","id":"PHASE-1","properties":{"id":"PHASE-1","layer":"PHASE","phase":"phase_1","name_zh":"近期：主脊缝合与大钟寺界面（概念）","source_type":"agent_generated_design","confidence":"medium","geometry_role":"design_proposal","area_sqm_declared":1324868.6,"note_zh":"分期为概念建议，非开发时序或审批结论"},"geometry":{"type":"Polygon","coordinates":[[[116.355,39.944],[116.344609,39.944],[116.344752,39.942077],[116.344754,39.941945],[116.344738,39.941813],[116.344706,39.941682],[116.344657,39.941555],[116.344592,39.941432],[116.344513,39.941315],[116.344418,39.941204],[116.34431,39.941101],[116.344189,39.941006],[116.344057,39.940921],[116.343914,39.940847],[116.343763,39.940783],[116.343605,39.940732],[116.34344,39.940692],[116.343271,39.940665],[116.3431,39.940651],[116.342928,39.94065],[116.342756,39.940662],[116.342587,39.940687],[116.342422,39.940724],[116.342262,39.940774],[116.34211,39.940836],[116.341966,39.940909],[116.341832,39.940992],[116.341709,39.941085],[116.341599,39.941187],[116.341502,39.941296],[116.34142,39.941413],[116.341352,39.941535],[116.341301,39.941661],[116.341266,39.941791],[116.341248,39.941923],[116.340244,39.955427],[116.339889,39.968183],[116.340709,39.966741],[116.340767,39.966623],[116.340811,39.966502],[116.343611,39.957102],[116.343638,39.95699],[116.343653,39.956877],[116.344175,39.94984],[116.355,39.94984],[116.355,39.944]]]}},{"type":"Feature","id":"PHASE-2","properties":{"id":"PHASE-2","layer":"PHASE","phase":"phase_2","name_zh":"中期：原点社区更新（概念）","source_type":"agent_generated_design","confidence":"medium","geometry_role":"design_proposal","area_sqm_declared":1043236.9,"note_zh":"分期为概念建议，非开发时序或审批结论"},"geometry":{"type":"Polygon","coordinates":[[[116.342,39.9935],[116.353,39.9935],[116.353,39.9835],[116.342,39.9835],[116.342,39.9935]]]}},{"type":"Feature","id":"PHASE-3","properties":{"id":"PHASE-3","layer":"PHASE","phase":"phase_3","name_zh":"远期：众智园花园街区（概念）","source_type":"agent_generated_design","confidence":"medium","geometry_role":"design_proposal","area_sqm_declared":1929201.9,"note_zh":"分期为概念建议，非开发时序或审批结论"},"geometry":{"type":"Polygon","coordinates":[[[116.343,40.026],[116.354,40.026],[116.354,40.0075],[116.343,40.0075],[116.343,40.026]]]}}]}