{"type":"FeatureCollection","name":"public_space","features":[{"type":"Feature","id":"PUBLIC-001","properties":{"id":"PUBLIC-001","layer":"PUBLIC_SPACE","name_zh":"北三环·上跨缝合广场（概念）","kind":"station_plaza","source_type":"agent_generated_design","confidence":"medium","geometry_role":"design_proposal","area_sqm_declared":24364.3},"geometry":{"type":"Polygon","coordinates":[[[116.341362,39.967107],[116.341379,39.965306],[116.33997,39.965298],[116.33992,39.967099],[116.341362,39.967107]]]}},{"type":"Feature","id":"PUBLIC-002","properties":{"id":"PUBLIC-002","layer":"PUBLIC_SPACE","name_zh":"大钟寺·涌现界面广场（概念）","kind":"station_plaza","source_type":"agent_generated_design","confidence":"medium","geometry_role":"design_proposal","area_sqm_declared":23604.7},"geometry":{"type":"Polygon","coordinates":[[[116.341362,39.965507],[116.341379,39.963706],[116.340014,39.963698],[116.339964,39.965499],[116.341362,39.965507]]]}},{"type":"Feature","id":"PUBLIC-003","properties":{"id":"PUBLIC-003","layer":"PUBLIC_SPACE","name_zh":"学院南路·南门户广场（概念）","kind":"station_plaza","source_type":"agent_generated_design","confidence":"medium","geometry_role":"design_proposal","area_sqm_declared":40000.0},"geometry":{"type":"Polygon","coordinates":[[[116.341838,39.955893],[116.341821,39.957694],[116.344162,39.957707],[116.344179,39.955906],[116.341838,39.955893]]]}},{"type":"Feature","id":"PUBLIC-004","properties":{"id":"PUBLIC-004","layer":"PUBLIC_SPACE","name_zh":"众智园·花园交往广场（概念）","kind":"district_center","source_type":"agent_generated_design","confidence":"medium","geometry_role":"design_proposal","area_sqm_declared":25600.0},"geometry":{"type":"Polygon","coordinates":[[[116.34757,40.015974],[116.347556,40.017415],[116.34943,40.017426],[116.349444,40.015985],[116.34757,40.015974]]]}},{"type":"Feature","id":"PUBLIC-005","properties":{"id":"PUBLIC-005","layer":"PUBLIC_SPACE","name_zh":"原点社区·策源广场（概念）","kind":"district_center","source_type":"agent_generated_design","confidence":"medium","geometry_role":"design_proposal","area_sqm_declared":25600.0},"geometry":{"type":"Polygon","coordinates":[[[116.34657,39.987774],[116.346557,39.989215],[116.34843,39.989226],[116.348443,39.987785],[116.34657,39.987774]]]}},{"type":"Feature","id":"PUBLIC-006","properties":{"id":"PUBLIC-006","layer":"PUBLIC_SPACE","name_zh":"清华园车站遗址·原点广场（概念）","kind":"heritage_node","source_type":"agent_generated_design","confidence":"medium","geometry_role":"design_proposal","area_sqm_declared":25600.0},"geometry":{"type":"Polygon","coordinates":[[[116.34207,39.984274],[116.342057,39.985715],[116.34393,39.985726],[116.343943,39.984285],[116.34207,39.984274]]]}},{"type":"Feature","id":"PUBLIC-007","properties":{"id":"PUBLIC-007","layer":"PUBLIC_SPACE","name_zh":"主脊南段·开源成果展示广场（概念）","kind":"linear_node","source_type":"agent_generated_design","confidence":"medium","geometry_role":"design_proposal","area_sqm_declared":40000.0},"geometry":{"type":"Polygon","coordinates":[[[116.340438,39.960593],[116.340421,39.962394],[116.342762,39.962407],[116.342779,39.960606],[116.340438,39.960593]]]}}]}