{"type":"FeatureCollection","name":"roads","features":[{"type":"Feature","id":"ROAD-001","properties":{"id":"ROAD-001","layer":"ROAD_CENTERLINE","road_class":"secondary","name_zh":"设计次干路","source_type":"agent_generated_design","confidence":"medium","geometry_role":"design_proposal"},"geometry":{"type":"LineString","coordinates":[[116.344726,39.939],[116.34389,40.0265]]}},{"type":"Feature","id":"ROAD-002","properties":{"id":"ROAD-002","layer":"ROAD_CENTERLINE","road_class":"secondary","name_zh":"设计次干路","source_type":"agent_generated_design","confidence":"medium","geometry_role":"design_proposal"},"geometry":{"type":"LineString","coordinates":[[116.349406,39.939],[116.348576,40.0265]]}},{"type":"Feature","id":"ROAD-003","properties":{"id":"ROAD-003","layer":"ROAD_CENTERLINE","road_class":"secondary","name_zh":"设计次干路","source_type":"agent_generated_design","confidence":"medium","geometry_role":"design_proposal"},"geometry":{"type":"LineString","coordinates":[[116.354086,39.939],[116.353647,39.985667]]}},{"type":"Feature","id":"ROAD-004","properties":{"id":"ROAD-004","layer":"ROAD_CENTERLINE","road_class":"secondary","name_zh":"设计次干路","source_type":"agent_generated_design","confidence":"medium","geometry_role":"design_proposal"},"geometry":{"type":"LineString","coordinates":[[116.353561,39.994765],[116.353262,40.0265]]}},{"type":"Feature","id":"ROAD-005","properties":{"id":"ROAD-005","layer":"ROAD_CENTERLINE","road_class":"branch","name_zh":"设计支路","source_type":"agent_generated_design","confidence":"medium","geometry_role":"design_proposal"},"geometry":{"type":"LineString","coordinates":[[116.340602,39.94252],[116.3553,39.942602]]}},{"type":"Feature","id":"ROAD-006","properties":{"id":"ROAD-006","layer":"ROAD_CENTERLINE","road_class":"branch","name_zh":"设计支路","source_type":"agent_generated_design","confidence":"medium","geometry_role":"design_proposal"},"geometry":{"type":"LineString","coordinates":[[116.340502,39.946122],[116.3553,39.946205]]}},{"type":"Feature","id":"ROAD-007","properties":{"id":"ROAD-007","layer":"ROAD_CENTERLINE","road_class":"branch","name_zh":"设计支路","source_type":"agent_generated_design","confidence":"medium","geometry_role":"design_proposal"},"geometry":{"type":"LineString","coordinates":[[116.340402,39.949724],[116.3553,39.949807]]}},{"type":"Feature","id":"ROAD-008","properties":{"id":"ROAD-008","layer":"ROAD_CENTERLINE","road_class":"branch","name_zh":"设计支路","source_type":"agent_generated_design","confidence":"medium","geometry_role":"design_proposal"},"geometry":{"type":"LineString","coordinates":[[116.340302,39.953326],[116.3553,39.95341]]}},{"type":"Feature","id":"ROAD-009","properties":{"id":"ROAD-009","layer":"ROAD_CENTERLINE","road_class":"branch","name_zh":"设计支路","source_type":"agent_generated_design","confidence":"medium","geometry_role":"design_proposal"},"geometry":{"type":"LineString","coordinates":[[116.340202,39.956927],[116.3553,39.957012]]}},{"type":"Feature","id":"ROAD-010","properties":{"id":"ROAD-010","layer":"ROAD_CENTERLINE","road_class":"branch","name_zh":"设计支路","source_type":"agent_generated_design","confidence":"medium","geometry_role":"design_proposal"},"geometry":{"type":"LineString","coordinates":[[116.340102,39.960529],[116.3553,39.960615]]}},{"type":"Feature","id":"ROAD-011","properties":{"id":"ROAD-011","layer":"ROAD_CENTERLINE","road_class":"branch","name_zh":"设计支路","source_type":"agent_generated_design","confidence":"medium","geometry_role":"design_proposal"},"geometry":{"type":"LineString","coordinates":[[116.340002,39.964131],[116.3553,39.964217]]}},{"type":"Feature","id":"ROAD-012","properties":{"id":"ROAD-012","layer":"ROAD_CENTERLINE","road_class":"branch","name_zh":"设计支路","source_type":"agent_generated_design","confidence":"medium","geometry_role":"design_proposal"},"geometry":{"type":"LineString","coordinates":[[116.339902,39.967733],[116.355075,39.967818]]}},{"type":"Feature","id":"ROAD-013","properties":{"id":"ROAD-013","layer":"ROAD_CENTERLINE","road_class":"branch","name_zh":"设计支路","source_type":"agent_generated_design","confidence":"medium","geometry_role":"design_proposal"},"geometry":{"type":"LineString","coordinates":[[116.339802,39.971335],[116.354787,39.971419]]}},{"type":"Feature","id":"ROAD-014","properties":{"id":"ROAD-014","layer":"ROAD_CENTERLINE","road_class":"branch","name_zh":"设计支路","source_type":"agent_generated_design","confidence":"medium","geometry_role":"design_proposal"},"geometry":{"type":"LineString","coordinates":[[116.339702,39.974937],[116.354499,39.97502]]}},{"type":"Feature","id":"ROAD-015","properties":{"id":"ROAD-015","layer":"ROAD_CENTERLINE","road_class":"branch","name_zh":"设计支路","source_type":"agent_generated_design","confidence":"medium","geometry_role":"design_proposal"},"geometry":{"type":"LineString","coordinates":[[116.339928,39.978541],[116.354211,39.978621]]}},{"type":"Feature","id":"ROAD-016","properties":{"id":"ROAD-016","layer":"ROAD_CENTERLINE","road_class":"branch","name_zh":"设计支路","source_type":"agent_generated_design","confidence":"medium","geometry_role":"design_proposal"},"geometry":{"type":"LineString","coordinates":[[116.340161,39.982144],[116.353922,39.982222]]}},{"type":"Feature","id":"ROAD-017","properties":{"id":"ROAD-017","layer":"ROAD_CENTERLINE","road_class":"branch","name_zh":"设计支路","source_type":"agent_generated_design","confidence":"medium","geometry_role":"design_proposal"},"geometry":{"type":"LineString","coordinates":[[116.340393,39.985748],[116.353634,39.985823]]}},{"type":"Feature","id":"ROAD-018","properties":{"id":"ROAD-018","layer":"ROAD_CENTERLINE","road_class":"branch","name_zh":"设计支路","source_type":"agent_generated_design","confidence":"medium","geometry_role":"design_proposal"},"geometry":{"type":"LineString","coordinates":[[116.340626,39.989352],[116.353346,39.989424]]}},{"type":"Feature","id":"ROAD-019","properties":{"id":"ROAD-019","layer":"ROAD_CENTERLINE","road_class":"branch","name_zh":"设计支路","source_type":"agent_generated_design","confidence":"medium","geometry_role":"design_proposal"},"geometry":{"type":"LineString","coordinates":[[116.340858,39.992956],[116.353466,39.993027]]}},{"type":"Feature","id":"ROAD-020","properties":{"id":"ROAD-020","layer":"ROAD_CENTERLINE","road_class":"branch","name_zh":"设计支路","source_type":"agent_generated_design","confidence":"medium","geometry_role":"design_proposal"},"geometry":{"type":"LineString","coordinates":[[116.341091,39.996559],[116.353663,39.99663]]}},{"type":"Feature","id":"ROAD-021","properties":{"id":"ROAD-021","layer":"ROAD_CENTERLINE","road_class":"branch","name_zh":"设计支路","source_type":"agent_generated_design","confidence":"medium","geometry_role":"design_proposal"},"geometry":{"type":"LineString","coordinates":[[116.341323,40.000163],[116.353861,40.000234]]}},{"type":"Feature","id":"ROAD-022","properties":{"id":"ROAD-022","layer":"ROAD_CENTERLINE","road_class":"branch","name_zh":"设计支路","source_type":"agent_generated_design","confidence":"medium","geometry_role":"design_proposal"},"geometry":{"type":"LineString","coordinates":[[116.341556,40.003767],[116.354058,40.003837]]}},{"type":"Feature","id":"ROAD-023","properties":{"id":"ROAD-023","layer":"ROAD_CENTERLINE","road_class":"branch","name_zh":"设计支路","source_type":"agent_generated_design","confidence":"medium","geometry_role":"design_proposal"},"geometry":{"type":"LineString","coordinates":[[116.341767,40.007371],[116.354255,40.007441]]}},{"type":"Feature","id":"ROAD-024","properties":{"id":"ROAD-024","layer":"ROAD_CENTERLINE","road_class":"branch","name_zh":"设计支路","source_type":"agent_generated_design","confidence":"medium","geometry_role":"design_proposal"},"geometry":{"type":"LineString","coordinates":[[116.341943,40.010974],[116.354453,40.011044]]}},{"type":"Feature","id":"ROAD-025","properties":{"id":"ROAD-025","layer":"ROAD_CENTERLINE","road_class":"branch","name_zh":"设计支路","source_type":"agent_generated_design","confidence":"medium","geometry_role":"design_proposal"},"geometry":{"type":"LineString","coordinates":[[116.342118,40.014577],[116.35465,40.014648]]}},{"type":"Feature","id":"ROAD-026","properties":{"id":"ROAD-026","layer":"ROAD_CENTERLINE","road_class":"branch","name_zh":"设计支路","source_type":"agent_generated_design","confidence":"medium","geometry_role":"design_proposal"},"geometry":{"type":"LineString","coordinates":[[116.342294,40.018181],[116.354848,40.018251]]}},{"type":"Feature","id":"ROAD-027","properties":{"id":"ROAD-027","layer":"ROAD_CENTERLINE","road_class":"branch","name_zh":"设计支路","source_type":"agent_generated_design","confidence":"medium","geometry_role":"design_proposal"},"geometry":{"type":"LineString","coordinates":[[116.34247,40.021784],[116.355045,40.021855]]}},{"type":"Feature","id":"ROAD-028","properties":{"id":"ROAD-028","layer":"ROAD_CENTERLINE","road_class":"branch","name_zh":"设计支路","source_type":"agent_generated_design","confidence":"medium","geometry_role":"design_proposal"},"geometry":{"type":"LineString","coordinates":[[116.342646,40.025388],[116.355243,40.025458]]}},{"type":"Feature","id":"ROAD-029","properties":{"id":"ROAD-029","layer":"ROAD_CENTERLINE","road_class":"greenway","name_zh":"京张遗址公园慢行主脊","source_type":"agent_inferred_from_public_data","confidence":"medium","geometry_role":"design_proposal"},"geometry":{"type":"LineString","coordinates":[[116.343,39.942],[116.3419,39.9568],[116.3391,39.9662],[116.3341,39.975],[116.3324,39.9849],[116.3318,39.9915],[116.3315,39.9992],[116.334,40.012]]}},{"type":"Feature","id":"ROAD-030","properties":{"id":"ROAD-030","layer":"ROAD_CENTERLINE","road_class":"pedestrian","name_zh":"断点缝合步道（概念）","source_type":"agent_generated_design","confidence":"medium","geometry_role":"design_proposal"},"geometry":{"type":"LineString","coordinates":[[116.329636,39.999229],[116.333384,39.999251]]}},{"type":"Feature","id":"ROAD-031","properties":{"id":"ROAD-031","layer":"ROAD_CENTERLINE","road_class":"pedestrian","name_zh":"断点缝合步道（概念）","source_type":"agent_generated_design","confidence":"medium","geometry_role":"design_proposal"},"geometry":{"type":"LineString","coordinates":[[116.329927,39.991499],[116.333673,39.991521]]}},{"type":"Feature","id":"ROAD-032","properties":{"id":"ROAD-032","layer":"ROAD_CENTERLINE","road_class":"pedestrian","name_zh":"断点缝合步道（概念）","source_type":"agent_generated_design","confidence":"medium","geometry_role":"design_proposal"},"geometry":{"type":"LineString","coordinates":[[116.330537,39.984859],[116.334283,39.984881]]}},{"type":"Feature","id":"ROAD-033","properties":{"id":"ROAD-033","layer":"ROAD_CENTERLINE","road_class":"pedestrian","name_zh":"断点缝合步道（概念）","source_type":"agent_generated_design","confidence":"medium","geometry_role":"design_proposal"},"geometry":{"type":"LineString","coordinates":[[116.332217,39.975029],[116.335963,39.975051]]}},{"type":"Feature","id":"ROAD-034","properties":{"id":"ROAD-034","layer":"ROAD_CENTERLINE","road_class":"pedestrian","name_zh":"断点缝合步道（概念）","source_type":"agent_generated_design","confidence":"medium","geometry_role":"design_proposal"},"geometry":{"type":"LineString","coordinates":[[116.337227,39.966189],[116.340973,39.966211]]}},{"type":"Feature","id":"ROAD-035","properties":{"id":"ROAD-035","layer":"ROAD_CENTERLINE","road_class":"pedestrian","name_zh":"断点缝合步道（概念）","source_type":"agent_generated_design","confidence":"medium","geometry_role":"design_proposal"},"geometry":{"type":"LineString","coordinates":[[116.340028,39.956809],[116.343772,39.956831]]}},{"type":"Feature","id":"ROAD-036","properties":{"id":"ROAD-036","layer":"ROAD_CENTERLINE","road_class":"pedestrian","name_zh":"断点缝合步道（概念）","source_type":"agent_generated_design","confidence":"medium","geometry_role":"design_proposal"},"geometry":{"type":"LineString","coordinates":[[116.341038,39.943169],[116.344782,39.943191]]}},{"type":"Feature","id":"ROAD-037","properties":{"id":"ROAD-037","layer":"ROAD_CENTERLINE","road_class":"transit_connection","name_zh":"STA-WUDAOKOU 接驳支路（概念）","source_type":"agent_generated_design","confidence":"medium","geometry_role":"design_proposal"},"geometry":{"type":"LineString","coordinates":[[116.3317,39.9915],[116.3318,39.991502]]}},{"type":"Feature","id":"ROAD-038","properties":{"id":"ROAD-038","layer":"ROAD_CENTERLINE","road_class":"transit_connection","name_zh":"STA-DAZHONGSI 接驳支路（概念）","source_type":"agent_generated_design","confidence":"medium","geometry_role":"design_proposal"},"geometry":{"type":"LineString","coordinates":[[116.339,39.9653],[116.33935,39.965362]]}},{"type":"Feature","id":"ROAD-039","properties":{"id":"ROAD-039","layer":"ROAD_CENTERLINE","road_class":"transit_connection","name_zh":"STA-ZHICHUNLU 接驳支路（概念）","source_type":"agent_generated_design","confidence":"medium","geometry_role":"design_proposal"},"geometry":{"type":"LineString","coordinates":[[116.3344,39.9751],[116.334088,39.975068]]}},{"type":"Feature","id":"ROAD-040","properties":{"id":"ROAD-040","layer":"ROAD_CENTERLINE","road_class":"transit_connection","name_zh":"STA-QHDXK 接驳支路（概念）","source_type":"agent_generated_design","confidence":"medium","geometry_role":"design_proposal"},"geometry":{"type":"LineString","coordinates":[[116.3336,39.9993],[116.331565,39.999535]]}},{"type":"Feature","id":"ROAD-041","properties":{"id":"ROAD-041","layer":"ROAD_CENTERLINE","road_class":"transit_connection","name_zh":"STA-BEIJINGBEI 接驳支路（概念）","source_type":"agent_generated_design","confidence":"medium","geometry_role":"design_proposal"},"geometry":{"type":"LineString","coordinates":[[116.3462,39.9459],[116.342722,39.945747]]}}]}