{
 "type": "FeatureCollection",
 "name": "green_space",
 "features": [
  {
   "type": "Feature",
   "id": "GS-000",
   "properties": {
    "id": "GS-000",
    "layer": "GREEN_SPACE",
    "land_use_code": "1401",
    "label_zh": "概念绿地(环线绿带)",
    "official_boundary": false,
    "geometry_role": "design_proposal",
    "confidence": "low",
    "source_type": "agent_generated_design"
   },
   "geometry": {
    "type": "Polygon",
    "coordinates": [
     [
      [
       116.34679807242125,
       39.988523047761575
      ],
      [
       116.34779749407592,
       40.01676442592476
      ],
      [
       116.34780194240555,
       40.0168121684426
      ],
      [
       116.34781186820159,
       40.01685942097773
      ],
      [
       116.34782719359087,
       40.01690581275506
      ],
      [
       116.34784779833068,
       40.01695097975287
      ],
      [
       116.3502188196198,
       40.021493122869025
      ],
      [
       116.35024803226251,
       40.02154191416348
      ],
      [
       116.35028340112501,
       40.021588234606334
      ],
      [
       116.35032457673672,
       40.021631626501346
      ],
      [
       116.35037115224769,
       40.021671661088575
      ],
      [
       116.35042266744864,
       40.021707942781305
      ],
      [
       116.35047861331812,
       40.021740113075005
      ],
      [
       116.35053843705211,
       40.021767854089966
      ],
      [
       116.35060154752667,
       40.0217908917125
      ],
      [
       116.35066732113879,
       40.021808998303655
      ],
      [
       116.35073510796892,
       40.02182199494871
      ],
      [
       116.350804238203,
       40.021829753225155
      ],
      [
       116.35087402875169,
       40.02183219647183
      ],
      [
       116.3509437900004,
       40.02182930054635
      ],
      [
       116.35101283262408,
       40.02182109406382
      ],
      [
       116.35108047439896,
       40.021807658114035
      ],
      [
       116.35114604694432,
       40.021789125460074
      ],
      [
       116.35120890232726,
       40.021765679226455
      ],
      [
       116.35126841946533,
       40.02173755108952
      ],
      [
       116.35132401026391,
       40.02170501898804
      ],
      [
       116.35137512542744,
       40.02166840437666
      ],
      [
       116.35142125988715,
       40.0216280690495
      ],
      [
       116.3514619577917,
       40.02158441156487
      ],
      [
       116.3514968170113,
       40.02153786330698
      ],
      [
       116.35152549311105,
       40.02148888422333
      ],
      [
       116.35154770275389,
       40.02143795827945
      ],
      [
       116.35156322649985,
       40.021385588677
      ],
      [
       116.35157191097386,
       40.021332292881254
      ],
      [
       116.35157367038055,
       40.02127859750814
      ],
      [
       116.3492018422639,
       39.946906895413015
      ],
      [
       116.34919639725092,
       39.9468516911427
      ],
      [
       116.34918364188289,
       39.946797205442834
      ],
      [
       116.3491637100744,
       39.946744010267906
      ],
      [
       116.34913681107211,
       39.94669266402401
      ],
      [
       116.34910322725786,
       39.94664370570724
      ],
      [
       116.34906331118358,
       39.94659764924581
      ],
      [
       116.34901748187016,
       39.946554978105375
      ],
      [
       116.34896622040854,
       39.946516140214186
      ],
      [
       116.34891006490922,
       39.946481543261356
      ],
      [
       116.34884960485378,
       39.94645155041735
      ],
      [
       116.34878547490676,
       39.94642647652206
      ],
      [
       116.34453443018184,
       39.944970053111845
      ],
      [
       116.34447063557565,
       39.94495100475496
      ],
      [
       116.34440473475462,
       39.94493682713036
      ],
      [
       116.34433735377505,
       39.944927654924804
      ],
      [
       116.34426913275358,
       39.944923575273776
      ],
      [
       116.34420071978668,
       39.94492462693359
      ],
      [
       116.34413276479414,
       39.944930799913415
      ],
      [
       116.34406591334522,
       39.94494203557014
      ],
      [
       116.34400080052633,
       39.94495822716536
      ],
      [
       116.34393804490804,
       39.94497922087941
      ],
      [
       116.34387824266908,
       39.945004817272554
      ],
      [
       116.34382196193287,
       39.94503477317948
      ],
      [
       116.34376973737056,
       39.94506880401929
      ],
      [
       116.34372206512194,
       39.945106586498795
      ],
      [
       116.34367939808187,
       39.94514776168373
      ],
      [
       116.34364214159785,
       39.945191938408385
      ],
      [
       116.34361064961902,
       39.94523869699159
      ],
      [
       116.34358522133331,
       39.945287593223526
      ],
      [
       116.3435660983248,
       39.9453381625856
      ],
      [
       116.34355346227815,
       39.94538992466336
      ],
      [
       116.3435474332522,
       39.945442387710294
      ],
      [
       116.34354806853874,
       39.94549505331955
      ],
      [
       116.34679807242125,
       39.988523047761575
      ]
     ],
     [
      [
       116.34780902591821,
       39.94727489295569
      ],
      [
       116.3500729974338,
       40.018312417669605
      ],
      [
       116.34919909006507,
       40.01663827242386
      ],
      [
       116.3482022212767,
       39.988485306170354
      ],
      [
       116.3482012968729,
       39.98846864528427
      ],
      [
       116.34501667905283,
       39.94631823266328
      ],
      [
       116.34780902591821,
       39.94727489295569
      ]
     ]
    ]
   }
  },
  {
   "type": "Feature",
   "id": "GS-001",
   "properties": {
    "id": "GS-001",
    "layer": "GREEN_SPACE",
    "land_use_code": "1401",
    "label_zh": "概念绿地",
    "official_boundary": false,
    "geometry_role": "design_proposal",
    "confidence": "low",
    "source_type": "agent_generated_design"
   },
   "geometry": {
    "type": "Polygon",
    "coordinates": [
     [
      [
       116.34134818316683,
       39.955490185647314
      ],
      [
       116.34133003969906,
       39.95738137644013
      ],
      [
       116.34484076042138,
       39.957401270578686
      ],
      [
       116.3448588072011,
       39.95551007846066
      ],
      [
       116.34134818316683,
       39.955490185647314
      ]
     ]
    ]
   }
  },
  {
   "type": "Feature",
   "id": "GS-002",
   "properties": {
    "id": "GS-002",
    "layer": "GREEN_SPACE",
    "land_use_code": "1401",
    "label_zh": "概念绿地",
    "official_boundary": false,
    "geometry_role": "design_proposal",
    "confidence": "low",
    "source_type": "agent_generated_design"
   },
   "geometry": {
    "type": "Polygon",
    "coordinates": [
     [
      [
       116.3439529994523,
       39.98297426154192
      ],
      [
       116.34392767394516,
       39.98562191726958
      ],
      [
       116.34884470961379,
       39.98564964528902
      ],
      [
       116.34886984534782,
       39.983001986976
      ],
      [
       116.3439529994523,
       39.98297426154192
      ]
     ]
    ]
   }
  },
  {
   "type": "Feature",
   "id": "GS-003",
   "properties": {
    "id": "GS-003",
    "layer": "GREEN_SPACE",
    "land_use_code": "1401",
    "label_zh": "概念绿地",
    "official_boundary": false,
    "geometry_role": "design_proposal",
    "confidence": "low",
    "source_type": "agent_generated_design"
   },
   "geometry": {
    "type": "Polygon",
    "coordinates": [
     [
      [
       116.34706010921862,
       39.957918541607185
      ],
      [
       116.34702773017473,
       39.96132268704718
      ],
      [
       116.3533473999468,
       39.96135811225271
      ],
      [
       116.35337946566966,
       39.957953962565306
      ],
      [
       116.34706010921862,
       39.957918541607185
      ]
     ]
    ]
   }
  },
  {
   "type": "Feature",
   "id": "GS-004",
   "properties": {
    "id": "GS-004",
    "layer": "GREEN_SPACE",
    "land_use_code": "1401",
    "label_zh": "概念绿地",
    "official_boundary": false,
    "geometry_role": "design_proposal",
    "confidence": "low",
    "source_type": "agent_generated_design"
   },
   "geometry": {
    "type": "Polygon",
    "coordinates": [
     [
      [
       116.34211225311695,
       39.9864946309429
      ],
      [
       116.34209411079767,
       39.98838581188022
      ],
      [
       116.34560641869152,
       39.98840569558088
      ],
      [
       116.34562446417279,
       39.986514513319314
      ],
      [
       116.34211225311695,
       39.9864946309429
      ]
     ]
    ]
   }
  },
  {
   "type": "Feature",
   "id": "GS-005",
   "properties": {
    "id": "GS-005",
    "layer": "GREEN_SPACE",
    "land_use_code": "1401",
    "label_zh": "概念绿地",
    "official_boundary": false,
    "geometry_role": "design_proposal",
    "confidence": "low",
    "source_type": "agent_generated_design"
   },
   "geometry": {
    "type": "Polygon",
    "coordinates": [
     [
      [
       116.34522021120671,
       39.96143898222582
      ],
      [
       116.34519495387475,
       39.96408664849118
      ],
      [
       116.35011044775247,
       39.964114310482834
      ],
      [
       116.3501355155152,
       39.961466641637905
      ],
      [
       116.34522021120671,
       39.96143898222582
      ]
     ]
    ]
   }
  },
  {
   "type": "Feature",
   "id": "GS-006",
   "properties": {
    "id": "GS-006",
    "layer": "GREEN_SPACE",
    "land_use_code": "1401",
    "label_zh": "概念绿地",
    "official_boundary": false,
    "geometry_role": "design_proposal",
    "confidence": "low",
    "source_type": "agent_generated_design"
   },
   "geometry": {
    "type": "Polygon",
    "coordinates": [
     [
      [
       116.34782677338175,
       39.98892295730587
      ],
      [
       116.34779439684556,
       39.99232708500281
      ],
      [
       116.35342918454597,
       39.992358656386635
      ],
      [
       116.3533,
       39.989999999999995
      ],
      [
       116.35338370454524,
       39.988954092136815
      ],
      [
       116.34782677338175,
       39.98892295730587
      ]
     ]
    ]
   }
  }
 ]
}