{
 "type": "FeatureCollection",
 "name": "land_use",
 "features": [
  {
   "type": "Feature",
   "id": "LU-ZHON",
   "properties": {
    "id": "LU-ZHON",
    "layer": "LAND_USE",
    "land_use_code": "0802",
    "label_zh": "科研用地",
    "official_boundary": false,
    "geometry_role": "design_proposal",
    "confidence": "low",
    "source_type": "agent_generated_design"
   },
   "geometry": {
    "type": "Polygon",
    "coordinates": [
     [
      [
       116.34299999999999,
       40.025999999999996
      ],
      [
       116.354,
       40.02600000000001
      ],
      [
       116.354,
       40.00749999999998
      ],
      [
       116.34299999999999,
       40.0075
      ],
      [
       116.34299999999999,
       40.025999999999996
      ]
     ]
    ]
   }
  },
  {
   "type": "Feature",
   "id": "LU-BEIJ",
   "properties": {
    "id": "LU-BEIJ",
    "layer": "LAND_USE",
    "land_use_code": "0902",
    "label_zh": "商务金融用地",
    "official_boundary": false,
    "geometry_role": "design_proposal",
    "confidence": "low",
    "source_type": "agent_generated_design"
   },
   "geometry": {
    "type": "Polygon",
    "coordinates": [
     [
      [
       116.34200000000001,
       39.99349999999998
      ],
      [
       116.353,
       39.99349999999998
      ],
      [
       116.353,
       39.9835
      ],
      [
       116.34200000000001,
       39.98349999999998
      ],
      [
       116.34200000000001,
       39.99349999999998
      ]
     ]
    ]
   }
  },
  {
   "type": "Feature",
   "id": "LU-DAZH",
   "properties": {
    "id": "LU-DAZH",
    "layer": "LAND_USE",
    "land_use_code": "0901",
    "label_zh": "商业用地",
    "official_boundary": false,
    "geometry_role": "design_proposal",
    "confidence": "low",
    "source_type": "agent_generated_design"
   },
   "geometry": {
    "type": "Polygon",
    "coordinates": [
     [
      [
       116.34200000000001,
       39.94984
      ],
      [
       116.35500000000002,
       39.94983999999999
      ],
      [
       116.35500000000002,
       39.944
      ],
      [
       116.34200000000001,
       39.943999999999996
      ],
      [
       116.34200000000001,
       39.94984
      ]
     ]
    ]
   }
  },
  {
   "type": "Feature",
   "id": "LU-CORRIDOR",
   "properties": {
    "id": "LU-CORRIDOR",
    "layer": "LAND_USE",
    "land_use_code": "1401",
    "label_zh": "公园绿地(京张AI骑行绿道环概念)",
    "official_boundary": false,
    "geometry_role": "design_proposal",
    "confidence": "low",
    "source_type": "agent_generated_design"
   },
   "geometry": {
    "type": "MultiPolygon",
    "coordinates": [
     [
      [
       [
        116.34768634586285,
        39.94984017937087
       ],
       [
        116.34685294949365,
        39.98350012869025
       ],
       [
        116.34760459294164,
        39.98350013044919
       ],
       [
        116.3496631826222,
        39.983500110309954
       ],
       [
        116.35049520040607,
        39.94984016505673
       ],
       [
        116.34912006746794,
        39.949840180567925
       ],
       [
        116.34768634586285,
        39.94984017937087
       ]
      ]
     ],
     [
      [
       [
        116.34612099164033,
        40.0075001060963
       ],
       [
        116.34893254784427,
        40.007500129708035
       ],
       [
        116.34937996035022,
        39.993500115256865
       ],
       [
        116.34656897755072,
        39.99350012676475
       ],
       [
        116.34612099164033,
        40.0075001060963
       ]
      ]
     ]
    ]
   }
  },
  {
   "type": "Feature",
   "id": "LU-G00-00",
   "properties": {
    "id": "LU-G00-00",
    "layer": "LAND_USE",
    "land_use_code": "0802",
    "label_zh": "科研用地",
    "official_boundary": false,
    "geometry_role": "design_proposal",
    "confidence": "low",
    "source_type": "agent_generated_design"
   },
   "geometry": {
    "type": "Polygon",
    "coordinates": [
     [
      [
       116.34200000027236,
       39.99321929756138
      ],
      [
       116.34200000000001,
       39.98349999999998
      ],
      [
       116.34315713666506,
       39.98350004913367
      ],
      [
       116.34333226481712,
       39.965204196379325
      ],
      [
       116.33997276603202,
       39.9651851167327
      ],
      [
       116.3397,
       39.975
      ],
      [
       116.34087482873106,
       39.99321290418487
      ],
      [
       116.34200000027236,
       39.99321929756138
      ]
     ]
    ]
   }
  },
  {
   "type": "Feature",
   "id": "LU-G00-01",
   "properties": {
    "id": "LU-G00-01",
    "layer": "LAND_USE",
    "land_use_code": "0802",
    "label_zh": "科研用地",
    "official_boundary": false,
    "geometry_role": "design_proposal",
    "confidence": "low",
    "source_type": "agent_generated_design"
   },
   "geometry": {
    "type": "Polygon",
    "coordinates": [
     [
      [
       116.34353503006331,
       39.944000075902935
      ],
      [
       116.34358281069728,
       39.93900014567839
      ],
      [
       116.34070000000001,
       39.938999999999986
      ],
      [
       116.33997276603202,
       39.9651851167327
      ],
      [
       116.34333226481712,
       39.965204196379325
      ],
      [
       116.34347920636057,
       39.94984007350137
      ],
      [
       116.34200000000001,
       39.94984
      ],
      [
       116.34200000000001,
       39.943999999999996
      ],
      [
       116.34353503006331,
       39.944000075902935
      ]
     ]
    ]
   }
  },
  {
   "type": "Feature",
   "id": "LU-G01-00",
   "properties": {
    "id": "LU-G01-00",
    "layer": "LAND_USE",
    "land_use_code": "0902",
    "label_zh": "商务金融用地",
    "official_boundary": false,
    "geometry_role": "design_proposal",
    "confidence": "low",
    "source_type": "agent_generated_design"
   },
   "geometry": {
    "type": "Polygon",
    "coordinates": [
     [
      [
       116.34315713666506,
       39.98350004913367
      ],
      [
       116.34353100840637,
       39.9835000625395
      ],
      [
       116.34467597532033,
       39.98350009609229
      ],
      [
       116.34685294949365,
       39.98350012869025
      ],
      [
       116.34685945710524,
       39.98323745728055
      ],
      [
       116.34703089944603,
       39.965225089476405
      ],
      [
       116.34333226481712,
       39.965204196379325
      ],
      [
       116.34315713666506,
       39.98350004913367
      ]
     ]
    ]
   }
  },
  {
   "type": "Feature",
   "id": "LU-G01-01",
   "properties": {
    "id": "LU-G01-01",
    "layer": "LAND_USE",
    "land_use_code": "0902",
    "label_zh": "商务金融用地",
    "official_boundary": false,
    "geometry_role": "design_proposal",
    "confidence": "low",
    "source_type": "agent_generated_design"
   },
   "geometry": {
    "type": "Polygon",
    "coordinates": [
     [
      [
       116.34347920636057,
       39.94984007350137
      ],
      [
       116.34333226481712,
       39.965204196379325
      ],
      [
       116.34703089944603,
       39.965225089476405
      ],
      [
       116.34717721104428,
       39.94984017467941
      ],
      [
       116.3450528015265,
       39.949840130973556
      ],
      [
       116.34397976700481,
       39.94984009409989
      ],
      [
       116.34347920636057,
       39.94984007350137
      ]
     ]
    ]
   }
  },
  {
   "type": "Feature",
   "id": "LU-G02-00",
   "properties": {
    "id": "LU-G02-00",
    "layer": "LAND_USE",
    "land_use_code": "0901",
    "label_zh": "商业用地",
    "official_boundary": false,
    "geometry_role": "design_proposal",
    "confidence": "low",
    "source_type": "agent_generated_design"
   },
   "geometry": {
    "type": "Polygon",
    "coordinates": [
     [
      [
       116.3553,
       39.939
      ],
      [
       116.35290674559754,
       39.93900012599234
      ],
      [
       116.3528596432969,
       39.94400010024676
      ],
      [
       116.35500000000002,
       39.944
      ],
      [
       116.35500000000002,
       39.94983999999999
      ],
      [
       116.35280461255606,
       39.9498401023068
      ],
      [
       116.35265926387008,
       39.96525665691655
      ],
      [
       116.35527830829979,
       39.96527125300529
      ],
      [
       116.3553,
       39.965
      ],
      [
       116.3553,
       39.939
      ]
     ]
    ]
   }
  },
  {
   "type": "Feature",
   "id": "LU-G02-01",
   "properties": {
    "id": "LU-G02-01",
    "layer": "LAND_USE",
    "land_use_code": "0901",
    "label_zh": "商业用地",
    "official_boundary": false,
    "geometry_role": "design_proposal",
    "confidence": "low",
    "source_type": "agent_generated_design"
   },
   "geometry": {
    "type": "Polygon",
    "coordinates": [
     [
      [
       116.34299999999999,
       40.0075
      ],
      [
       116.34612099164033,
       40.0075001060963
      ],
      [
       116.34656897755072,
       39.99350012676475
      ],
      [
       116.3430613486347,
       39.9935000455077
      ],
      [
       116.34274490738854,
       40.026500002432904
      ],
      [
       116.34644704816269,
       40.02650014314067
      ],
      [
       116.34645181990415,
       40.026000112428086
      ],
      [
       116.34299999999999,
       40.025999999999996
      ],
      [
       116.34299999999999,
       40.0075
      ]
     ]
    ]
   }
  },
  {
   "type": "Feature",
   "id": "LU-G03-00",
   "properties": {
    "id": "LU-G03-00",
    "layer": "LAND_USE",
    "land_use_code": "0803",
    "label_zh": "文化用地",
    "official_boundary": false,
    "geometry_role": "design_proposal",
    "confidence": "low",
    "source_type": "agent_generated_design"
   },
   "geometry": {
    "type": "Polygon",
    "coordinates": [
     [
      [
       116.3524871185406,
       39.98350002320312
      ],
      [
       116.35265926387008,
       39.96525665691655
      ],
      [
       116.35011461198158,
       39.96524241874219
      ],
      [
       116.3496631826222,
       39.983500110309954
      ],
      [
       116.3524871185406,
       39.98350002320312
      ]
     ]
    ]
   }
  },
  {
   "type": "Feature",
   "id": "LU-G03-01",
   "properties": {
    "id": "LU-G03-01",
    "layer": "LAND_USE",
    "land_use_code": "0803",
    "label_zh": "文化用地",
    "official_boundary": false,
    "geometry_role": "design_proposal",
    "confidence": "low",
    "source_type": "agent_generated_design"
   },
   "geometry": {
    "type": "Polygon",
    "coordinates": [
     [
      [
       116.35300000021003,
       39.99328122561409
      ],
      [
       116.35347986283632,
       39.99328390338919
      ],
      [
       116.3533,
       39.989999999999995
      ],
      [
       116.35527830829979,
       39.96527125300529
      ],
      [
       116.35265926387008,
       39.96525665691655
      ],
      [
       116.3524871185406,
       39.98350002320312
      ],
      [
       116.353,
       39.9835
      ],
      [
       116.35300000021003,
       39.99328122561409
      ]
     ]
    ]
   }
  },
  {
   "type": "Feature",
   "id": "LU-G04-00",
   "properties": {
    "id": "LU-G04-00",
    "layer": "LAND_USE",
    "land_use_code": "0701",
    "label_zh": "城镇住宅用地",
    "official_boundary": false,
    "geometry_role": "design_proposal",
    "confidence": "low",
    "source_type": "agent_generated_design"
   },
   "geometry": {
    "type": "Polygon",
    "coordinates": [
     [
      [
       116.35226041289164,
       40.00750006950442
      ],
      [
       116.35239269115586,
       39.993500027229324
      ],
      [
       116.34949675618189,
       39.99350011330344
      ],
      [
       116.34936388661998,
       40.00750012729532
      ],
      [
       116.34994092664789,
       40.0075001215571
      ],
      [
       116.35226041289164,
       40.00750006950442
      ]
     ]
    ]
   }
  },
  {
   "type": "Feature",
   "id": "LU-G04-01",
   "properties": {
    "id": "LU-G04-01",
    "layer": "LAND_USE",
    "land_use_code": "0701",
    "label_zh": "城镇住宅用地",
    "official_boundary": false,
    "geometry_role": "design_proposal",
    "confidence": "low",
    "source_type": "agent_generated_design"
   },
   "geometry": {
    "type": "Polygon",
    "coordinates": [
     [
      [
       116.354,
       40.02600000000001
      ],
      [
       116.35208547457388,
       40.02600007505734
      ],
      [
       116.35208074373674,
       40.02650013031019
      ],
      [
       116.3553,
       40.0265
      ],
      [
       116.35347986283632,
       39.99328390338919
      ],
      [
       116.35300000021003,
       39.99328122561409
      ],
      [
       116.353,
       39.99349999999998
      ],
      [
       116.35239269115586,
       39.993500027229324
      ],
      [
       116.35226041289164,
       40.00750006950442
      ],
      [
       116.354,
       40.00749999999998
      ],
      [
       116.354,
       40.02600000000001
      ]
     ]
    ]
   }
  },
  {
   "type": "Feature",
   "id": "LU-G05-00",
   "properties": {
    "id": "LU-G05-00",
    "layer": "LAND_USE",
    "land_use_code": "1207",
    "label_zh": "物流仓储与交通场站用地",
    "official_boundary": false,
    "geometry_role": "design_proposal",
    "confidence": "low",
    "source_type": "agent_generated_design"
   },
   "geometry": {
    "type": "Polygon",
    "coordinates": [
     [
      [
       116.35048731199403,
       39.95015949556818
      ],
      [
       116.35011461198158,
       39.96524241874219
      ],
      [
       116.35265926387008,
       39.96525665691655
      ],
      [
       116.35280461255606,
       39.9498401023068
      ],
      [
       116.3511918966953,
       39.94984015097255
      ],
      [
       116.35111220719313,
       39.94984015279559
      ],
      [
       116.35049520040607,
       39.94984016505672
      ],
      [
       116.35049520040607,
       39.94984016505673
      ],
      [
       116.35048731199403,
       39.95015949556818
      ]
     ]
    ]
   }
  },
  {
   "type": "Feature",
   "id": "LU-G06-00",
   "properties": {
    "id": "LU-G06-00",
    "layer": "LAND_USE",
    "land_use_code": "1401",
    "label_zh": "公园绿地",
    "official_boundary": false,
    "geometry_role": "design_proposal",
    "confidence": "low",
    "source_type": "agent_generated_design"
   },
   "geometry": {
    "type": "Polygon",
    "coordinates": [
     [
      [
       116.34200000027236,
       39.99321929756138
      ],
      [
       116.34087482873106,
       39.99321290418487
      ],
      [
       116.34169999999999,
       40.00600000000001
      ],
      [
       116.34270000000001,
       40.0265
      ],
      [
       116.34274490738854,
       40.026500002432904
      ],
      [
       116.3430613486347,
       39.9935000455077
      ],
      [
       116.34200000000001,
       39.99349999999998
      ],
      [
       116.34200000027236,
       39.99321929756138
      ]
     ]
    ]
   }
  },
  {
   "type": "Feature",
   "id": "LU-G06-01",
   "properties": {
    "id": "LU-G06-01",
    "layer": "LAND_USE",
    "land_use_code": "1401",
    "label_zh": "公园绿地",
    "official_boundary": false,
    "geometry_role": "design_proposal",
    "confidence": "low",
    "source_type": "agent_generated_design"
   },
   "geometry": {
    "type": "Polygon",
    "coordinates": [
     [
      [
       116.34721830625195,
       39.94400017513479
      ],
      [
       116.34723272029684,
       39.94400017529325
      ],
      [
       116.3472802319381,
       39.939000227592786
      ],
      [
       116.34358281069728,
       39.93900014567839
      ],
      [
       116.34353503006331,
       39.944000075902935
      ],
      [
       116.34688606435337,
       39.94400017098557
      ],
      [
       116.34721830625195,
       39.94400017513479
      ]
     ]
    ]
   }
  },
  {
   "type": "Feature",
   "id": "LU-G06-02",
   "properties": {
    "id": "LU-G06-02",
    "layer": "LAND_USE",
    "land_use_code": "1401",
    "label_zh": "公园绿地",
    "official_boundary": false,
    "geometry_role": "design_proposal",
    "confidence": "low",
    "source_type": "agent_generated_design"
   },
   "geometry": {
    "type": "Polygon",
    "coordinates": [
     [
      [
       116.34996579672206,
       39.94400017295322
      ],
      [
       116.3528596432969,
       39.94400010024676
      ],
      [
       116.35290674559754,
       39.93900012599234
      ],
      [
       116.3500131095413,
       39.93900021234909
      ],
      [
       116.34996579672206,
       39.94400017295322
      ]
     ]
    ]
   }
  },
  {
   "type": "Feature",
   "id": "LU-G06-03",
   "properties": {
    "id": "LU-G06-03",
    "layer": "LAND_USE",
    "land_use_code": "1401",
    "label_zh": "公园绿地",
    "official_boundary": false,
    "geometry_role": "design_proposal",
    "confidence": "low",
    "source_type": "agent_generated_design"
   },
   "geometry": {
    "type": "Polygon",
    "coordinates": [
     [
      [
       116.3472802319381,
       39.939000227592786
      ],
      [
       116.34723272029684,
       39.94400017529325
      ],
      [
       116.34916079808066,
       39.9440001803365
      ],
      [
       116.34996579672206,
       39.94400017295322
      ],
      [
       116.3500131095413,
       39.93900021234909
      ],
      [
       116.3472802319381,
       39.939000227592786
      ]
     ]
    ]
   }
  },
  {
   "type": "Feature",
   "id": "LU-G06-04",
   "properties": {
    "id": "LU-G06-04",
    "layer": "LAND_USE",
    "land_use_code": "1401",
    "label_zh": "公园绿地",
    "official_boundary": false,
    "geometry_role": "design_proposal",
    "confidence": "low",
    "source_type": "agent_generated_design"
   },
   "geometry": {
    "type": "Polygon",
    "coordinates": [
     [
      [
       116.34703089944603,
       39.965225089476405
      ],
      [
       116.34730551805617,
       39.965226636053885
      ],
      [
       116.34768634586285,
       39.94984017937087
      ],
      [
       116.34717721104428,
       39.94984017467941
      ],
      [
       116.34703089944603,
       39.965225089476405
      ]
     ]
    ]
   }
  },
  {
   "type": "Feature",
   "id": "LU-G06-05",
   "properties": {
    "id": "LU-G06-05",
    "layer": "LAND_USE",
    "land_use_code": "1401",
    "label_zh": "公园绿地",
    "official_boundary": false,
    "geometry_role": "design_proposal",
    "confidence": "low",
    "source_type": "agent_generated_design"
   },
   "geometry": {
    "type": "Polygon",
    "coordinates": [
     [
      [
       116.34937996035022,
       39.993500115256865
      ],
      [
       116.34893254784427,
       40.007500129708035
      ],
      [
       116.34928868008402,
       40.00750012783156
      ],
      [
       116.34936388661998,
       40.00750012729532
      ],
      [
       116.34949675618189,
       39.99350011330344
      ],
      [
       116.34948810390014,
       39.993500113452185
      ],
      [
       116.34947926087534,
       39.99350011360355
      ],
      [
       116.34937996035022,
       39.993500115256865
      ]
     ]
    ]
   }
  },
  {
   "type": "Feature",
   "id": "LU-G06-06",
   "properties": {
    "id": "LU-G06-06",
    "layer": "LAND_USE",
    "land_use_code": "1401",
    "label_zh": "公园绿地",
    "official_boundary": false,
    "geometry_role": "design_proposal",
    "confidence": "low",
    "source_type": "agent_generated_design"
   },
   "geometry": {
    "type": "Polygon",
    "coordinates": [
     [
      [
       116.34685945710524,
       39.98323745728055
      ],
      [
       116.34730551805617,
       39.965226636053885
      ],
      [
       116.34703089944603,
       39.965225089476405
      ],
      [
       116.34685945710524,
       39.98323745728055
      ]
     ]
    ]
   }
  },
  {
   "type": "Feature",
   "id": "LU-G06-07",
   "properties": {
    "id": "LU-G06-07",
    "layer": "LAND_USE",
    "land_use_code": "1401",
    "label_zh": "公园绿地",
    "official_boundary": false,
    "geometry_role": "design_proposal",
    "confidence": "low",
    "source_type": "agent_generated_design"
   },
   "geometry": {
    "type": "Polygon",
    "coordinates": [
     [
      [
       116.35208074373674,
       40.02650013031019
      ],
      [
       116.35208547457388,
       40.02600007505734
      ],
      [
       116.34918816599618,
       40.02600012848633
      ],
      [
       116.34918341412202,
       40.026500171119075
      ],
      [
       116.35208074373674,
       40.02650013031019
      ]
     ]
    ]
   }
  },
  {
   "type": "Feature",
   "id": "LU-G06-08",
   "properties": {
    "id": "LU-G06-08",
    "layer": "LAND_USE",
    "land_use_code": "1401",
    "label_zh": "公园绿地",
    "official_boundary": false,
    "geometry_role": "design_proposal",
    "confidence": "low",
    "source_type": "agent_generated_design"
   },
   "geometry": {
    "type": "Polygon",
    "coordinates": [
     [
      [
       116.34918341412202,
       40.026500171119075
      ],
      [
       116.34918816599618,
       40.02600012848633
      ],
      [
       116.34764435901128,
       40.02600012737069
      ],
      [
       116.34733570793816,
       40.026000124680465
      ],
      [
       116.34645181990415,
       40.026000112428086
      ],
      [
       116.34644704816269,
       40.02650014314067
      ],
      [
       116.34918341412202,
       40.026500171119075
      ]
     ]
    ]
   }
  }
 ]
}