{
 "type": "FeatureCollection",
 "name": "public_space",
 "features": [
  {
   "type": "Feature",
   "id": "PS-LM00",
   "properties": {
    "id": "PS-LM00",
    "layer": "PUBLIC_SPACE",
    "scenario_type": "ai_landmark",
    "label_zh": "智造轮港",
    "landmark_id": "CYCLE-PORT-ZZ",
    "official_boundary": false,
    "geometry_role": "design_proposal",
    "confidence": "low",
    "source_type": "agent_generated_design"
   },
   "geometry": {
    "type": "Polygon",
    "coordinates": [
     [
      [
       116.34825495994164,
       40.01665185003727
      ],
      [
       116.34825312408873,
       40.016844826942425
      ],
      [
       116.3487450517854,
       40.01684759256108
      ],
      [
       116.34874688625288,
       40.01665461563712
      ],
      [
       116.34825495994164,
       40.01665185003727
      ]
     ]
    ]
   }
  },
  {
   "type": "Feature",
   "id": "PS-LM01",
   "properties": {
    "id": "PS-LM01",
    "layer": "PUBLIC_SPACE",
    "scenario_type": "ai_landmark",
    "label_zh": "原点轮廊",
    "landmark_id": "LOOP-GALLERY-OR",
    "official_boundary": false,
    "geometry_role": "design_proposal",
    "confidence": "low",
    "source_type": "agent_generated_design"
   },
   "geometry": {
    "type": "Polygon",
    "coordinates": [
     [
      [
       116.34725505583863,
       39.988402137841575
      ],
      [
       116.34725321900642,
       39.98859511565179
      ],
      [
       116.34774494390939,
       39.988597883901896
      ],
      [
       116.34774677935815,
       39.988404906072866
      ],
      [
       116.34725505583863,
       39.988402137841575
      ]
     ]
    ]
   }
  },
  {
   "type": "Feature",
   "id": "PS-LM02",
   "properties": {
    "id": "PS-LM02",
    "layer": "PUBLIC_SPACE",
    "scenario_type": "ai_landmark",
    "label_zh": "回环市集",
    "landmark_id": "LOOP-MARKET-DZ",
    "official_boundary": false,
    "geometry_role": "design_proposal",
    "confidence": "low",
    "source_type": "agent_generated_design"
   },
   "geometry": {
    "type": "Polygon",
    "coordinates": [
     [
      [
       116.34825519914105,
       39.94682227087887
      ],
      [
       116.34825336782029,
       39.94701525011593
      ],
      [
       116.34874479500131,
       39.947018011751396
      ],
      [
       116.34874662494148,
       39.94682503249555
      ],
      [
       116.34825519914105,
       39.94682227087887
      ]
     ]
    ]
   }
  },
  {
   "type": "Feature",
   "id": "PS-SN00",
   "properties": {
    "id": "PS-SN00",
    "layer": "PUBLIC_SPACE",
    "scenario_type": "scenario_node",
    "label_zh": "AI骑行场景节点",
    "official_boundary": false,
    "geometry_role": "design_proposal",
    "confidence": "low",
    "source_type": "agent_generated_design"
   },
   "geometry": {
    "type": "Polygon",
    "coordinates": [
     [
      [
       116.34835721220975,
       39.95488326889427
      ],
      [
       116.34835122905915,
       39.95551366684482
      ],
      [
       116.34917037578158,
       39.95551826852973
      ],
      [
       116.34917635141245,
       39.95488787047701
      ],
      [
       116.34835721220975,
       39.95488326889427
      ]
     ]
    ]
   }
  },
  {
   "type": "Feature",
   "id": "PS-SN01",
   "properties": {
    "id": "PS-SN01",
    "layer": "PUBLIC_SPACE",
    "scenario_type": "scenario_node",
    "label_zh": "AI骑行场景节点",
    "official_boundary": false,
    "geometry_role": "design_proposal",
    "confidence": "low",
    "source_type": "agent_generated_design"
   },
   "geometry": {
    "type": "Polygon",
    "coordinates": [
     [
      [
       116.34873508452787,
       39.966744288876896
      ],
      [
       116.3487291023356,
       39.96737468558111
      ],
      [
       116.34954839066727,
       39.96737928572243
      ],
      [
       116.34955436533531,
       39.96674888891609
      ],
      [
       116.34873508452787,
       39.966744288876896
      ]
     ]
    ]
   }
  },
  {
   "type": "Feature",
   "id": "PS-SN02",
   "properties": {
    "id": "PS-SN02",
    "layer": "PUBLIC_SPACE",
    "scenario_type": "scenario_node",
    "label_zh": "AI骑行场景节点",
    "official_boundary": false,
    "geometry_role": "design_proposal",
    "confidence": "low",
    "source_type": "agent_generated_design"
   },
   "geometry": {
    "type": "Polygon",
    "coordinates": [
     [
      [
       116.34911305969608,
       39.978605284489966
      ],
      [
       116.34910707846517,
       39.979235679947735
      ],
      [
       116.34992650848993,
       39.97924027854324
      ],
      [
       116.34993248219216,
       39.97860988298337
      ],
      [
       116.34911305969608,
       39.978605284489966
      ]
     ]
    ]
   }
  },
  {
   "type": "Feature",
   "id": "PS-SN03",
   "properties": {
    "id": "PS-SN03",
    "layer": "PUBLIC_SPACE",
    "scenario_type": "scenario_node",
    "label_zh": "AI骑行场景节点",
    "official_boundary": false,
    "geometry_role": "design_proposal",
    "confidence": "low",
    "source_type": "agent_generated_design"
   },
   "geometry": {
    "type": "Polygon",
    "coordinates": [
     [
      [
       116.34949113782105,
       39.990466255730155
      ],
      [
       116.34948515755447,
       39.99109664994136
      ],
      [
       116.35030472935632,
       39.9911012469888
      ],
      [
       116.35031070208976,
       39.99047085267554
      ],
      [
       116.34949113782105,
       39.990466255730155
      ]
     ]
    ]
   }
  },
  {
   "type": "Feature",
   "id": "PS-SN04",
   "properties": {
    "id": "PS-SN04",
    "layer": "PUBLIC_SPACE",
    "scenario_type": "scenario_node",
    "label_zh": "AI骑行场景节点",
    "official_boundary": false,
    "geometry_role": "design_proposal",
    "confidence": "low",
    "source_type": "agent_generated_design"
   },
   "geometry": {
    "type": "Polygon",
    "coordinates": [
     [
      [
       116.34986931900946,
       40.00232720259412
      ],
      [
       116.34986333971021,
       40.00295759555867
      ],
      [
       116.35068305337319,
       40.00296219105579
      ],
      [
       116.35068902513483,
       40.00233179798922
      ],
      [
       116.34986931900946,
       40.00232720259412
      ]
     ]
    ]
   }
  },
  {
   "type": "Feature",
   "id": "PS-SN05",
   "properties": {
    "id": "PS-SN05",
    "layer": "PUBLIC_SPACE",
    "scenario_type": "scenario_node",
    "label_zh": "AI骑行场景节点",
    "official_boundary": false,
    "geometry_role": "design_proposal",
    "confidence": "low",
    "source_type": "agent_generated_design"
   },
   "geometry": {
    "type": "Polygon",
    "coordinates": [
     [
      [
       116.35024760336815,
       40.01418812507848
      ],
      [
       116.35024162503925,
       40.01481851679629
      ],
      [
       116.35106148064739,
       40.01482311074086
      ],
      [
       116.3510674514342,
       40.0141927189211
      ],
      [
       116.35024760336815,
       40.01418812507848
      ]
     ]
    ]
   }
  },
  {
   "type": "Feature",
   "id": "PS-SN06",
   "properties": {
    "id": "PS-SN06",
    "layer": "PUBLIC_SPACE",
    "scenario_type": "scenario_node",
    "label_zh": "AI骑行场景节点",
    "official_boundary": false,
    "geometry_role": "design_proposal",
    "confidence": "low",
    "source_type": "agent_generated_design"
   },
   "geometry": {
    "type": "Polygon",
    "coordinates": [
     [
      [
       116.34808662863014,
       40.016250407161294
      ],
      [
       116.3480806299814,
       40.016880798383355
      ],
      [
       116.34890050991598,
       40.01688540781154
      ],
      [
       116.34890650102187,
       40.016255016487165
      ],
      [
       116.34808662863014,
       40.016250407161294
      ]
     ]
    ]
   }
  },
  {
   "type": "Feature",
   "id": "PS-SN07",
   "properties": {
    "id": "PS-SN07",
    "layer": "PUBLIC_SPACE",
    "scenario_type": "scenario_node",
    "label_zh": "AI骑行场景节点",
    "official_boundary": false,
    "geometry_role": "design_proposal",
    "confidence": "low",
    "source_type": "agent_generated_design"
   },
   "geometry": {
    "type": "Polygon",
    "coordinates": [
     [
      [
       116.34766678739936,
       40.0043903184644
      ],
      [
       116.3476607874061,
       40.00502071092778
      ],
      [
       116.34848052538388,
       40.00502532219895
      ],
      [
       116.34848651783874,
       40.00439492963321
      ],
      [
       116.34766678739936,
       40.0043903184644
      ]
     ]
    ]
   }
  },
  {
   "type": "Feature",
   "id": "PS-SN08",
   "properties": {
    "id": "PS-SN08",
    "layer": "PUBLIC_SPACE",
    "scenario_type": "scenario_node",
    "label_zh": "AI骑行场景节点",
    "official_boundary": false,
    "geometry_role": "design_proposal",
    "confidence": "low",
    "source_type": "agent_generated_design"
   },
   "geometry": {
    "type": "Polygon",
    "coordinates": [
     [
      [
       116.3472470636333,
       39.99253020522473
      ],
      [
       116.34724106229902,
       39.99316059892931
      ],
      [
       116.34806065840404,
       39.993165212040964
      ],
      [
       116.34806665220442,
       39.99253481823398
      ],
      [
       116.3472470636333,
       39.99253020522473
      ]
     ]
    ]
   }
  },
  {
   "type": "Feature",
   "id": "PS-SN09",
   "properties": {
    "id": "PS-SN09",
    "layer": "PUBLIC_SPACE",
    "scenario_type": "scenario_node",
    "label_zh": "AI骑行场景节点",
    "official_boundary": false,
    "geometry_role": "design_proposal",
    "confidence": "low",
    "source_type": "agent_generated_design"
   },
   "geometry": {
    "type": "Polygon",
    "coordinates": [
     [
      [
       116.34652624590224,
       39.980679953128295
      ],
      [
       116.34652024046024,
       39.98131034803501
      ],
      [
       116.34733969484543,
       39.98131496511504
      ],
      [
       116.34734569275797,
       39.980684570105815
      ],
      [
       116.34652624590224,
       39.980679953128295
      ]
     ]
    ]
   }
  },
  {
   "type": "Feature",
   "id": "PS-SN10",
   "properties": {
    "id": "PS-SN10",
    "layer": "PUBLIC_SPACE",
    "scenario_type": "scenario_node",
    "label_zh": "AI骑行场景节点",
    "official_boundary": false,
    "geometry_role": "design_proposal",
    "confidence": "low",
    "source_type": "agent_generated_design"
   },
   "geometry": {
    "type": "Polygon",
    "coordinates": [
     [
      [
       116.34563135824332,
       39.96883539440317
      ],
      [
       116.34562534709815,
       39.969465790489274
      ],
      [
       116.34644465988701,
       39.96947041276582
      ],
      [
       116.34645066350724,
       39.968840016577076
      ],
      [
       116.34563135824332,
       39.96883539440317
      ]
     ]
    ]
   }
  },
  {
   "type": "Feature",
   "id": "PS-SN11",
   "properties": {
    "id": "PS-SN11",
    "layer": "PUBLIC_SPACE",
    "scenario_type": "scenario_node",
    "label_zh": "AI骑行场景节点",
    "official_boundary": false,
    "geometry_role": "design_proposal",
    "confidence": "low",
    "source_type": "agent_generated_design"
   },
   "geometry": {
    "type": "Polygon",
    "coordinates": [
     [
      [
       116.34473675169615,
       39.95699080714474
      ],
      [
       116.34473073485638,
       39.95762120441004
      ],
      [
       116.34554990613248,
       39.95762583187782
      ],
      [
       116.34555591545174,
       39.956995434509764
      ],
      [
       116.34473675169615,
       39.95699080714474
      ]
     ]
    ]
   }
  }
 ]
}