{
 "type": "FeatureCollection",
 "name": "roads",
 "features": [
  {
   "type": "Feature",
   "id": "RD-SPINE",
   "properties": {
    "id": "RD-SPINE",
    "layer": "ROAD_CENTERLINE",
    "road_class": "greenway",
    "label_zh": "概念骑行环线主线(沿京张走廊,经三区两翼)",
    "official_boundary": false,
    "geometry_role": "design_proposal",
    "confidence": "low",
    "source_type": "agent_generated_design",
    "road_class_original": "conceptual_spine",
    "note": "conceptual route mapped to allowed enum"
   },
   "geometry": {
    "type": "LineString",
    "coordinates": [
     [
      116.3442489277779,
      39.945463707618636
     ],
     [
      116.34849999671977,
      39.946920141571596
     ],
     [
      116.35087106344221,
      40.02129185177425
     ],
     [
      116.34850000551087,
      40.01674972155629
     ],
     [
      116.34749999952184,
      39.988500011128586
     ],
     [
      116.3442489277779,
      39.945463707618636
     ]
    ]
   }
  },
  {
   "type": "Feature",
   "id": "RD-CROSS-00",
   "properties": {
    "id": "RD-CROSS-00",
    "layer": "ROAD_CENTERLINE",
    "road_class": "pedestrian",
    "label_zh": "概念缝合联系(东西向)",
    "official_boundary": false,
    "geometry_role": "design_proposal",
    "confidence": "low",
    "source_type": "agent_generated_design",
    "road_class_original": "conceptual_link",
    "note": "conceptual route mapped to allowed enum"
   },
   "geometry": {
    "type": "LineString",
    "coordinates": [
     [
      116.34853425875112,
      40.01314748468275
     ],
     [
      116.34846574610317,
      40.02035195615932
     ]
    ]
   }
  },
  {
   "type": "Feature",
   "id": "RD-CROSS-01",
   "properties": {
    "id": "RD-CROSS-01",
    "layer": "ROAD_CENTERLINE",
    "road_class": "pedestrian",
    "label_zh": "概念缝合联系(东西向)",
    "official_boundary": false,
    "geometry_role": "design_proposal",
    "confidence": "low",
    "source_type": "agent_generated_design",
    "road_class_original": "conceptual_link",
    "note": "conceptual route mapped to allowed enum"
   },
   "geometry": {
    "type": "LineString",
    "coordinates": [
     [
      116.34753427105937,
      39.984897757360486
     ],
     [
      116.34746572181459,
      39.99210226262652
     ]
    ]
   }
  },
  {
   "type": "Feature",
   "id": "RD-CROSS-02",
   "properties": {
    "id": "RD-CROSS-02",
    "layer": "ROAD_CENTERLINE",
    "road_class": "pedestrian",
    "label_zh": "概念缝合联系(东西向)",
    "official_boundary": false,
    "geometry_role": "design_proposal",
    "confidence": "low",
    "source_type": "agent_generated_design",
    "road_class_original": "conceptual_link",
    "note": "conceptual route mapped to allowed enum"
   },
   "geometry": {
    "type": "LineString",
    "coordinates": [
     [
      116.34853416541401,
      39.943317861169874
     ],
     [
      116.34846582187576,
      39.95052241970382
     ]
    ]
   }
  }
 ]
}