{
  "type": "FeatureCollection",
  "crs": {
    "type": "name",
    "properties": {
      "name": "EPSG:4326"
    }
  },
  "name": "buildings",
  "features": [
    {
      "type": "Feature",
      "id": "B-01",
      "properties": {
        "id": "B-01",
        "layer": "BUILDING_FOOTPRINT",
        "source_type": "agent_generated_design",
        "confidence": "low",
        "geometry_role": "provisional_constraint",
        "building_type": "existing_retained",
        "name_zh": "概念承载体 1",
        "official_boundary": false,
        "source_id": "SRC-PROVISIONAL-GEOMETRY",
        "usage_note": "Conceptual carrier; not a building inventory.",
        "area_sqm_declared": 56922.48
      },
      "geometry": {
        "type": "Polygon",
        "coordinates": [
          [
            [
              116.331,
              39.965
            ],
            [
              116.334,
              39.965
            ],
            [
              116.334,
              39.967
            ],
            [
              116.331,
              39.967
            ],
            [
              116.331,
              39.965
            ]
          ]
        ]
      }
    },
    {
      "type": "Feature",
      "id": "B-02",
      "properties": {
        "id": "B-02",
        "layer": "BUILDING_FOOTPRINT",
        "source_type": "agent_generated_design",
        "confidence": "low",
        "geometry_role": "provisional_constraint",
        "building_type": "community_service",
        "name_zh": "概念承载体 2",
        "official_boundary": false,
        "source_id": "SRC-PROVISIONAL-GEOMETRY",
        "usage_note": "Conceptual carrier; not a building inventory.",
        "area_sqm_declared": 56921.606
      },
      "geometry": {
        "type": "Polygon",
        "coordinates": [
          [
            [
              116.335,
              39.966
            ],
            [
              116.338,
              39.966
            ],
            [
              116.338,
              39.968
            ],
            [
              116.335,
              39.968
            ],
            [
              116.335,
              39.966
            ]
          ]
        ]
      }
    },
    {
      "type": "Feature",
      "id": "B-03",
      "properties": {
        "id": "B-03",
        "layer": "BUILDING_FOOTPRINT",
        "source_type": "agent_generated_design",
        "confidence": "low",
        "geometry_role": "provisional_constraint",
        "building_type": "ai_r_and_d",
        "name_zh": "概念承载体 3",
        "official_boundary": false,
        "source_id": "SRC-PROVISIONAL-GEOMETRY",
        "usage_note": "Conceptual carrier; not a building inventory.",
        "area_sqm_declared": 56923.178
      },
      "geometry": {
        "type": "Polygon",
        "coordinates": [
          [
            [
              116.34,
              39.964
            ],
            [
              116.343,
              39.964
            ],
            [
              116.343,
              39.966
            ],
            [
              116.34,
              39.966
            ],
            [
              116.34,
              39.964
            ]
          ]
        ]
      }
    },
    {
      "type": "Feature",
      "id": "B-04",
      "properties": {
        "id": "B-04",
        "layer": "BUILDING_FOOTPRINT",
        "source_type": "agent_generated_design",
        "confidence": "low",
        "geometry_role": "provisional_constraint",
        "building_type": "cultural",
        "name_zh": "概念承载体 4",
        "official_boundary": false,
        "source_id": "SRC-PROVISIONAL-GEOMETRY",
        "usage_note": "Conceptual carrier; not a building inventory.",
        "area_sqm_declared": 56919.026
      },
      "geometry": {
        "type": "Polygon",
        "coordinates": [
          [
            [
              116.344,
              39.969
            ],
            [
              116.347,
              39.969
            ],
            [
              116.347,
              39.971
            ],
            [
              116.344,
              39.971
            ],
            [
              116.344,
              39.969
            ]
          ]
        ]
      }
    },
    {
      "type": "Feature",
      "id": "B-05",
      "properties": {
        "id": "B-05",
        "layer": "BUILDING_FOOTPRINT",
        "source_type": "agent_generated_design",
        "confidence": "low",
        "geometry_role": "provisional_constraint",
        "building_type": "retail",
        "name_zh": "概念承载体 5",
        "official_boundary": false,
        "source_id": "SRC-PROVISIONAL-GEOMETRY",
        "usage_note": "Conceptual carrier; not a building inventory.",
        "area_sqm_declared": 56915.693
      },
      "geometry": {
        "type": "Polygon",
        "coordinates": [
          [
            [
              116.348,
              39.973
            ],
            [
              116.351,
              39.973
            ],
            [
              116.351,
              39.975
            ],
            [
              116.348,
              39.975
            ],
            [
              116.348,
              39.973
            ]
          ]
        ]
      }
    },
    {
      "type": "Feature",
      "id": "B-06",
      "properties": {
        "id": "B-06",
        "layer": "BUILDING_FOOTPRINT",
        "source_type": "agent_generated_design",
        "confidence": "low",
        "geometry_role": "provisional_constraint",
        "building_type": "mixed_use",
        "name_zh": "概念承载体 6",
        "official_boundary": false,
        "source_id": "SRC-PROVISIONAL-GEOMETRY",
        "usage_note": "Conceptual carrier; not a building inventory.",
        "area_sqm_declared": 56914.82
      },
      "geometry": {
        "type": "Polygon",
        "coordinates": [
          [
            [
              116.352,
              39.974
            ],
            [
              116.355,
              39.974
            ],
            [
              116.355,
              39.976
            ],
            [
              116.352,
              39.976
            ],
            [
              116.352,
              39.974
            ]
          ]
        ]
      }
    },
    {
      "type": "Feature",
      "id": "B-07",
      "properties": {
        "id": "B-07",
        "layer": "BUILDING_FOOTPRINT",
        "source_type": "agent_generated_design",
        "confidence": "low",
        "geometry_role": "provisional_constraint",
        "building_type": "existing_retained",
        "name_zh": "概念承载体 7",
        "official_boundary": false,
        "source_id": "SRC-PROVISIONAL-GEOMETRY",
        "usage_note": "Conceptual carrier; not a building inventory.",
        "area_sqm_declared": 56916.715
      },
      "geometry": {
        "type": "Polygon",
        "coordinates": [
          [
            [
              116.333,
              39.972
            ],
            [
              116.336,
              39.972
            ],
            [
              116.336,
              39.974
            ],
            [
              116.333,
              39.974
            ],
            [
              116.333,
              39.972
            ]
          ]
        ]
      }
    },
    {
      "type": "Feature",
      "id": "B-08",
      "properties": {
        "id": "B-08",
        "layer": "BUILDING_FOOTPRINT",
        "source_type": "agent_generated_design",
        "confidence": "low",
        "geometry_role": "provisional_constraint",
        "building_type": "community_service",
        "name_zh": "概念承载体 8",
        "official_boundary": false,
        "source_id": "SRC-PROVISIONAL-GEOMETRY",
        "usage_note": "Conceptual carrier; not a building inventory.",
        "area_sqm_declared": 56913.381
      },
      "geometry": {
        "type": "Polygon",
        "coordinates": [
          [
            [
              116.337,
              39.976
            ],
            [
              116.34,
              39.976
            ],
            [
              116.34,
              39.978
            ],
            [
              116.337,
              39.978
            ],
            [
              116.337,
              39.976
            ]
          ]
        ]
      }
    },
    {
      "type": "Feature",
      "id": "B-09",
      "properties": {
        "id": "B-09",
        "layer": "BUILDING_FOOTPRINT",
        "source_type": "agent_generated_design",
        "confidence": "low",
        "geometry_role": "provisional_constraint",
        "building_type": "ai_r_and_d",
        "name_zh": "概念承载体 9",
        "official_boundary": false,
        "source_id": "SRC-PROVISIONAL-GEOMETRY",
        "usage_note": "Conceptual carrier; not a building inventory.",
        "area_sqm_declared": 56910.035
      },
      "geometry": {
        "type": "Polygon",
        "coordinates": [
          [
            [
              116.342,
              39.98
            ],
            [
              116.345,
              39.98
            ],
            [
              116.345,
              39.982
            ],
            [
              116.342,
              39.982
            ],
            [
              116.342,
              39.98
            ]
          ]
        ]
      }
    },
    {
      "type": "Feature",
      "id": "B-10",
      "properties": {
        "id": "B-10",
        "layer": "BUILDING_FOOTPRINT",
        "source_type": "agent_generated_design",
        "confidence": "low",
        "geometry_role": "provisional_constraint",
        "building_type": "cultural",
        "name_zh": "概念承载体 10",
        "official_boundary": false,
        "source_id": "SRC-PROVISIONAL-GEOMETRY",
        "usage_note": "Conceptual carrier; not a building inventory.",
        "area_sqm_declared": 56909.148
      },
      "geometry": {
        "type": "Polygon",
        "coordinates": [
          [
            [
              116.347,
              39.981
            ],
            [
              116.35,
              39.981
            ],
            [
              116.35,
              39.983
            ],
            [
              116.347,
              39.983
            ],
            [
              116.347,
              39.981
            ]
          ]
        ]
      }
    },
    {
      "type": "Feature",
      "id": "B-11",
      "properties": {
        "id": "B-11",
        "layer": "BUILDING_FOOTPRINT",
        "source_type": "agent_generated_design",
        "confidence": "low",
        "geometry_role": "provisional_constraint",
        "building_type": "retail",
        "name_zh": "概念承载体 11",
        "official_boundary": false,
        "source_id": "SRC-PROVISIONAL-GEOMETRY",
        "usage_note": "Conceptual carrier; not a building inventory.",
        "area_sqm_declared": 56909.915
      },
      "geometry": {
        "type": "Polygon",
        "coordinates": [
          [
            [
              116.351,
              39.98
            ],
            [
              116.354,
              39.98
            ],
            [
              116.354,
              39.982
            ],
            [
              116.351,
              39.982
            ],
            [
              116.351,
              39.98
            ]
          ]
        ]
      }
    },
    {
      "type": "Feature",
      "id": "B-12",
      "properties": {
        "id": "B-12",
        "layer": "BUILDING_FOOTPRINT",
        "source_type": "agent_generated_design",
        "confidence": "low",
        "geometry_role": "provisional_constraint",
        "building_type": "mixed_use",
        "name_zh": "概念承载体 12",
        "official_boundary": false,
        "source_id": "SRC-PROVISIONAL-GEOMETRY",
        "usage_note": "Conceptual carrier; not a building inventory.",
        "area_sqm_declared": 28453.509
      },
      "geometry": {
        "type": "Polygon",
        "coordinates": [
          [
            [
              116.353,
              39.984
            ],
            [
              116.356,
              39.984
            ],
            [
              116.356,
              39.985
            ],
            [
              116.353,
              39.985
            ],
            [
              116.353,
              39.984
            ]
          ]
        ]
      }
    }
  ]
}
