{
  "type": "FeatureCollection",
  "crs": {
    "type": "name",
    "properties": {
      "name": "EPSG:4326"
    }
  },
  "name": "constraints",
  "features": [
    {
      "type": "Feature",
      "id": "C-BLUE-LINE-VERIFY",
      "properties": {
        "id": "C-BLUE-LINE-VERIFY",
        "layer": "WATER_SYSTEM",
        "source_type": "agent_generated_design",
        "confidence": "low",
        "geometry_role": "provisional_constraint",
        "constraint_type": "blue_line_and_water_boundary_to_verify",
        "official_boundary": false,
        "source_id": "SRC-PROVISIONAL-GEOMETRY",
        "status": "to_verify"
      },
      "geometry": {
        "type": "LineString",
        "coordinates": [
          [
            116.33,
            39.9625
          ],
          [
            116.338,
            39.969
          ],
          [
            116.346,
            39.978
          ],
          [
            116.356,
            39.985
          ]
        ]
      }
    },
    {
      "type": "Feature",
      "id": "C-HERITAGE-MEMORY",
      "properties": {
        "id": "C-HERITAGE-MEMORY",
        "layer": "REGULATORY_CONTROL",
        "source_type": "agent_generated_design",
        "confidence": "low",
        "geometry_role": "provisional_constraint",
        "constraint_type": "heritage_memory_trace_concept",
        "official_boundary": false,
        "source_id": "SRC-PROVISIONAL-GEOMETRY",
        "status": "conceptual_not_heritage_boundary"
      },
      "geometry": {
        "type": "LineString",
        "coordinates": [
          [
            116.331,
            39.966
          ],
          [
            116.34,
            39.973
          ],
          [
            116.349,
            39.98
          ],
          [
            116.355,
            39.984
          ]
        ]
      }
    }
  ]
}
