{
  "type": "FeatureCollection",
  "crs": {
    "type": "name",
    "properties": {
      "name": "EPSG:4326"
    }
  },
  "name": "green_space",
  "features": [
    {
      "type": "Feature",
      "id": "G-01",
      "properties": {
        "id": "G-01",
        "layer": "GREEN_SPACE",
        "source_type": "agent_generated_design",
        "confidence": "low",
        "geometry_role": "provisional_constraint",
        "green_type": "blue_green_interface",
        "name_zh": "蓝绿观察片段 1",
        "official_boundary": false,
        "source_id": "SRC-PROVISIONAL-GEOMETRY",
        "area_sqm_declared": 339164.35
      },
      "geometry": {
        "type": "Polygon",
        "coordinates": [
          [
            [
              116.3295,
              39.9625
            ],
            [
              116.335,
              39.9625
            ],
            [
              116.335,
              39.969
            ],
            [
              116.3295,
              39.969
            ],
            [
              116.3295,
              39.9625
            ]
          ]
        ]
      }
    },
    {
      "type": "Feature",
      "id": "G-02",
      "properties": {
        "id": "G-02",
        "layer": "GREEN_SPACE",
        "source_type": "agent_generated_design",
        "confidence": "low",
        "geometry_role": "provisional_constraint",
        "green_type": "blue_green_interface",
        "name_zh": "蓝绿观察片段 2",
        "official_boundary": false,
        "source_id": "SRC-PROVISIONAL-GEOMETRY",
        "area_sqm_declared": 339122.27
      },
      "geometry": {
        "type": "Polygon",
        "coordinates": [
          [
            [
              116.3365,
              39.971
            ],
            [
              116.342,
              39.971
            ],
            [
              116.342,
              39.9775
            ],
            [
              116.3365,
              39.9775
            ],
            [
              116.3365,
              39.971
            ]
          ]
        ]
      }
    },
    {
      "type": "Feature",
      "id": "G-03",
      "properties": {
        "id": "G-03",
        "layer": "GREEN_SPACE",
        "source_type": "agent_generated_design",
        "confidence": "low",
        "geometry_role": "provisional_constraint",
        "green_type": "blue_green_interface",
        "name_zh": "蓝绿观察片段 3",
        "official_boundary": false,
        "source_id": "SRC-PROVISIONAL-GEOMETRY",
        "area_sqm_declared": 313002.733
      },
      "geometry": {
        "type": "Polygon",
        "coordinates": [
          [
            [
              116.3435,
              39.9785
            ],
            [
              116.349,
              39.9785
            ],
            [
              116.349,
              39.9845
            ],
            [
              116.3435,
              39.9845
            ],
            [
              116.3435,
              39.9785
            ]
          ]
        ]
      }
    },
    {
      "type": "Feature",
      "id": "G-04",
      "properties": {
        "id": "G-04",
        "layer": "GREEN_SPACE",
        "source_type": "agent_generated_design",
        "confidence": "low",
        "geometry_role": "provisional_constraint",
        "green_type": "blue_green_interface",
        "name_zh": "蓝绿观察片段 4",
        "official_boundary": false,
        "source_id": "SRC-PROVISIONAL-GEOMETRY",
        "area_sqm_declared": 30824.311
      },
      "geometry": {
        "type": "Polygon",
        "coordinates": [
          [
            [
              116.35,
              39.985
            ],
            [
              116.3565,
              39.985
            ],
            [
              116.3565,
              39.9855
            ],
            [
              116.35,
              39.9855
            ],
            [
              116.35,
              39.985
            ]
          ]
        ]
      }
    }
  ]
}
