{
  "type": "FeatureCollection",
  "crs": {
    "type": "name",
    "properties": {
      "name": "EPSG:4326"
    }
  },
  "name": "key_areas",
  "features": [
    {
      "type": "Feature",
      "id": "KEY-N1",
      "properties": {
        "id": "KEY-N1",
        "layer": "KEY_AREA",
        "source_type": "agent_generated_design",
        "confidence": "low",
        "geometry_role": "provisional_constraint",
        "area_id": "beijing_ai_origin_community",
        "name_zh": "N1 原点共译门",
        "name_en": "beijing_ai_origin_community",
        "official_boundary": false,
        "boundary_precision": "provisional_rough",
        "source_id": "SRC-PROVISIONAL-GEOMETRY",
        "usage_note": "Conceptual key area only; not an official redline or precise-area basis.",
        "area_sqm_declared": 569211.993
      },
      "geometry": {
        "type": "Polygon",
        "coordinates": [
          [
            [
              116.3325,
              39.9635
            ],
            [
              116.34,
              39.9635
            ],
            [
              116.34,
              39.9715
            ],
            [
              116.3325,
              39.9715
            ],
            [
              116.3325,
              39.9635
            ]
          ]
        ]
      }
    },
    {
      "type": "Feature",
      "id": "KEY-N2",
      "properties": {
        "id": "KEY-N2",
        "layer": "KEY_AREA",
        "source_type": "agent_generated_design",
        "confidence": "low",
        "geometry_role": "provisional_constraint",
        "area_id": "zhongzhiyuan_ai_acceleration_area",
        "name_zh": "N2 众智可达试验台",
        "name_en": "zhongzhiyuan_ai_acceleration_area",
        "official_boundary": false,
        "boundary_precision": "provisional_rough",
        "source_id": "SRC-PROVISIONAL-GEOMETRY",
        "usage_note": "Conceptual key area only; not an official redline or precise-area basis.",
        "area_sqm_declared": 533571.706
      },
      "geometry": {
        "type": "Polygon",
        "coordinates": [
          [
            [
              116.3415,
              39.972
            ],
            [
              116.349,
              39.972
            ],
            [
              116.349,
              39.9795
            ],
            [
              116.3415,
              39.9795
            ],
            [
              116.3415,
              39.972
            ]
          ]
        ]
      }
    },
    {
      "type": "Feature",
      "id": "KEY-N3",
      "properties": {
        "id": "KEY-N3",
        "layer": "KEY_AREA",
        "source_type": "agent_generated_design",
        "confidence": "low",
        "geometry_role": "provisional_constraint",
        "area_id": "dazhongsi_ai_industry_cluster",
        "name_zh": "N3 大钟寺服务门",
        "name_en": "dazhongsi_ai_industry_cluster",
        "official_boundary": false,
        "boundary_precision": "provisional_rough",
        "source_id": "SRC-PROVISIONAL-GEOMETRY",
        "usage_note": "Conceptual key area only; not an official redline or precise-area basis.",
        "area_sqm_declared": 234749.184
      },
      "geometry": {
        "type": "Polygon",
        "coordinates": [
          [
            [
              116.3495,
              39.98
            ],
            [
              116.355,
              39.98
            ],
            [
              116.355,
              39.9845
            ],
            [
              116.3495,
              39.9845
            ],
            [
              116.3495,
              39.98
            ]
          ]
        ]
      }
    }
  ]
}
