{
  "type": "FeatureCollection",
  "crs": {
    "type": "name",
    "properties": {
      "name": "EPSG:4326"
    }
  },
  "name": "land_use",
  "features": [
    {
      "type": "Feature",
      "id": "LU-01",
      "properties": {
        "id": "LU-01",
        "layer": "LAND_USE",
        "source_type": "agent_generated_design",
        "confidence": "low",
        "geometry_role": "provisional_constraint",
        "land_use_code": "0803",
        "name_zh": "概念研究单元 1 / research_public_interface",
        "official_boundary": false,
        "source_id": "SRC-PROVISIONAL-GEOMETRY",
        "usage_note": "Research unit only; not statutory land use.",
        "area_sqm_declared": 531276.478
      },
      "geometry": {
        "type": "Polygon",
        "coordinates": [
          [
            [
              116.329,
              39.962
            ],
            [
              116.336,
              39.962
            ],
            [
              116.336,
              39.97
            ],
            [
              116.329,
              39.97
            ],
            [
              116.329,
              39.962
            ]
          ]
        ]
      }
    },
    {
      "type": "Feature",
      "id": "LU-02",
      "properties": {
        "id": "LU-02",
        "layer": "LAND_USE",
        "source_type": "agent_generated_design",
        "confidence": "low",
        "geometry_role": "provisional_constraint",
        "land_use_code": "0802",
        "name_zh": "概念研究单元 2 / mixed_innovation_service",
        "official_boundary": false,
        "source_id": "SRC-PROVISIONAL-GEOMETRY",
        "usage_note": "Research unit only; not statutory land use.",
        "area_sqm_declared": 531275.591
      },
      "geometry": {
        "type": "Polygon",
        "coordinates": [
          [
            [
              116.336,
              39.962
            ],
            [
              116.343,
              39.962
            ],
            [
              116.343,
              39.97
            ],
            [
              116.336,
              39.97
            ],
            [
              116.336,
              39.962
            ]
          ]
        ]
      }
    },
    {
      "type": "Feature",
      "id": "LU-03",
      "properties": {
        "id": "LU-03",
        "layer": "LAND_USE",
        "source_type": "agent_generated_design",
        "confidence": "low",
        "geometry_role": "provisional_constraint",
        "land_use_code": "0702",
        "name_zh": "概念研究单元 3 / community_service",
        "official_boundary": false,
        "source_id": "SRC-PROVISIONAL-GEOMETRY",
        "usage_note": "Research unit only; not statutory land use.",
        "area_sqm_declared": 531274.713
      },
      "geometry": {
        "type": "Polygon",
        "coordinates": [
          [
            [
              116.343,
              39.962
            ],
            [
              116.35,
              39.962
            ],
            [
              116.35,
              39.97
            ],
            [
              116.343,
              39.97
            ],
            [
              116.343,
              39.962
            ]
          ]
        ]
      }
    },
    {
      "type": "Feature",
      "id": "LU-04",
      "properties": {
        "id": "LU-04",
        "layer": "LAND_USE",
        "source_type": "agent_generated_design",
        "confidence": "low",
        "geometry_role": "provisional_constraint",
        "land_use_code": "1401",
        "name_zh": "概念研究单元 4 / green_blue_observation",
        "official_boundary": false,
        "source_id": "SRC-PROVISIONAL-GEOMETRY",
        "usage_note": "Research unit only; not statutory land use.",
        "area_sqm_declared": 531273.845
      },
      "geometry": {
        "type": "Polygon",
        "coordinates": [
          [
            [
              116.35,
              39.962
            ],
            [
              116.357,
              39.962
            ],
            [
              116.357,
              39.97
            ],
            [
              116.35,
              39.97
            ],
            [
              116.35,
              39.962
            ]
          ]
        ]
      }
    },
    {
      "type": "Feature",
      "id": "LU-05",
      "properties": {
        "id": "LU-05",
        "layer": "LAND_USE",
        "source_type": "agent_generated_design",
        "confidence": "low",
        "geometry_role": "provisional_constraint",
        "land_use_code": "0802",
        "name_zh": "概念研究单元 5 / mixed_innovation_service",
        "official_boundary": false,
        "source_id": "SRC-PROVISIONAL-GEOMETRY",
        "usage_note": "Research unit only; not statutory land use.",
        "area_sqm_declared": 531215.274
      },
      "geometry": {
        "type": "Polygon",
        "coordinates": [
          [
            [
              116.329,
              39.97
            ],
            [
              116.336,
              39.97
            ],
            [
              116.336,
              39.978
            ],
            [
              116.329,
              39.978
            ],
            [
              116.329,
              39.97
            ]
          ]
        ]
      }
    },
    {
      "type": "Feature",
      "id": "LU-06",
      "properties": {
        "id": "LU-06",
        "layer": "LAND_USE",
        "source_type": "agent_generated_design",
        "confidence": "low",
        "geometry_role": "provisional_constraint",
        "land_use_code": "0702",
        "name_zh": "概念研究单元 6 / community_service",
        "official_boundary": false,
        "source_id": "SRC-PROVISIONAL-GEOMETRY",
        "usage_note": "Research unit only; not statutory land use.",
        "area_sqm_declared": 531214.387
      },
      "geometry": {
        "type": "Polygon",
        "coordinates": [
          [
            [
              116.336,
              39.97
            ],
            [
              116.343,
              39.97
            ],
            [
              116.343,
              39.978
            ],
            [
              116.336,
              39.978
            ],
            [
              116.336,
              39.97
            ]
          ]
        ]
      }
    },
    {
      "type": "Feature",
      "id": "LU-07",
      "properties": {
        "id": "LU-07",
        "layer": "LAND_USE",
        "source_type": "agent_generated_design",
        "confidence": "low",
        "geometry_role": "provisional_constraint",
        "land_use_code": "1401",
        "name_zh": "概念研究单元 7 / green_blue_observation",
        "official_boundary": false,
        "source_id": "SRC-PROVISIONAL-GEOMETRY",
        "usage_note": "Research unit only; not statutory land use.",
        "area_sqm_declared": 531213.51
      },
      "geometry": {
        "type": "Polygon",
        "coordinates": [
          [
            [
              116.343,
              39.97
            ],
            [
              116.35,
              39.97
            ],
            [
              116.35,
              39.978
            ],
            [
              116.343,
              39.978
            ],
            [
              116.343,
              39.97
            ]
          ]
        ]
      }
    },
    {
      "type": "Feature",
      "id": "LU-08",
      "properties": {
        "id": "LU-08",
        "layer": "LAND_USE",
        "source_type": "agent_generated_design",
        "confidence": "low",
        "geometry_role": "provisional_constraint",
        "land_use_code": "0803",
        "name_zh": "概念研究单元 8 / research_public_interface",
        "official_boundary": false,
        "source_id": "SRC-PROVISIONAL-GEOMETRY",
        "usage_note": "Research unit only; not statutory land use.",
        "area_sqm_declared": 531212.641
      },
      "geometry": {
        "type": "Polygon",
        "coordinates": [
          [
            [
              116.35,
              39.97
            ],
            [
              116.357,
              39.97
            ],
            [
              116.357,
              39.978
            ],
            [
              116.35,
              39.978
            ],
            [
              116.35,
              39.97
            ]
          ]
        ]
      }
    },
    {
      "type": "Feature",
      "id": "LU-09",
      "properties": {
        "id": "LU-09",
        "layer": "LAND_USE",
        "source_type": "agent_generated_design",
        "confidence": "low",
        "geometry_role": "provisional_constraint",
        "land_use_code": "0702",
        "name_zh": "概念研究单元 9 / community_service",
        "official_boundary": false,
        "source_id": "SRC-PROVISIONAL-GEOMETRY",
        "usage_note": "Research unit only; not statutory land use.",
        "area_sqm_declared": 531154.059
      },
      "geometry": {
        "type": "Polygon",
        "coordinates": [
          [
            [
              116.329,
              39.978
            ],
            [
              116.336,
              39.978
            ],
            [
              116.336,
              39.986
            ],
            [
              116.329,
              39.986
            ],
            [
              116.329,
              39.978
            ]
          ]
        ]
      }
    },
    {
      "type": "Feature",
      "id": "LU-10",
      "properties": {
        "id": "LU-10",
        "layer": "LAND_USE",
        "source_type": "agent_generated_design",
        "confidence": "low",
        "geometry_role": "provisional_constraint",
        "land_use_code": "1401",
        "name_zh": "概念研究单元 10 / green_blue_observation",
        "official_boundary": false,
        "source_id": "SRC-PROVISIONAL-GEOMETRY",
        "usage_note": "Research unit only; not statutory land use.",
        "area_sqm_declared": 531153.173
      },
      "geometry": {
        "type": "Polygon",
        "coordinates": [
          [
            [
              116.336,
              39.978
            ],
            [
              116.343,
              39.978
            ],
            [
              116.343,
              39.986
            ],
            [
              116.336,
              39.986
            ],
            [
              116.336,
              39.978
            ]
          ]
        ]
      }
    },
    {
      "type": "Feature",
      "id": "LU-11",
      "properties": {
        "id": "LU-11",
        "layer": "LAND_USE",
        "source_type": "agent_generated_design",
        "confidence": "low",
        "geometry_role": "provisional_constraint",
        "land_use_code": "0803",
        "name_zh": "概念研究单元 11 / research_public_interface",
        "official_boundary": false,
        "source_id": "SRC-PROVISIONAL-GEOMETRY",
        "usage_note": "Research unit only; not statutory land use.",
        "area_sqm_declared": 531152.295
      },
      "geometry": {
        "type": "Polygon",
        "coordinates": [
          [
            [
              116.343,
              39.978
            ],
            [
              116.35,
              39.978
            ],
            [
              116.35,
              39.986
            ],
            [
              116.343,
              39.986
            ],
            [
              116.343,
              39.978
            ]
          ]
        ]
      }
    },
    {
      "type": "Feature",
      "id": "LU-12",
      "properties": {
        "id": "LU-12",
        "layer": "LAND_USE",
        "source_type": "agent_generated_design",
        "confidence": "low",
        "geometry_role": "provisional_constraint",
        "land_use_code": "0802",
        "name_zh": "概念研究单元 12 / mixed_innovation_service",
        "official_boundary": false,
        "source_id": "SRC-PROVISIONAL-GEOMETRY",
        "usage_note": "Research unit only; not statutory land use.",
        "area_sqm_declared": 531151.428
      },
      "geometry": {
        "type": "Polygon",
        "coordinates": [
          [
            [
              116.35,
              39.978
            ],
            [
              116.357,
              39.978
            ],
            [
              116.357,
              39.986
            ],
            [
              116.35,
              39.986
            ],
            [
              116.35,
              39.978
            ]
          ]
        ]
      }
    }
  ]
}
