{
  "type": "FeatureCollection",
  "crs": {
    "type": "name",
    "properties": {
      "name": "EPSG:4326"
    }
  },
  "name": "phasing",
  "features": [
    {
      "type": "Feature",
      "id": "PH-01",
      "properties": {
        "id": "PH-01",
        "layer": "PHASE",
        "source_type": "agent_generated_design",
        "confidence": "low",
        "geometry_role": "provisional_constraint",
        "phase": 1,
        "name_zh": "概念阶段 1",
        "official_boundary": false,
        "source_id": "SRC-PROVISIONAL-GEOMETRY",
        "sequence_status": "conceptual_not_approved",
        "area_sqm_declared": 2048972.67
      },
      "geometry": {
        "type": "Polygon",
        "coordinates": [
          [
            [
              116.329,
              39.962
            ],
            [
              116.338,
              39.962
            ],
            [
              116.338,
              39.986
            ],
            [
              116.329,
              39.986
            ],
            [
              116.329,
              39.962
            ]
          ]
        ]
      }
    },
    {
      "type": "Feature",
      "id": "PH-02",
      "properties": {
        "id": "PH-02",
        "layer": "PHASE",
        "source_type": "agent_generated_design",
        "confidence": "low",
        "geometry_role": "provisional_constraint",
        "phase": 2,
        "name_zh": "概念阶段 2",
        "official_boundary": false,
        "source_id": "SRC-PROVISIONAL-GEOMETRY",
        "sequence_status": "conceptual_not_approved",
        "area_sqm_declared": 2504293.98
      },
      "geometry": {
        "type": "Polygon",
        "coordinates": [
          [
            [
              116.338,
              39.962
            ],
            [
              116.349,
              39.962
            ],
            [
              116.349,
              39.986
            ],
            [
              116.338,
              39.986
            ],
            [
              116.338,
              39.962
            ]
          ]
        ]
      }
    },
    {
      "type": "Feature",
      "id": "PH-03",
      "properties": {
        "id": "PH-03",
        "layer": "PHASE",
        "source_type": "agent_generated_design",
        "confidence": "low",
        "geometry_role": "provisional_constraint",
        "phase": 3,
        "name_zh": "概念阶段 3",
        "official_boundary": false,
        "source_id": "SRC-PROVISIONAL-GEOMETRY",
        "sequence_status": "conceptual_not_approved",
        "area_sqm_declared": 1821300.661
      },
      "geometry": {
        "type": "Polygon",
        "coordinates": [
          [
            [
              116.349,
              39.962
            ],
            [
              116.357,
              39.962
            ],
            [
              116.357,
              39.986
            ],
            [
              116.349,
              39.986
            ],
            [
              116.349,
              39.962
            ]
          ]
        ]
      }
    }
  ]
}
