{
  "type": "FeatureCollection",
  "crs": {
    "type": "name",
    "properties": {
      "name": "EPSG:4326"
    }
  },
  "name": "public_space",
  "features": [
    {
      "type": "Feature",
      "id": "PS-N1",
      "properties": {
        "id": "PS-N1",
        "layer": "PUBLIC_SPACE",
        "source_type": "agent_generated_design",
        "confidence": "low",
        "geometry_role": "provisional_constraint",
        "scenario_type": "node",
        "name_zh": "N1",
        "official_boundary": false,
        "source_id": "SRC-PROVISIONAL-GEOMETRY",
        "reversible": true,
        "area_sqm_declared": 99613.557
      },
      "geometry": {
        "type": "Polygon",
        "coordinates": [
          [
            [
              116.3335,
              39.965
            ],
            [
              116.337,
              39.965
            ],
            [
              116.337,
              39.968
            ],
            [
              116.3335,
              39.968
            ],
            [
              116.3335,
              39.965
            ]
          ]
        ]
      }
    },
    {
      "type": "Feature",
      "id": "PS-N2",
      "properties": {
        "id": "PS-N2",
        "layer": "PUBLIC_SPACE",
        "source_type": "agent_generated_design",
        "confidence": "low",
        "geometry_role": "provisional_constraint",
        "scenario_type": "node",
        "name_zh": "N2",
        "official_boundary": false,
        "source_id": "SRC-PROVISIONAL-GEOMETRY",
        "reversible": true,
        "area_sqm_declared": 99601.857
      },
      "geometry": {
        "type": "Polygon",
        "coordinates": [
          [
            [
              116.343,
              39.973
            ],
            [
              116.3465,
              39.973
            ],
            [
              116.3465,
              39.976
            ],
            [
              116.343,
              39.976
            ],
            [
              116.343,
              39.973
            ]
          ]
        ]
      }
    },
    {
      "type": "Feature",
      "id": "PS-N3",
      "properties": {
        "id": "PS-N3",
        "layer": "PUBLIC_SPACE",
        "source_type": "agent_generated_design",
        "confidence": "low",
        "geometry_role": "provisional_constraint",
        "scenario_type": "node",
        "name_zh": "N3",
        "official_boundary": false,
        "source_id": "SRC-PROVISIONAL-GEOMETRY",
        "reversible": true,
        "area_sqm_declared": 62599.914
      },
      "geometry": {
        "type": "Polygon",
        "coordinates": [
          [
            [
              116.351,
              39.981
            ],
            [
              116.354,
              39.981
            ],
            [
              116.354,
              39.9832
            ],
            [
              116.351,
              39.9832
            ],
            [
              116.351,
              39.981
            ]
          ]
        ]
      }
    },
    {
      "type": "Feature",
      "id": "LM-01",
      "properties": {
        "id": "LM-01",
        "layer": "PUBLIC_SPACE",
        "source_type": "agent_generated_design",
        "confidence": "low",
        "geometry_role": "provisional_constraint",
        "scenario_type": "ai_landmark",
        "name_zh": "Doorframe Timeline",
        "official_boundary": false,
        "source_id": "SRC-PROVISIONAL-GEOMETRY",
        "reversible": true,
        "area_sqm_declared": 24666.979
      },
      "geometry": {
        "type": "Polygon",
        "coordinates": [
          [
            [
              116.334,
              39.9637
            ],
            [
              116.336,
              39.9637
            ],
            [
              116.336,
              39.965
            ],
            [
              116.334,
              39.965
            ],
            [
              116.334,
              39.9637
            ]
          ]
        ]
      }
    },
    {
      "type": "Feature",
      "id": "LM-02",
      "properties": {
        "id": "LM-02",
        "layer": "PUBLIC_SPACE",
        "source_type": "agent_generated_design",
        "confidence": "low",
        "geometry_role": "provisional_constraint",
        "scenario_type": "ai_landmark",
        "name_zh": "Co-translation Beacon",
        "official_boundary": false,
        "source_id": "SRC-PROVISIONAL-GEOMETRY",
        "reversible": true,
        "area_sqm_declared": 24662.196
      },
      "geometry": {
        "type": "Polygon",
        "coordinates": [
          [
            [
              116.344,
              39.977
            ],
            [
              116.346,
              39.977
            ],
            [
              116.346,
              39.9783
            ],
            [
              116.344,
              39.9783
            ],
            [
              116.344,
              39.977
            ]
          ]
        ]
      }
    },
    {
      "type": "Feature",
      "id": "LM-03",
      "properties": {
        "id": "LM-03",
        "layer": "PUBLIC_SPACE",
        "source_type": "agent_generated_design",
        "confidence": "low",
        "geometry_role": "provisional_constraint",
        "scenario_type": "ai_landmark",
        "name_zh": "Access Scale",
        "official_boundary": false,
        "source_id": "SRC-PROVISIONAL-GEOMETRY",
        "reversible": true,
        "area_sqm_declared": 22762.78
      },
      "geometry": {
        "type": "Polygon",
        "coordinates": [
          [
            [
              116.3525,
              39.984
            ],
            [
              116.3545,
              39.984
            ],
            [
              116.3545,
              39.9852
            ],
            [
              116.3525,
              39.9852
            ],
            [
              116.3525,
              39.984
            ]
          ]
        ]
      }
    },
    {
      "type": "Feature",
      "id": "PS-PAPER",
      "properties": {
        "id": "PS-PAPER",
        "layer": "PUBLIC_SPACE",
        "source_type": "agent_generated_design",
        "confidence": "low",
        "geometry_role": "provisional_constraint",
        "scenario_type": "pocket",
        "name_zh": "paper map box",
        "official_boundary": false,
        "source_id": "SRC-PROVISIONAL-GEOMETRY",
        "reversible": true,
        "area_sqm_declared": 22767.771
      },
      "geometry": {
        "type": "Polygon",
        "coordinates": [
          [
            [
              116.339,
              39.969
            ],
            [
              116.341,
              39.969
            ],
            [
              116.341,
              39.9702
            ],
            [
              116.339,
              39.9702
            ],
            [
              116.339,
              39.969
            ]
          ]
        ]
      }
    },
    {
      "type": "Feature",
      "id": "PS-REST",
      "properties": {
        "id": "PS-REST",
        "layer": "PUBLIC_SPACE",
        "source_type": "agent_generated_design",
        "confidence": "low",
        "geometry_role": "provisional_constraint",
        "scenario_type": "pocket",
        "name_zh": "rest and water",
        "official_boundary": false,
        "source_id": "SRC-PROVISIONAL-GEOMETRY",
        "reversible": true,
        "area_sqm_declared": 22764.772
      },
      "geometry": {
        "type": "Polygon",
        "coordinates": [
          [
            [
              116.348,
              39.978
            ],
            [
              116.35,
              39.978
            ],
            [
              116.35,
              39.9792
            ],
            [
              116.348,
              39.9792
            ],
            [
              116.348,
              39.978
            ]
          ]
        ]
      }
    }
  ]
}
