{
  "type": "FeatureCollection",
  "crs": {
    "type": "name",
    "properties": {
      "name": "EPSG:4326"
    }
  },
  "name": "roads",
  "features": [
    {
      "type": "Feature",
      "id": "R-EW-01",
      "properties": {
        "id": "R-EW-01",
        "layer": "ROAD_CENTERLINE",
        "source_type": "agent_generated_design",
        "confidence": "low",
        "geometry_role": "provisional_constraint",
        "road_class": "greenway",
        "name_zh": "概念慢行/服务接口线",
        "official_boundary": false,
        "source_id": "SRC-PROVISIONAL-GEOMETRY",
        "usage_note": "Not a road redline or engineering design."
      },
      "geometry": {
        "type": "LineString",
        "coordinates": [
          [
            116.33,
            39.969
          ],
          [
            116.338,
            39.971
          ],
          [
            116.346,
            39.976
          ],
          [
            116.355,
            39.982
          ]
        ]
      }
    },
    {
      "type": "Feature",
      "id": "R-EW-02",
      "properties": {
        "id": "R-EW-02",
        "layer": "ROAD_CENTERLINE",
        "source_type": "agent_generated_design",
        "confidence": "low",
        "geometry_role": "provisional_constraint",
        "road_class": "greenway",
        "name_zh": "概念慢行/服务接口线",
        "official_boundary": false,
        "source_id": "SRC-PROVISIONAL-GEOMETRY",
        "usage_note": "Not a road redline or engineering design."
      },
      "geometry": {
        "type": "LineString",
        "coordinates": [
          [
            116.331,
            39.978
          ],
          [
            116.34,
            39.977
          ],
          [
            116.349,
            39.98
          ],
          [
            116.356,
            39.984
          ]
        ]
      }
    },
    {
      "type": "Feature",
      "id": "R-NS-01",
      "properties": {
        "id": "R-NS-01",
        "layer": "ROAD_CENTERLINE",
        "source_type": "agent_generated_design",
        "confidence": "low",
        "geometry_role": "provisional_constraint",
        "road_class": "greenway",
        "name_zh": "概念慢行/服务接口线",
        "official_boundary": false,
        "source_id": "SRC-PROVISIONAL-GEOMETRY",
        "usage_note": "Not a road redline or engineering design."
      },
      "geometry": {
        "type": "LineString",
        "coordinates": [
          [
            116.335,
            39.963
          ],
          [
            116.336,
            39.971
          ],
          [
            116.343,
            39.979
          ],
          [
            116.352,
            39.985
          ]
        ]
      }
    },
    {
      "type": "Feature",
      "id": "R-NS-02",
      "properties": {
        "id": "R-NS-02",
        "layer": "ROAD_CENTERLINE",
        "source_type": "agent_generated_design",
        "confidence": "low",
        "geometry_role": "provisional_constraint",
        "road_class": "greenway",
        "name_zh": "概念慢行/服务接口线",
        "official_boundary": false,
        "source_id": "SRC-PROVISIONAL-GEOMETRY",
        "usage_note": "Not a road redline or engineering design."
      },
      "geometry": {
        "type": "LineString",
        "coordinates": [
          [
            116.345,
            39.963
          ],
          [
            116.344,
            39.972
          ],
          [
            116.348,
            39.98
          ],
          [
            116.354,
            39.985
          ]
        ]
      }
    },
    {
      "type": "Feature",
      "id": "R-SERVICE",
      "properties": {
        "id": "R-SERVICE",
        "layer": "ROAD_CENTERLINE",
        "source_type": "agent_generated_design",
        "confidence": "low",
        "geometry_role": "provisional_constraint",
        "road_class": "greenway",
        "name_zh": "概念慢行/服务接口线",
        "official_boundary": false,
        "source_id": "SRC-PROVISIONAL-GEOMETRY",
        "usage_note": "Not a road redline or engineering design."
      },
      "geometry": {
        "type": "LineString",
        "coordinates": [
          [
            116.333,
            39.967
          ],
          [
            116.341,
            39.973
          ],
          [
            116.35,
            39.982
          ]
        ]
      }
    }
  ]
}
