{
  "type": "FeatureCollection",
  "crs": {
    "type": "name",
    "properties": {
      "name": "EPSG:4326"
    }
  },
  "name": "site_boundary",
  "features": [
    {
      "type": "Feature",
      "id": "SITE-001",
      "properties": {
        "id": "SITE-001",
        "layer": "SITE_BOUNDARY",
        "source_type": "agent_inferred_from_public_data",
        "confidence": "medium",
        "geometry_role": "provisional_constraint",
        "scope_id": "provisional_working_subarea",
        "name_zh": "创新带接口带临时工作子范围",
        "name_en": "Provisional interface-belt working sub-area",
        "official_boundary": false,
        "boundary_precision": "provisional_rough",
        "source_id": "SRC-PROVISIONAL-GEOMETRY",
        "derived_from_source_ids": [
          "SRC-OFFICIAL-ANNOUNCEMENT",
          "SRC-TASKBOOK-CLEARED"
        ],
        "usage_note": "For concept generation, display, and local reproducibility only; never an official redline or approval basis.",
        "area_sqm_declared": 6374567.284
      },
      "geometry": {
        "type": "Polygon",
        "coordinates": [
          [
            [
              116.329,
              39.962
            ],
            [
              116.357,
              39.962
            ],
            [
              116.357,
              39.986
            ],
            [
              116.329,
              39.986
            ],
            [
              116.329,
              39.962
            ]
          ]
        ]
      }
    }
  ]
}
