{
 "type": "FeatureCollection",
 "name": "public_space",
 "features": [
  {
   "type": "Feature",
   "id": "PS-LM00",
   "properties": {
    "id": "PS-LM00",
    "layer": "PUBLIC_SPACE",
    "scenario_type": "ai_landmark",
    "label_zh": "零碳示范园",
    "landmark_id": "GRN-CAMPUS",
    "official_boundary": false,
    "geometry_role": "design_proposal",
    "confidence": "low",
    "source_type": "agent_generated_design"
   },
   "geometry": {
    "type": "Polygon",
    "coordinates": [
     [
      [
       116.34812569250512,
       40.01660022013434
      ],
      [
       116.34812288763527,
       40.01689499721852
      ],
      [
       116.34887432016231,
       40.016899221778345
      ],
      [
       116.34887712179948,
       40.016604444650326
      ],
      [
       116.34812569250512,
       40.01660022013434
      ]
     ]
    ]
   }
  },
  {
   "type": "Feature",
   "id": "PS-LM01",
   "properties": {
    "id": "PS-LM01",
    "layer": "PUBLIC_SPACE",
    "scenario_type": "ai_landmark",
    "label_zh": "绿能连廊",
    "landmark_id": "GRN-CORRIDOR",
    "official_boundary": false,
    "geometry_role": "design_proposal",
    "confidence": "low",
    "source_type": "agent_generated_design"
   },
   "geometry": {
    "type": "Polygon",
    "coordinates": [
     [
      [
       116.34712584214917,
       39.9883505070062
      ],
      [
       116.34712303578421,
       39.98864528547288
      ],
      [
       116.34787415853793,
       39.98864951405234
      ],
      [
       116.34787696167479,
       39.988354735541776
      ],
      [
       116.34712584214917,
       39.9883505070062
      ]
     ]
    ]
   }
  },
  {
   "type": "Feature",
   "id": "PS-LM02",
   "properties": {
    "id": "PS-LM02",
    "layer": "PUBLIC_SPACE",
    "scenario_type": "ai_landmark",
    "label_zh": "能源驿站",
    "landmark_id": "GRN-STATION",
    "official_boundary": false,
    "geometry_role": "design_proposal",
    "confidence": "low",
    "source_type": "agent_generated_design"
   },
   "geometry": {
    "type": "Polygon",
    "coordinates": [
     [
      [
       116.34812606252483,
       39.94677064141234
      ],
      [
       116.34812326457985,
       39.94706542205858
      ],
      [
       116.34887393255467,
       39.94706964053397
      ],
      [
       116.3488767272782,
       39.94677485984395
      ],
      [
       116.34812606252483,
       39.94677064141234
      ]
     ]
    ]
   }
  },
  {
   "type": "Feature",
   "id": "PS-SN00",
   "properties": {
    "id": "PS-SN00",
    "layer": "PUBLIC_SPACE",
    "scenario_type": "scenario_node",
    "label_zh": "AI场景节点",
    "official_boundary": false,
    "geometry_role": "design_proposal",
    "confidence": "low",
    "source_type": "agent_generated_design"
   },
   "geometry": {
    "type": "Polygon",
    "coordinates": [
     [
      [
       116.34725585608051,
       40.00469979813456
      ],
      [
       116.34725070994484,
       40.00524013446282
      ],
      [
       116.34795334467769,
       40.00524408983991
      ],
      [
       116.34795848527489,
       40.00470375343639
      ],
      [
       116.34725585608051,
       40.00469979813456
      ]
     ]
    ]
   }
  },
  {
   "type": "Feature",
   "id": "PS-SN01",
   "properties": {
    "id": "PS-SN01",
    "layer": "PUBLIC_SPACE",
    "scenario_type": "scenario_node",
    "label_zh": "AI场景节点",
    "official_boundary": false,
    "geometry_role": "design_proposal",
    "confidence": "low",
    "source_type": "agent_generated_design"
   },
   "geometry": {
    "type": "Polygon",
    "coordinates": [
     [
      [
       116.34748269949533,
       39.99295082703987
      ],
      [
       116.34747541465836,
       39.99371630508088
      ],
      [
       116.34847064663688,
       39.993721904014386
      ],
      [
       116.34847792036494,
       39.992956425822456
      ],
      [
       116.34748269949533,
       39.99295082703987
      ]
     ]
    ]
   }
  },
  {
   "type": "Feature",
   "id": "PS-SN02",
   "properties": {
    "id": "PS-SN02",
    "layer": "PUBLIC_SPACE",
    "scenario_type": "scenario_node",
    "label_zh": "AI场景节点",
    "official_boundary": false,
    "geometry_role": "design_proposal",
    "confidence": "low",
    "source_type": "agent_generated_design"
   },
   "geometry": {
    "type": "Polygon",
    "coordinates": [
     [
      [
       116.3476614158697,
       39.981201025056606
      ],
      [
       116.34765199488085,
       39.982191645727944
      ],
      [
       116.34893972583369,
       39.9821988860973
      ],
      [
       116.34894912822875,
       39.981208265173365
      ],
      [
       116.3476614158697,
       39.981201025056606
      ]
     ]
    ]
   }
  },
  {
   "type": "Feature",
   "id": "PS-SN03",
   "properties": {
    "id": "PS-SN03",
    "layer": "PUBLIC_SPACE",
    "scenario_type": "scenario_node",
    "label_zh": "AI场景节点",
    "official_boundary": false,
    "geometry_role": "design_proposal",
    "confidence": "low",
    "source_type": "agent_generated_design"
   },
   "geometry": {
    "type": "Polygon",
    "coordinates": [
     [
      [
       116.34823998063582,
       39.969790779101814
      ],
      [
       116.34823484860273,
       39.97033111880019
      ],
      [
       116.34893712591627,
       39.970335065367905
      ],
      [
       116.34894225242053,
       39.969794725594404
      ],
      [
       116.34823998063582,
       39.969790779101814
      ]
     ]
    ]
   }
  },
  {
   "type": "Feature",
   "id": "PS-SN04",
   "properties": {
    "id": "PS-SN04",
    "layer": "PUBLIC_SPACE",
    "scenario_type": "scenario_node",
    "label_zh": "AI场景节点",
    "official_boundary": false,
    "geometry_role": "design_proposal",
    "confidence": "low",
    "source_type": "agent_generated_design"
   },
   "geometry": {
    "type": "Polygon",
    "coordinates": [
     [
      [
       116.3483826859043,
       39.95804032737105
      ],
      [
       116.34837542009757,
       39.95880581017343
      ],
      [
       116.34937014598638,
       39.95881139735294
      ],
      [
       116.34937740070352,
       39.958045914399925
      ],
      [
       116.3483826859043,
       39.95804032737105
      ]
     ]
    ]
   }
  }
 ]
}