{
  "type": "FeatureCollection",
  "name": "civic_ai_loop_mobility_network",
  "features": [
    {
      "type": "Feature",
      "id": "ROAD-001",
      "properties": {
        "id": "ROAD-001",
        "layer": "ROAD_CENTERLINE",
        "source_type": "agent_generated_design",
        "confidence": "medium",
        "geometry_role": "design_proposal",
        "road_class": "cycleway",
        "name_zh": "公民AI环主线",
        "name_en": "Civic AI Loop spine",
        "design_intent_zh": "串联众智园、AI原点社区与大钟寺三处重点区，叠合步行、骑行、接驳与公共服务节点。",
        "implementation_gate": "以官方道路红线、权属和交通专项复核为实施前置条件"
      },
      "geometry": {
        "type": "LineString",
        "coordinates": [
          [116.3485, 40.0210],
          [116.3490, 40.0110],
          [116.3475, 39.9910],
          [116.3470, 39.9700],
          [116.3485, 39.9475]
        ]
      }
    },
    {
      "type": "Feature",
      "id": "ROAD-002",
      "properties": {
        "id": "ROAD-002",
        "layer": "ROAD_CENTERLINE",
        "source_type": "agent_generated_design",
        "confidence": "medium",
        "geometry_role": "design_proposal",
        "road_class": "pedestrian",
        "name_zh": "AI原点社区双门户连接线",
        "name_en": "AI Origin Community dual-portal connector",
        "design_intent_zh": "连接东西门户与中心共享客厅，形成日常通勤和活动模式可切换的横向联系。",
        "implementation_gate": "以站点接驳、消防疏散和无障碍连续性复核为实施前置条件"
      },
      "geometry": {
        "type": "LineString",
        "coordinates": [
          [116.3418, 39.9885],
          [116.3475, 39.9910],
          [116.3530, 39.9885]
        ]
      }
    },
    {
      "type": "Feature",
      "id": "ROAD-003",
      "properties": {
        "id": "ROAD-003",
        "layer": "ROAD_CENTERLINE",
        "source_type": "agent_generated_design",
        "confidence": "medium",
        "geometry_role": "design_proposal",
        "road_class": "greenway",
        "name_zh": "小月河—京张遗址公园平行验证线",
        "name_en": "Xiaoyue River–Jing-Zhang Heritage Park parallel validation route",
        "design_intent_zh": "以两条平行公共空间作为组件测试、慢行诊断与活动复盘的基本验证场。",
        "implementation_gate": "以河道管理、文保要求、夜间安全和生态承载复核为实施前置条件"
      },
      "geometry": {
        "type": "LineString",
        "coordinates": [
          [116.3440, 40.0180],
          [116.3445, 40.0060],
          [116.3442, 39.9840],
          [116.3440, 39.9640],
          [116.3445, 39.9480]
        ]
      }
    }
  ]
}
