{
  "type": "FeatureCollection",
  "name": "careworks_building_envelopes",
  "features": [
    {
      "type": "Feature",
      "id": "BLDG-CARE-01",
      "properties": {
        "id": "BLDG-CARE-01",
        "layer": "BUILDING_FOOTPRINT",
        "source_type": "agent_generated_design",
        "confidence": "medium",
        "geometry_role": "design_proposal",
        "building_type": "lab",
        "name_zh": "可靠性测试道班",
        "name_en": "Reliability Test Yard",
        "area_sqm_declared": 59419.419,
        "design_note_zh": "由临时重点区几何缩放生成的概念性组团包络；不表示既有建筑、审批规模或拆建结论。"
      },
      "geometry": {
        "type": "Polygon",
        "coordinates": [
          [
            [
              116.34729,
              40.015455
            ],
            [
              116.34971,
              40.015455
            ],
            [
              116.34971,
              40.018045
            ],
            [
              116.34729,
              40.018045
            ],
            [
              116.34729,
              40.015455
            ]
          ]
        ]
      }
    },
    {
      "type": "Feature",
      "id": "BLDG-CARE-02",
      "properties": {
        "id": "BLDG-CARE-02",
        "layer": "BUILDING_FOOTPRINT",
        "source_type": "agent_generated_design",
        "confidence": "medium",
        "geometry_role": "design_proposal",
        "building_type": "mixed_use",
        "name_zh": "社区照护道班",
        "name_en": "Community Care Yard",
        "area_sqm_declared": 32131.697,
        "design_note_zh": "由临时重点区几何缩放生成的概念性组团包络；不表示既有建筑、审批规模或拆建结论。"
      },
      "geometry": {
        "type": "Polygon",
        "coordinates": [
          [
            [
              116.34629,
              39.9878
            ],
            [
              116.34870999999998,
              39.9878
            ],
            [
              116.34870999999998,
              39.9892
            ],
            [
              116.34629,
              39.9892
            ],
            [
              116.34629,
              39.9878
            ]
          ]
        ]
      }
    },
    {
      "type": "Feature",
      "id": "BLDG-CARE-03",
      "properties": {
        "id": "BLDG-CARE-03",
        "layer": "BUILDING_FOOTPRINT",
        "source_type": "agent_generated_design",
        "confidence": "medium",
        "geometry_role": "design_proposal",
        "building_type": "incubator",
        "name_zh": "循环维修道班",
        "name_en": "Circular Repair Yard",
        "area_sqm_declared": 22189.99,
        "design_note_zh": "由临时重点区几何缩放生成的概念性组团包络；不表示既有建筑、审批规模或拆建结论。"
      },
      "geometry": {
        "type": "Polygon",
        "coordinates": [
          [
            [
              116.34707,
              39.9465112
            ],
            [
              116.34993,
              39.9465112
            ],
            [
              116.34993,
              39.94732880000001
            ],
            [
              116.34707,
              39.94732880000001
            ],
            [
              116.34707,
              39.9465112
            ]
          ]
        ]
      }
    }
  ]
}
