{
  "type": "FeatureCollection",
  "name": "careworks_phasing",
  "features": [
    {
      "type": "Feature",
      "id": "PHASE-001",
      "properties": {
        "id": "PHASE-001",
        "layer": "PHASE",
        "source_type": "agent_generated_design",
        "confidence": "medium",
        "geometry_role": "design_proposal",
        "phase": "phase_1",
        "name_zh": "第一阶段：基线与三个90天试点的概念研究范围",
        "area_sqm_declared": 4587013.573,
        "name_en": "Phase 1: baseline and three 90-day pilot study area",
        "design_note_zh": "设计建议层；实施前需正式边界、权属、工程与运营复核。"
      },
      "geometry": {
        "type": "Polygon",
        "coordinates": [
          [
            [
              116.3417,
              40.006
            ],
            [
              116.34218780487805,
              40.016
            ],
            [
              116.34843599999999,
              40.016
            ],
            [
              116.34843599999999,
              39.9495
            ],
            [
              116.340948,
              39.9495
            ],
            [
              116.340948,
              39.99434399999997
            ],
            [
              116.3417,
              40.006
            ]
          ]
        ]
      }
    }
  ]
}
