{
  "type": "FeatureCollection",
  "name": "careworks_public_space",
  "features": [
    {
      "type": "Feature",
      "id": "PUBLIC-001",
      "properties": {
        "id": "PUBLIC-001",
        "layer": "PUBLIC_SPACE",
        "source_type": "agent_generated_design",
        "confidence": "medium",
        "geometry_role": "design_proposal",
        "name_zh": "社区报修前台与全时段照护界面",
        "area_sqm_declared": 836345.643,
        "name_en": "Community repair desk and all-hours care interface",
        "design_note_zh": "设计建议层；实施前需正式边界、权属、工程与运营复核。"
      },
      "geometry": {
        "type": "Polygon",
        "coordinates": [
          [
            [
              116.34734399999999,
              39.967
            ],
            [
              116.34734399999999,
              40.00025
            ],
            [
              116.349996,
              40.00025
            ],
            [
              116.349996,
              39.967
            ],
            [
              116.34734399999999,
              39.967
            ]
          ]
        ]
      }
    }
  ]
}
