{
  "type": "FeatureCollection",
  "name": "careworks_roads",
  "features": [
    {
      "type": "Feature",
      "id": "ROAD-001",
      "properties": {
        "id": "ROAD-001",
        "layer": "ROAD_CENTERLINE",
        "source_type": "agent_generated_design",
        "confidence": "medium",
        "geometry_role": "design_proposal",
        "road_class": "greenway",
        "name_zh": "人工优先的养护巡检与慢行共用线",
        "name_en": "Human-first maintenance and active-travel line",
        "design_note_zh": "设计建议层；实施前需正式边界、权属、工程与运营复核。"
      },
      "geometry": {
        "type": "LineString",
        "coordinates": [
          [
            116.340948,
            39.9845
          ],
          [
            116.35374,
            39.9845
          ]
        ]
      }
    }
  ]
}
