{
  "type": "FeatureCollection",
  "name": "buildings_commons_gallery",
  "features": [
    {
      "type": "Feature",
      "id": "BLDG-READY-LAB",
      "properties": {
        "id": "BLDG-READY-LAB",
        "layer": "BUILDING_FOOTPRINT",
        "source_type": "agent_generated_design",
        "confidence": "medium",
        "geometry_role": "design_proposal",
        "label_zh": "就绪门试验楼概念基底",
        "label_en": "BLDG-READY-LAB",
        "building_type": "lab",
        "note_zh": "概念基底，不是已批建筑或实测轮廓。",
        "area_sqm_declared": 245947.956
      },
      "geometry": {
        "type": "Polygon",
        "coordinates": [
          [
            [
              116.34912333,
              40.0229614
            ],
            [
              116.34919683,
              40.01522459
            ],
            [
              116.34584382,
              40.01520571
            ],
            [
              116.34576994,
              40.02294252
            ],
            [
              116.34912333,
              40.0229614
            ]
          ]
        ]
      }
    },
    {
      "type": "Feature",
      "id": "BLDG-READY-STUDIO",
      "properties": {
        "id": "BLDG-READY-STUDIO",
        "layer": "BUILDING_FOOTPRINT",
        "source_type": "agent_generated_design",
        "confidence": "medium",
        "geometry_role": "design_proposal",
        "label_zh": "就绪门工坊概念基底",
        "label_en": "BLDG-READY-STUDIO",
        "building_type": "incubator",
        "note_zh": "概念基底，不是已批建筑或实测轮廓。",
        "area_sqm_declared": 175122.387
      },
      "geometry": {
        "type": "Polygon",
        "coordinates": [
          [
            [
              116.35110445,
              40.0177183
            ],
            [
              116.35117772,
              40.00998148
            ],
            [
              116.34879045,
              40.00996809
            ],
            [
              116.34871692,
              40.01770491
            ],
            [
              116.35110445,
              40.0177183
            ]
          ]
        ]
      }
    },
    {
      "type": "Feature",
      "id": "BLDG-SHARE-HALL",
      "properties": {
        "id": "BLDG-SHARE-HALL",
        "layer": "BUILDING_FOOTPRINT",
        "source_type": "agent_generated_design",
        "confidence": "medium",
        "geometry_role": "design_proposal",
        "label_zh": "共测廊下服务厅概念基底",
        "label_en": "BLDG-SHARE-HALL",
        "building_type": "community_service",
        "note_zh": "概念基底，不是已批建筑或实测轮廓。",
        "area_sqm_declared": 221223.36
      },
      "geometry": {
        "type": "Polygon",
        "coordinates": [
          [
            [
              116.34871262,
              39.9984394
            ],
            [
              116.34879443,
              39.9898269
            ],
            [
              116.34608613,
              39.98981165
            ],
            [
              116.34600399,
              39.99842415
            ],
            [
              116.34871262,
              39.9984394
            ]
          ]
        ]
      }
    },
    {
      "type": "Feature",
      "id": "BLDG-SHARE-HOUSING",
      "properties": {
        "id": "BLDG-SHARE-HOUSING",
        "layer": "BUILDING_FOOTPRINT",
        "source_type": "agent_generated_design",
        "confidence": "medium",
        "geometry_role": "design_proposal",
        "label_zh": "共测生活楼概念基底",
        "label_en": "BLDG-SHARE-HOUSING",
        "building_type": "talent_apartment",
        "note_zh": "概念基底，不是已批建筑或实测轮廓。",
        "area_sqm_declared": 194942.814
      },
      "geometry": {
        "type": "Polygon",
        "coordinates": [
          [
            [
              116.35201315,
              39.98970084
            ],
            [
              116.35209452,
              39.98108832
            ],
            [
              116.34970826,
              39.98107495
            ],
            [
              116.34962659,
              39.98968747
            ],
            [
              116.35201315,
              39.98970084
            ]
          ]
        ]
      }
    },
    {
      "type": "Feature",
      "id": "BLDG-OPS-MARKET",
      "properties": {
        "id": "BLDG-OPS-MARKET",
        "layer": "BUILDING_FOOTPRINT",
        "source_type": "agent_generated_design",
        "confidence": "medium",
        "geometry_role": "design_proposal",
        "label_zh": "运营交接商业楼概念基底",
        "label_en": "BLDG-OPS-MARKET",
        "building_type": "retail",
        "note_zh": "概念基底，不是已批建筑或实测轮廓。",
        "area_sqm_declared": 326345.543
      },
      "geometry": {
        "type": "Polygon",
        "coordinates": [
          [
            [
              116.35068629,
              39.95991931
            ],
            [
              116.35076774,
              39.95130675
            ],
            [
              116.34677474,
              39.95128432
            ],
            [
              116.34669279,
              39.95989687
            ],
            [
              116.35068629,
              39.95991931
            ]
          ]
        ]
      }
    },
    {
      "type": "Feature",
      "id": "BLDG-OPS-HUB",
      "properties": {
        "id": "BLDG-OPS-HUB",
        "layer": "BUILDING_FOOTPRINT",
        "source_type": "agent_generated_design",
        "confidence": "medium",
        "geometry_role": "design_proposal",
        "label_zh": "运营交接枢纽概念基底",
        "label_en": "BLDG-OPS-HUB",
        "building_type": "mobility_hub",
        "note_zh": "概念基底，不是已批建筑或实测轮廓。",
        "area_sqm_declared": 134365.46
      },
      "geometry": {
        "type": "Polygon",
        "coordinates": [
          [
            [
              116.35327556,
              39.95818236
            ],
            [
              116.35334018,
              39.95132112
            ],
            [
              116.35127652,
              39.95130959
            ],
            [
              116.35121169,
              39.95817083
            ],
            [
              116.35327556,
              39.95818236
            ]
          ]
        ]
      }
    }
  ]
}
