{
  "type": "FeatureCollection",
  "name": "constraints_commons_gallery",
  "features": [
    {
      "type": "Feature",
      "id": "CON-HERITAGE-GALLERY",
      "properties": {
        "id": "CON-HERITAGE-GALLERY",
        "layer": "HERITAGE_PROTECTION",
        "source_type": "agent_inferred_from_public_data",
        "confidence": "low",
        "geometry_role": "provisional_constraint",
        "official_boundary": false,
        "label_zh": "京张遗址公园廊道临时文保提示范围",
        "note_zh": "不是官方文保紫线；正式控制线到达后替换。",
        "area_sqm_declared": 1923856.41
      },
      "geometry": {
        "type": "Polygon",
        "coordinates": [
          [
            [
              116.34356671,
              39.94068559
            ],
            [
              116.34276171,
              40.02474895
            ],
            [
              116.34517596,
              40.02476262
            ],
            [
              116.345978,
              39.94069922
            ],
            [
              116.34356671,
              39.94068559
            ]
          ]
        ]
      }
    },
    {
      "type": "Feature",
      "id": "CON-MISSING-REGULATORY",
      "properties": {
        "id": "CON-MISSING-REGULATORY",
        "layer": "REGULATORY_CONTROL",
        "source_type": "agent_inferred_from_public_data",
        "confidence": "low",
        "geometry_role": "provisional_constraint",
        "official_boundary": false,
        "label_zh": "控规条件待补提示区",
        "note_zh": "场地包未含正式控规；本面仅标记资料缺口，不是控制指标。",
        "area_sqm_declared": 84330.537
      },
      "geometry": {
        "type": "Polygon",
        "coordinates": [
          [
            [
              116.35496776,
              40.02043903
            ],
            [
              116.35342575,
              40.02043043
            ],
            [
              116.35337615,
              40.02568437
            ],
            [
              116.35514662,
              40.02569423
            ],
            [
              116.35516263,
              40.02399412
            ],
            [
              116.35496776,
              40.02043903
            ]
          ]
        ]
      }
    }
  ]
}
