{
  "type": "FeatureCollection",
  "name": "green_space_commons_gallery",
  "features": [
    {
      "type": "Feature",
      "id": "GREEN-GALLERY",
      "properties": {
        "id": "GREEN-GALLERY",
        "layer": "GREEN_SPACE",
        "source_type": "agent_generated_design",
        "confidence": "medium",
        "geometry_role": "design_proposal",
        "label_zh": "共证廊绿脊",
        "label_en": "GREEN-GALLERY",
        "area_sqm_declared": 1487782.291
      },
      "geometry": {
        "type": "Polygon",
        "coordinates": [
          [
            [
              116.34382391,
              39.94068704
            ],
            [
              116.34301923,
              40.02475041
            ],
            [
              116.34488625,
              40.02476098
            ],
            [
              116.34568864,
              39.94069758
            ],
            [
              116.34382391,
              39.94068704
            ]
          ]
        ]
      }
    },
    {
      "type": "Feature",
      "id": "GREEN-READY-NORTH",
      "properties": {
        "id": "GREEN-READY-NORTH",
        "layer": "GREEN_SPACE",
        "source_type": "agent_generated_design",
        "confidence": "medium",
        "geometry_role": "design_proposal",
        "label_zh": "就绪门北园",
        "label_en": "GREEN-READY-NORTH",
        "area_sqm_declared": 1243135.294
      },
      "geometry": {
        "type": "Polygon",
        "coordinates": [
          [
            [
              116.34264871,
              40.02544887
            ],
            [
              116.35402161,
              40.02551283
            ],
            [
              116.3541273,
              40.01430443
            ],
            [
              116.34210173,
              40.01423678
            ],
            [
              116.34264871,
              40.02544887
            ]
          ]
        ]
      }
    },
    {
      "type": "Feature",
      "id": "GREEN-SOUTH-EDGE",
      "properties": {
        "id": "GREEN-SOUTH-EDGE",
        "layer": "GREEN_SPACE",
        "source_type": "agent_generated_design",
        "confidence": "medium",
        "geometry_role": "design_proposal",
        "label_zh": "南段日常绿边",
        "label_en": "GREEN-SOUTH-EDGE",
        "area_sqm_declared": 471077.618
      },
      "geometry": {
        "type": "Polygon",
        "coordinates": [
          [
            [
              116.34132289,
              39.93997229
            ],
            [
              116.34128678,
              39.94373766
            ],
            [
              116.35446911,
              39.9438118
            ],
            [
              116.35450449,
              39.94004643
            ],
            [
              116.34132289,
              39.93997229
            ]
          ]
        ]
      }
    }
  ]
}
