{
  "type": "FeatureCollection",
  "name": "land_use_commons_gallery",
  "features": [
    {
      "type": "Feature",
      "id": "LU-GALLERY-1401",
      "properties": {
        "id": "LU-GALLERY-1401",
        "layer": "LAND_USE",
        "source_type": "agent_generated_design",
        "confidence": "medium",
        "geometry_role": "design_proposal",
        "land_use_code": "1401",
        "name_zh": "共证廊公园绿地",
        "name_en": "Commons Gallery park green",
        "label_zh": "共证廊公园绿地",
        "label_en": "Commons Gallery park green",
        "area_sqm_declared": 1470696.482
      },
      "geometry": {
        "type": "Polygon",
        "coordinates": [
          [
            [
              116.34383436,
              39.94069521
            ],
            [
              116.34302985,
              40.02474236
            ],
            [
              116.34487578,
              40.02475281
            ],
            [
              116.34567804,
              39.94070563
            ],
            [
              116.34383436,
              39.94069521
            ]
          ]
        ]
      }
    },
    {
      "type": "Feature",
      "id": "LU-READY-R&D",
      "properties": {
        "id": "LU-READY-R&D",
        "layer": "LAND_USE",
        "source_type": "agent_generated_design",
        "confidence": "medium",
        "geometry_role": "design_proposal",
        "land_use_code": "0802",
        "name_zh": "科研用地",
        "name_en": "Ready-gate R&D",
        "label_zh": "科研用地",
        "label_en": "Ready-gate R&D",
        "area_sqm_declared": 1792128.19
      },
      "geometry": {
        "type": "Polygon",
        "coordinates": [
          [
            [
              116.34271016,
              40.0264919
            ],
            [
              116.355289,
              40.0264919
            ],
            [
              116.35433357,
              40.00905946
            ],
            [
              116.34504742,
              40.00900735
            ],
            [
              116.34489679,
              40.02476104
            ],
            [
              116.34489673,
              40.02476183
            ],
            [
              116.34489657,
              40.02476262
            ],
            [
              116.34489632,
              40.02476339
            ],
            [
              116.34489596,
              40.02476414
            ],
            [
              116.34489551,
              40.02476485
            ],
            [
              116.34489497,
              40.02476553
            ],
            [
              116.34489435,
              40.02476617
            ],
            [
              116.34489365,
              40.02476675
            ],
            [
              116.34489288,
              40.02476728
            ],
            [
              116.34489204,
              40.02476775
            ],
            [
              116.34489115,
              40.02476815
            ],
            [
              116.34489021,
              40.02476849
            ],
            [
              116.34488924,
              40.02476875
            ],
            [
              116.34488823,
              40.02476894
            ],
            [
              116.34488721,
              40.02476905
            ],
            [
              116.34488617,
              40.02476908
            ],
            [
              116.34301915,
              40.02475851
            ],
            [
              116.34301812,
              40.02475847
            ],
            [
              116.3430171,
              40.02475835
            ],
            [
              116.3430161,
              40.02475815
            ],
            [
              116.34301513,
              40.02475787
            ],
            [
              116.34301419,
              40.02475753
            ],
            [
              116.34301331,
              40.02475711
            ],
            [
              116.34301248,
              40.02475664
            ],
            [
              116.34301172,
              40.0247561
            ],
            [
              116.34301103,
              40.0247555
            ],
            [
              116.34301042,
              40.02475486
            ],
            [
              116.3430099,
              40.02475418
            ],
            [
              116.34300946,
              40.02475345
            ],
            [
              116.34300912,
              40.0247527
            ],
            [
              116.34300888,
              40.02475193
            ],
            [
              116.34300873,
              40.02475114
            ],
            [
              116.34300869,
              40.02475035
            ],
            [
              116.34315975,
              40.00899667
            ],
            [
              116.34185633,
              40.00898927
            ],
            [
              116.34271016,
              40.0264919
            ]
          ]
        ]
      }
    },
    {
      "type": "Feature",
      "id": "LU-READY-GREEN",
      "properties": {
        "id": "LU-READY-GREEN",
        "layer": "LAND_USE",
        "source_type": "agent_generated_design",
        "confidence": "medium",
        "geometry_role": "design_proposal",
        "land_use_code": "1401",
        "name_zh": "公园绿地",
        "name_en": "Ready-gate north garden",
        "label_zh": "公园绿地",
        "label_en": "Ready-gate north garden",
        "area_sqm_declared": 701595.008
      },
      "geometry": {
        "type": "MultiPolygon",
        "coordinates": [
          [
            [
              [
                116.34504757,
                40.00899114
              ],
              [
                116.35433268,
                40.00904324
              ],
              [
                116.35394961,
                40.00205168
              ],
              [
                116.34511436,
                40.0020021
              ],
              [
                116.34504757,
                40.00899114
              ]
            ]
          ],
          [
            [
              [
                116.34185554,
                40.00897306
              ],
              [
                116.3431599,
                40.00898046
              ],
              [
                116.34322688,
                40.00199141
              ],
              [
                116.34145119,
                40.00198134
              ],
              [
                116.34171053,
                40.0059996
              ],
              [
                116.34171053,
                40.0059997
              ],
              [
                116.34185554,
                40.00897306
              ]
            ]
          ]
        ]
      }
    },
    {
      "type": "Feature",
      "id": "LU-SHARE-EDU",
      "properties": {
        "id": "LU-SHARE-EDU",
        "layer": "LAND_USE",
        "source_type": "agent_generated_design",
        "confidence": "medium",
        "geometry_role": "design_proposal",
        "land_use_code": "0804",
        "name_zh": "教育用地",
        "name_en": "Shared-measure campus edge",
        "label_zh": "教育用地",
        "label_en": "Shared-measure campus edge",
        "area_sqm_declared": 1604846.996
      },
      "geometry": {
        "type": "MultiPolygon",
        "coordinates": [
          [
            [
              [
                116.34511451,
                40.00198589
              ],
              [
                116.35394872,
                40.00203547
              ],
              [
                116.35328947,
                39.99000034
              ],
              [
                116.35328948,
                39.9899995
              ],
              [
                116.35358659,
                39.98628695
              ],
              [
                116.34526489,
                39.98624024
              ],
              [
                116.34511451,
                40.00198589
              ]
            ]
          ],
          [
            [
              [
                116.34145015,
                40.00196512
              ],
              [
                116.34322704,
                40.0019752
              ],
              [
                116.34337785,
                39.98622957
              ],
              [
                116.34043377,
                39.98621285
              ],
              [
                116.34145015,
                40.00196512
              ]
            ]
          ]
        ]
      }
    },
    {
      "type": "Feature",
      "id": "LU-SHARE-LIVE",
      "properties": {
        "id": "LU-SHARE-LIVE",
        "layer": "LAND_USE",
        "source_type": "agent_generated_design",
        "confidence": "medium",
        "geometry_role": "design_proposal",
        "land_use_code": "0701",
        "name_zh": "城镇住宅用地",
        "name_en": "Shared-measure living",
        "label_zh": "城镇住宅用地",
        "label_en": "Shared-measure living",
        "area_sqm_declared": 986566.277
      },
      "geometry": {
        "type": "MultiPolygon",
        "coordinates": [
          [
            [
              [
                116.34526505,
                39.98622403
              ],
              [
                116.35358788,
                39.98627075
              ],
              [
                116.35428694,
                39.97753377
              ],
              [
                116.34534847,
                39.97748364
              ],
              [
                116.34526505,
                39.98622403
              ]
            ]
          ],
          [
            [
              [
                116.34043273,
                39.98619663
              ],
              [
                116.343378,
                39.98621336
              ],
              [
                116.34346167,
                39.97747296
              ],
              [
                116.33986872,
                39.97745256
              ],
              [
                116.34043273,
                39.98619663
              ]
            ]
          ]
        ]
      }
    },
    {
      "type": "Feature",
      "id": "LU-MID-MIX",
      "properties": {
        "id": "LU-MID-MIX",
        "layer": "LAND_USE",
        "source_type": "agent_generated_design",
        "confidence": "medium",
        "geometry_role": "design_proposal",
        "land_use_code": "09",
        "name_zh": "商业服务业用地",
        "name_en": "Mid-gallery mixed services",
        "label_zh": "商业服务业用地",
        "label_en": "Mid-gallery mixed services",
        "area_sqm_declared": 1516395.982
      },
      "geometry": {
        "type": "MultiPolygon",
        "coordinates": [
          [
            [
              [
                116.35428824,
                39.97751757
              ],
              [
                116.35526711,
                39.9652793
              ],
              [
                116.34546542,
                39.96522437
              ],
              [
                116.34534862,
                39.97746743
              ],
              [
                116.35428824,
                39.97751757
              ]
            ]
          ],
          [
            [
              [
                116.33971054,
                39.97499989
              ],
              [
                116.33986767,
                39.97743634
              ],
              [
                116.34346182,
                39.97745675
              ],
              [
                116.34357895,
                39.9652137
              ],
              [
                116.33998308,
                39.96519328
              ],
              [
                116.33971054,
                39.97499989
              ]
            ]
          ]
        ]
      }
    },
    {
      "type": "Feature",
      "id": "LU-OPS-COMM",
      "properties": {
        "id": "LU-OPS-COMM",
        "layer": "LAND_USE",
        "source_type": "agent_generated_design",
        "confidence": "medium",
        "geometry_role": "design_proposal",
        "land_use_code": "0901",
        "name_zh": "商业用地",
        "name_en": "Operations handover commerce",
        "label_zh": "商业用地",
        "label_en": "Operations handover commerce",
        "area_sqm_declared": 2187666.996
      },
      "geometry": {
        "type": "MultiPolygon",
        "coordinates": [
          [
            [
              [
                116.35528948,
                39.94776518
              ],
              [
                116.34563236,
                39.94771108
              ],
              [
                116.34546557,
                39.96520816
              ],
              [
                116.35526841,
                39.96526309
              ],
              [
                116.35528947,
                39.96499975
              ],
              [
                116.35528948,
                39.94776518
              ]
            ]
          ],
          [
            [
              [
                116.33998353,
                39.96517707
              ],
              [
                116.34357911,
                39.96519749
              ],
              [
                116.34374637,
                39.94770042
              ],
              [
                116.34046949,
                39.94768182
              ],
              [
                116.33998353,
                39.96517707
              ]
            ]
          ]
        ]
      }
    },
    {
      "type": "Feature",
      "id": "LU-SOUTH-CIVIC",
      "properties": {
        "id": "LU-SOUTH-CIVIC",
        "layer": "LAND_USE",
        "source_type": "agent_generated_design",
        "confidence": "medium",
        "geometry_role": "design_proposal",
        "land_use_code": "0702",
        "name_zh": "社区服务用地",
        "name_en": "South everyday civic",
        "label_zh": "社区服务用地",
        "label_en": "South everyday civic",
        "area_sqm_declared": 1088193.205
      },
      "geometry": {
        "type": "Polygon",
        "coordinates": [
          [
            [
              116.34071031,
              39.93900811
            ],
            [
              116.34046994,
              39.94766561
            ],
            [
              116.34374653,
              39.94768421
            ],
            [
              116.34381338,
              39.94068699
            ],
            [
              116.34381344,
              39.94068619
            ],
            [
              116.3438136,
              39.94068541
            ],
            [
              116.34381386,
              39.94068464
            ],
            [
              116.34381421,
              39.94068389
            ],
            [
              116.34381466,
              39.94068317
            ],
            [
              116.3438152,
              39.94068249
            ],
            [
              116.34381582,
              39.94068186
            ],
            [
              116.34381652,
              39.94068127
            ],
            [
              116.34381729,
              39.94068074
            ],
            [
              116.34381812,
              39.94068027
            ],
            [
              116.34381901,
              39.94067987
            ],
            [
              116.34381995,
              39.94067953
            ],
            [
              116.34382093,
              39.94067927
            ],
            [
              116.34382193,
              39.94067908
            ],
            [
              116.34382295,
              39.94067897
            ],
            [
              116.34382399,
              39.94067894
            ],
            [
              116.34568872,
              39.94068948
            ],
            [
              116.34568975,
              39.94068952
            ],
            [
              116.34569077,
              39.94068965
            ],
            [
              116.34569177,
              39.94068984
            ],
            [
              116.34569274,
              39.94069012
            ],
            [
              116.34569367,
              39.94069046
            ],
            [
              116.34569456,
              39.94069088
            ],
            [
              116.34569538,
              39.94069136
            ],
            [
              116.34569614,
              39.94069189
            ],
            [
              116.34569683,
              39.94069249
            ],
            [
              116.34569744,
              39.94069313
            ],
            [
              116.34569796,
              39.94069382
            ],
            [
              116.3456984,
              39.94069454
            ],
            [
              116.34569874,
              39.94069529
            ],
            [
              116.34569898,
              39.94069606
            ],
            [
              116.34569913,
              39.94069685
            ],
            [
              116.34569917,
              39.94069764
            ],
            [
              116.34563251,
              39.94769487
            ],
            [
              116.35528948,
              39.94774897
            ],
            [
              116.35528947,
              39.93900811
            ],
            [
              116.34071031,
              39.93900811
            ]
          ]
        ]
      }
    },
    {
      "type": "Feature",
      "id": "LU-FILL-0702",
      "properties": {
        "id": "LU-FILL-0702",
        "layer": "LAND_USE",
        "source_type": "agent_generated_design",
        "confidence": "medium",
        "geometry_role": "design_proposal",
        "land_use_code": "0702",
        "name_zh": "缝合填充用地",
        "name_en": "Topology fill stitch",
        "label_zh": "缝合填充用地",
        "label_en": "Topology fill stitch",
        "area_sqm_declared": 64736.249
      },
      "geometry": {
        "type": "Polygon",
        "coordinates": [
          [
            [
              116.3397,
              39.975
            ],
            [
              116.3417,
              40.006
            ],
            [
              116.3427,
              40.0265
            ],
            [
              116.3553,
              40.0265
            ],
            [
              116.3533,
              39.99
            ],
            [
              116.3553,
              39.965
            ],
            [
              116.3553,
              39.939
            ],
            [
              116.3407,
              39.939
            ],
            [
              116.3397,
              39.975
            ]
          ],
          [
            [
              116.34504742,
              40.00900735
            ],
            [
              116.35433357,
              40.00905946
            ],
            [
              116.355289,
              40.0264919
            ],
            [
              116.34271016,
              40.0264919
            ],
            [
              116.34185633,
              40.00898927
            ],
            [
              116.34315975,
              40.00899667
            ],
            [
              116.34300869,
              40.02475035
            ],
            [
              116.34300873,
              40.02475114
            ],
            [
              116.34300888,
              40.02475193
            ],
            [
              116.34300912,
              40.0247527
            ],
            [
              116.34300946,
              40.02475345
            ],
            [
              116.3430099,
              40.02475418
            ],
            [
              116.34301042,
              40.02475486
            ],
            [
              116.34301103,
              40.0247555
            ],
            [
              116.34301172,
              40.0247561
            ],
            [
              116.34301248,
              40.02475664
            ],
            [
              116.34301331,
              40.02475711
            ],
            [
              116.34301419,
              40.02475753
            ],
            [
              116.34301513,
              40.02475787
            ],
            [
              116.3430161,
              40.02475815
            ],
            [
              116.3430171,
              40.02475835
            ],
            [
              116.34301812,
              40.02475847
            ],
            [
              116.34301915,
              40.02475851
            ],
            [
              116.34488617,
              40.02476908
            ],
            [
              116.34488721,
              40.02476905
            ],
            [
              116.34488823,
              40.02476894
            ],
            [
              116.34488924,
              40.02476875
            ],
            [
              116.34489021,
              40.02476849
            ],
            [
              116.34489115,
              40.02476815
            ],
            [
              116.34489204,
              40.02476775
            ],
            [
              116.34489288,
              40.02476728
            ],
            [
              116.34489365,
              40.02476675
            ],
            [
              116.34489435,
              40.02476617
            ],
            [
              116.34489497,
              40.02476553
            ],
            [
              116.34489551,
              40.02476485
            ],
            [
              116.34489596,
              40.02476414
            ],
            [
              116.34489632,
              40.02476339
            ],
            [
              116.34489657,
              40.02476262
            ],
            [
              116.34489673,
              40.02476183
            ],
            [
              116.34489679,
              40.02476104
            ],
            [
              116.34504742,
              40.00900735
            ]
          ],
          [
            [
              116.35526841,
              39.96526309
            ],
            [
              116.34546557,
              39.96520816
            ],
            [
              116.34563236,
              39.94771108
            ],
            [
              116.35528948,
              39.94776518
            ],
            [
              116.35528947,
              39.96499975
            ],
            [
              116.35526841,
              39.96526309
            ]
          ],
          [
            [
              116.34534862,
              39.97746743
            ],
            [
              116.34546542,
              39.96522437
            ],
            [
              116.35526711,
              39.9652793
            ],
            [
              116.35428824,
              39.97751757
            ],
            [
              116.34534862,
              39.97746743
            ]
          ],
          [
            [
              116.34374653,
              39.94768421
            ],
            [
              116.34046994,
              39.94766561
            ],
            [
              116.34071031,
              39.93900811
            ],
            [
              116.35528947,
              39.93900811
            ],
            [
              116.35528948,
              39.94774897
            ],
            [
              116.34563251,
              39.94769487
            ],
            [
              116.34569917,
              39.94069764
            ],
            [
              116.34569913,
              39.94069685
            ],
            [
              116.34569898,
              39.94069606
            ],
            [
              116.34569874,
              39.94069529
            ],
            [
              116.3456984,
              39.94069454
            ],
            [
              116.34569796,
              39.94069382
            ],
            [
              116.34569744,
              39.94069313
            ],
            [
              116.34569683,
              39.94069249
            ],
            [
              116.34569614,
              39.94069189
            ],
            [
              116.34569538,
              39.94069136
            ],
            [
              116.34569456,
              39.94069088
            ],
            [
              116.34569367,
              39.94069046
            ],
            [
              116.34569274,
              39.94069012
            ],
            [
              116.34569177,
              39.94068984
            ],
            [
              116.34569077,
              39.94068965
            ],
            [
              116.34568975,
              39.94068952
            ],
            [
              116.34568872,
              39.94068948
            ],
            [
              116.34382399,
              39.94067894
            ],
            [
              116.34382295,
              39.94067897
            ],
            [
              116.34382193,
              39.94067908
            ],
            [
              116.34382093,
              39.94067927
            ],
            [
              116.34381995,
              39.94067953
            ],
            [
              116.34381901,
              39.94067987
            ],
            [
              116.34381812,
              39.94068027
            ],
            [
              116.34381729,
              39.94068074
            ],
            [
              116.34381652,
              39.94068127
            ],
            [
              116.34381582,
              39.94068186
            ],
            [
              116.3438152,
              39.94068249
            ],
            [
              116.34381466,
              39.94068317
            ],
            [
              116.34381421,
              39.94068389
            ],
            [
              116.34381386,
              39.94068464
            ],
            [
              116.3438136,
              39.94068541
            ],
            [
              116.34381344,
              39.94068619
            ],
            [
              116.34381338,
              39.94068699
            ],
            [
              116.34374653,
              39.94768421
            ]
          ],
          [
            [
              116.34511436,
              40.0020021
            ],
            [
              116.35394961,
              40.00205168
            ],
            [
              116.35433268,
              40.00904324
            ],
            [
              116.34504757,
              40.00899114
            ],
            [
              116.34511436,
              40.0020021
            ]
          ],
          [
            [
              116.34534847,
              39.97748364
            ],
            [
              116.35428694,
              39.97753377
            ],
            [
              116.35358788,
              39.98627075
            ],
            [
              116.34526505,
              39.98622403
            ],
            [
              116.34534847,
              39.97748364
            ]
          ],
          [
            [
              116.35328948,
              39.9899995
            ],
            [
              116.35328947,
              39.99000034
            ],
            [
              116.35394872,
              40.00203547
            ],
            [
              116.34511451,
              40.00198589
            ],
            [
              116.34526489,
              39.98624024
            ],
            [
              116.35358659,
              39.98628695
            ],
            [
              116.35328948,
              39.9899995
            ]
          ],
          [
            [
              116.34567804,
              39.94070563
            ],
            [
              116.34487578,
              40.02475281
            ],
            [
              116.34302985,
              40.02474236
            ],
            [
              116.34383436,
              39.94069521
            ],
            [
              116.34567804,
              39.94070563
            ]
          ],
          [
            [
              116.34046949,
              39.94768182
            ],
            [
              116.34374637,
              39.94770042
            ],
            [
              116.34357911,
              39.96519749
            ],
            [
              116.33998353,
              39.96517707
            ],
            [
              116.34046949,
              39.94768182
            ]
          ],
          [
            [
              116.34043377,
              39.98621285
            ],
            [
              116.34337785,
              39.98622957
            ],
            [
              116.34322704,
              40.0019752
            ],
            [
              116.34145015,
              40.00196512
            ],
            [
              116.34043377,
              39.98621285
            ]
          ],
          [
            [
              116.34357895,
              39.9652137
            ],
            [
              116.34346182,
              39.97745675
            ],
            [
              116.33986767,
              39.97743634
            ],
            [
              116.33971054,
              39.97499989
            ],
            [
              116.33998308,
              39.96519328
            ],
            [
              116.34357895,
              39.9652137
            ]
          ],
          [
            [
              116.34346167,
              39.97747296
            ],
            [
              116.343378,
              39.98621336
            ],
            [
              116.34043273,
              39.98619663
            ],
            [
              116.33986872,
              39.97745256
            ],
            [
              116.34346167,
              39.97747296
            ]
          ],
          [
            [
              116.34322688,
              40.00199141
            ],
            [
              116.3431599,
              40.00898046
            ],
            [
              116.34185554,
              40.00897306
            ],
            [
              116.34171053,
              40.0059997
            ],
            [
              116.34171053,
              40.0059996
            ],
            [
              116.34145119,
              40.00198134
            ],
            [
              116.34322688,
              40.00199141
            ]
          ]
        ]
      }
    }
  ]
}
