{
  "type": "FeatureCollection",
  "name": "phasing_commons_gallery",
  "features": [
    {
      "type": "Feature",
      "id": "PHASE-NEAR-GALLERY",
      "properties": {
        "id": "PHASE-NEAR-GALLERY",
        "layer": "PHASE",
        "source_type": "agent_generated_design",
        "confidence": "medium",
        "geometry_role": "design_proposal",
        "phase": "near_term",
        "label_zh": "近期：共证廊 + 三门",
        "label_en": "Near: gallery and three gates",
        "area_sqm_declared": 1891792.137
      },
      "geometry": {
        "type": "Polygon",
        "coordinates": [
          [
            [
              116.34560104,
              39.94989208
            ],
            [
              116.34568864,
              39.94069758
            ],
            [
              116.34382391,
              39.94068704
            ],
            [
              116.34373606,
              39.94988154
            ],
            [
              116.34315728,
              39.94987826
            ],
            [
              116.34309864,
              39.95600791
            ],
            [
              116.34367748,
              39.95601119
            ],
            [
              116.34337589,
              39.98753501
            ],
            [
              116.34279678,
              39.98753173
            ],
            [
              116.34273803,
              39.99366134
            ],
            [
              116.34331719,
              39.99366462
            ],
            [
              116.3431242,
              40.01380473
            ],
            [
              116.34254487,
              40.01380144
            ],
            [
              116.34248605,
              40.01993103
            ],
            [
              116.34306542,
              40.01993431
            ],
            [
              116.34301923,
              40.02475041
            ],
            [
              116.34488625,
              40.02476098
            ],
            [
              116.34493231,
              40.01994488
            ],
            [
              116.34667045,
              40.01995469
            ],
            [
              116.3467289,
              40.0138251
            ],
            [
              116.34499092,
              40.01381529
            ],
            [
              116.34518336,
              39.99367518
            ],
            [
              116.34692083,
              39.99368498
            ],
            [
              116.34697921,
              39.98755537
            ],
            [
              116.34524189,
              39.98754557
            ],
            [
              116.34554262,
              39.95602173
            ],
            [
              116.34727914,
              39.95603152
            ],
            [
              116.34733741,
              39.94990187
            ],
            [
              116.34560104,
              39.94989208
            ]
          ]
        ]
      }
    },
    {
      "type": "Feature",
      "id": "PHASE-MID-KEY-AREAS",
      "properties": {
        "id": "PHASE-MID-KEY-AREAS",
        "layer": "PHASE",
        "source_type": "agent_generated_design",
        "confidence": "medium",
        "geometry_role": "design_proposal",
        "phase": "mid_term",
        "label_zh": "中期：三重点区缝合",
        "label_en": "Mid: key-area stitching",
        "area_sqm_declared": 8053797.9
      },
      "geometry": {
        "type": "MultiPolygon",
        "coordinates": [
          [
            [
              [
                116.3533,
                39.99
              ],
              [
                116.3552261,
                39.96592413
              ],
              [
                116.35530001,
                39.95805469
              ],
              [
                116.35530001,
                39.94600571
              ],
              [
                116.34563859,
                39.94595158
              ],
              [
                116.34560104,
                39.94989208
              ],
              [
                116.34733741,
                39.94990187
              ],
              [
                116.34727914,
                39.95603152
              ],
              [
                116.34554262,
                39.95602173
              ],
              [
                116.34524189,
                39.98754557
              ],
              [
                116.34697921,
                39.98755537
              ],
              [
                116.34692083,
                39.99368498
              ],
              [
                116.34518336,
                39.99367518
              ],
              [
                116.34499092,
                40.01381529
              ],
              [
                116.3467289,
                40.0138251
              ],
              [
                116.34667045,
                40.01995469
              ],
              [
                116.34493231,
                40.01994488
              ],
              [
                116.344903,
                40.02300967
              ],
              [
                116.35468852,
                40.02306458
              ],
              [
                116.35475058,
                40.01647648
              ],
              [
                116.3533,
                39.99
              ]
            ]
          ],
          [
            [
              [
                116.3417,
                40.006
              ],
              [
                116.34252905,
                40.02299623
              ],
              [
                116.34303603,
                40.0229991
              ],
              [
                116.34306542,
                40.01993431
              ],
              [
                116.34248605,
                40.01993103
              ],
              [
                116.34254487,
                40.01380144
              ],
              [
                116.3431242,
                40.01380473
              ],
              [
                116.34331719,
                39.99366462
              ],
              [
                116.34273803,
                39.99366134
              ],
              [
                116.34279678,
                39.98753173
              ],
              [
                116.34337589,
                39.98753501
              ],
              [
                116.34367748,
                39.95601119
              ],
              [
                116.34309864,
                39.95600791
              ],
              [
                116.34315728,
                39.94987826
              ],
              [
                116.34373606,
                39.94988154
              ],
              [
                116.34377372,
                39.94594104
              ],
              [
                116.34078349,
                39.94592408
              ],
              [
                116.34039988,
                39.98585099
              ],
              [
                116.3417,
                40.006
              ]
            ]
          ]
        ]
      }
    },
    {
      "type": "Feature",
      "id": "PHASE-FAR-EDGES",
      "properties": {
        "id": "PHASE-FAR-EDGES",
        "layer": "PHASE",
        "source_type": "agent_generated_design",
        "confidence": "medium",
        "geometry_role": "design_proposal",
        "phase": "long_term",
        "label_zh": "远期：廊边与两翼接口",
        "label_en": "Far: edges and wing interfaces",
        "area_sqm_declared": 1467235.349
      },
      "geometry": {
        "type": "MultiPolygon",
        "coordinates": [
          [
            [
              [
                116.3427,
                40.0265
              ],
              [
                116.3553,
                40.0265
              ],
              [
                116.3533,
                39.99
              ],
              [
                116.35475058,
                40.01647648
              ],
              [
                116.35468852,
                40.02306458
              ],
              [
                116.344903,
                40.02300967
              ],
              [
                116.34488625,
                40.02476098
              ],
              [
                116.34301923,
                40.02475041
              ],
              [
                116.34303603,
                40.0229991
              ],
              [
                116.34252905,
                40.02299623
              ],
              [
                116.3427,
                40.0265
              ]
            ]
          ],
          [
            [
              [
                116.3533,
                39.99
              ],
              [
                116.3553,
                39.965
              ],
              [
                116.35530001,
                39.95805469
              ],
              [
                116.3552261,
                39.96592413
              ],
              [
                116.3533,
                39.99
              ]
            ]
          ],
          [
            [
              [
                116.3417,
                40.006
              ],
              [
                116.34039988,
                39.98585099
              ],
              [
                116.34078349,
                39.94592408
              ],
              [
                116.34377372,
                39.94594104
              ],
              [
                116.34382391,
                39.94068704
              ],
              [
                116.34568864,
                39.94069758
              ],
              [
                116.34563859,
                39.94595158
              ],
              [
                116.35530001,
                39.94600571
              ],
              [
                116.3553,
                39.939
              ],
              [
                116.3407,
                39.939
              ],
              [
                116.3397,
                39.975
              ],
              [
                116.3417,
                40.006
              ]
            ]
          ]
        ]
      }
    }
  ]
}
