{
  "type": "FeatureCollection",
  "name": "public_space_commons_gallery",
  "features": [
    {
      "type": "Feature",
      "id": "PUBLIC-WALK-SPINE",
      "properties": {
        "id": "PUBLIC-WALK-SPINE",
        "layer": "PUBLIC_SPACE",
        "source_type": "agent_generated_design",
        "confidence": "medium",
        "geometry_role": "design_proposal",
        "label_zh": "无账号慢行断面",
        "label_en": "No-login walk section",
        "area_sqm_declared": 803744.456
      },
      "geometry": {
        "type": "Polygon",
        "coordinates": [
          [
            [
              116.34423351,
              39.94156508
            ],
            [
              116.3434461,
              40.02387713
            ],
            [
              116.34447616,
              40.02388296
            ],
            [
              116.34526234,
              39.94157089
            ],
            [
              116.34423351,
              39.94156508
            ]
          ]
        ]
      }
    },
    {
      "type": "Feature",
      "id": "PUBLIC-READY-GATE",
      "properties": {
        "id": "PUBLIC-READY-GATE",
        "layer": "PUBLIC_SPACE",
        "source_type": "agent_generated_design",
        "confidence": "medium",
        "geometry_role": "design_proposal",
        "label_zh": "就绪门核验广场",
        "label_en": "PUBLIC-READY-GATE",
        "area_sqm_declared": 243154.074
      },
      "geometry": {
        "type": "Polygon",
        "coordinates": [
          [
            [
              116.34254487,
              40.01380144
            ],
            [
              116.34248605,
              40.01993103
            ],
            [
              116.34667045,
              40.01995469
            ],
            [
              116.3467289,
              40.0138251
            ],
            [
              116.34254487,
              40.01380144
            ]
          ]
        ]
      }
    },
    {
      "type": "Feature",
      "id": "PUBLIC-SHARE-GALLERY",
      "properties": {
        "id": "PUBLIC-SHARE-GALLERY",
        "layer": "PUBLIC_SPACE",
        "source_type": "agent_generated_design",
        "confidence": "medium",
        "geometry_role": "design_proposal",
        "label_zh": "共测廊下广场",
        "label_en": "PUBLIC-SHARE-GALLERY",
        "area_sqm_declared": 243154.074
      },
      "geometry": {
        "type": "Polygon",
        "coordinates": [
          [
            [
              116.34279678,
              39.98753173
            ],
            [
              116.34273803,
              39.99366134
            ],
            [
              116.34692083,
              39.99368498
            ],
            [
              116.34697921,
              39.98755537
            ],
            [
              116.34279678,
              39.98753173
            ]
          ]
        ]
      }
    },
    {
      "type": "Feature",
      "id": "PUBLIC-OPS-HALL",
      "properties": {
        "id": "PUBLIC-OPS-HALL",
        "layer": "PUBLIC_SPACE",
        "source_type": "agent_generated_design",
        "confidence": "medium",
        "geometry_role": "design_proposal",
        "label_zh": "运营交接厅广场",
        "label_en": "PUBLIC-OPS-HALL",
        "area_sqm_declared": 243154.074
      },
      "geometry": {
        "type": "Polygon",
        "coordinates": [
          [
            [
              116.34315728,
              39.94987826
            ],
            [
              116.34309864,
              39.95600791
            ],
            [
              116.34727914,
              39.95603152
            ],
            [
              116.34733741,
              39.94990187
            ],
            [
              116.34315728,
              39.94987826
            ]
          ]
        ]
      }
    }
  ]
}
