{
  "type": "FeatureCollection",
  "name": "roads_commons_gallery",
  "features": [
    {
      "type": "Feature",
      "id": "ROAD-GALLERY-NS",
      "properties": {
        "id": "ROAD-GALLERY-NS",
        "layer": "ROAD_CENTERLINE",
        "source_type": "agent_generated_design",
        "confidence": "medium",
        "geometry_role": "design_proposal",
        "road_class": "pedestrian",
        "label_zh": "共证廊无账号慢行主脊",
        "label_en": "Commons Gallery walk spine"
      },
      "geometry": {
        "type": "LineString",
        "coordinates": [
          [
            116.34474375,
            39.94200582
          ],
          [
            116.34396532,
            40.02344222
          ]
        ]
      }
    },
    {
      "type": "Feature",
      "id": "ROAD-READY-EW",
      "properties": {
        "id": "ROAD-READY-EW",
        "layer": "ROAD_CENTERLINE",
        "source_type": "agent_generated_design",
        "confidence": "medium",
        "geometry_role": "design_proposal",
        "road_class": "local_access",
        "label_zh": "就绪门接驳横联"
      },
      "geometry": {
        "type": "LineString",
        "coordinates": [
          [
            116.34222992,
            40.01686461
          ],
          [
            116.35378067,
            40.0169296
          ]
        ]
      }
    },
    {
      "type": "Feature",
      "id": "ROAD-SHARE-EW",
      "properties": {
        "id": "ROAD-SHARE-EW",
        "layer": "ROAD_CENTERLINE",
        "source_type": "agent_generated_design",
        "confidence": "medium",
        "geometry_role": "design_proposal",
        "road_class": "local_access",
        "label_zh": "共测廊下接驳横联"
      },
      "geometry": {
        "type": "LineString",
        "coordinates": [
          [
            116.34083697,
            39.99058557
          ],
          [
            116.35333593,
            39.99065598
          ]
        ]
      }
    },
    {
      "type": "Feature",
      "id": "ROAD-OPS-EW",
      "properties": {
        "id": "ROAD-OPS-EW",
        "layer": "ROAD_CENTERLINE",
        "source_type": "agent_generated_design",
        "confidence": "medium",
        "geometry_role": "design_proposal",
        "road_class": "transit_connection",
        "label_zh": "运营交接接驳横联"
      },
      "geometry": {
        "type": "LineString",
        "coordinates": [
          [
            116.34119858,
            39.95293214
          ],
          [
            116.35438267,
            39.95300631
          ]
        ]
      }
    }
  ]
}
