{
  "type": "FeatureCollection",
  "name": "phasing_scaffold",
  "features": [
    {
      "type": "Feature",
      "id": "PHASE-001",
      "properties": {
        "id": "PHASE-001",
        "layer": "PHASE",
        "source_type": "agent_generated_design",
        "confidence": "medium",
        "geometry_role": "design_proposal",
        "phase": "phase_1",
        "name_zh": "近期规则、服务与可逆设施启动范围",
        "area_sqm_declared": 4587013.573,
        "name_en": "Near-term rules, service and reversible installations",
        "project_ids": [
          "JZ-01",
          "JZ-02",
          "JZ-03",
          "JZ-04",
          "JZ-05",
          "JZ-06"
        ],
        "milestones": [
          "problem_inventory",
          "limited_pilots",
          "public_evaluation",
          "professional_deepening"
        ],
        "usage_note": "Concept phasing only; not a confirmed government implementation schedule."
      },
      "geometry": {
        "type": "Polygon",
        "coordinates": [
          [
            [
              116.3417,
              40.006
            ],
            [
              116.34218780487805,
              40.016
            ],
            [
              116.34843599999999,
              40.016
            ],
            [
              116.34843599999999,
              39.9495
            ],
            [
              116.340948,
              39.9495
            ],
            [
              116.340948,
              39.99434399999997
            ],
            [
              116.3417,
              40.006
            ]
          ]
        ]
      }
    }
  ]
}
