{
  "type": "FeatureCollection",
  "name": "jingzhang_ai_civic_commons_public_space",
  "features": [
    {
      "type": "Feature",
      "id": "PUBLIC-001",
      "properties": {
        "id": "PUBLIC-001",
        "layer": "PUBLIC_SPACE",
        "source_type": "agent_generated_design",
        "confidence": "medium",
        "geometry_role": "design_proposal",
        "name_zh": "京张智惠公共服务主轴",
        "name_en": "Jing-Zhang AI Civic Commons Spine",
        "design_intent": "连接创新服务驿站、公共生活驿站与全龄友好慢行节点；几何为概念设计，不替代官方公共空间边界。",
        "review_revision": "v0.3: adds ten mapped AI scenario nodes, three public-knowledge landmarks, five-gate pilot governance and human-fallback requirements.",
        "area_sqm_declared": 836345.643
      },
      "geometry": {
        "type": "Polygon",
        "coordinates": [
          [
            [
              116.34734399999999,
              39.967
            ],
            [
              116.34734399999999,
              40.00025
            ],
            [
              116.349996,
              40.00025
            ],
            [
              116.349996,
              39.967
            ],
            [
              116.34734399999999,
              39.967
            ]
          ]
        ]
      }
    },
    {
      "type": "Feature",
      "id": "SCENE-01",
      "properties": {
        "id": "SCENE-01",
        "layer": "SCENARIO_NODE",
        "source_type": "agent_generated_design",
        "confidence": "medium",
        "geometry_role": "design_proposal",
        "name_zh": "安全治理沙盒",
        "name_en": "AI Safety Sandbox",
        "scenario_id": "SCENE-01",
        "scenario_type": "industry_validation",
        "key_area": "Zhongzhiyuan",
        "data_input": "authorized_test_sets",
        "human_review": "expert_stop",
        "pilot_cycle_days": 90,
        "entry_gates": [
          "technical_maturity",
          "data_compliance",
          "safety",
          "human_impact",
          "exit_condition"
        ]
      },
      "geometry": {
        "type": "Point",
        "coordinates": [
          116.3484,
          40.019
        ]
      }
    },
    {
      "type": "Feature",
      "id": "SCENE-02",
      "properties": {
        "id": "SCENE-02",
        "layer": "SCENARIO_NODE",
        "source_type": "agent_generated_design",
        "confidence": "medium",
        "geometry_role": "design_proposal",
        "name_zh": "端侧设备测试园",
        "name_en": "Edge-device Test Garden",
        "scenario_id": "SCENE-02",
        "scenario_type": "industry_validation",
        "key_area": "Zhongzhiyuan",
        "data_input": "device_telemetry",
        "human_review": "on_site_takeover",
        "pilot_cycle_days": 90,
        "entry_gates": [
          "technical_maturity",
          "data_compliance",
          "safety",
          "human_impact",
          "exit_condition"
        ]
      },
      "geometry": {
        "type": "Point",
        "coordinates": [
          116.3512,
          40.013
        ]
      }
    },
    {
      "type": "Feature",
      "id": "SCENE-03",
      "properties": {
        "id": "SCENE-03",
        "layer": "SCENARIO_NODE",
        "source_type": "agent_generated_design",
        "confidence": "medium",
        "geometry_role": "design_proposal",
        "name_zh": "开源发布厅",
        "name_en": "Open-source Release Hall",
        "scenario_id": "SCENE-03",
        "scenario_type": "public_service",
        "key_area": "AI Origin",
        "data_input": "voluntary_project_data",
        "human_review": "author_confirmation",
        "pilot_cycle_days": 90,
        "entry_gates": [
          "technical_maturity",
          "data_compliance",
          "safety",
          "human_impact",
          "exit_condition"
        ]
      },
      "geometry": {
        "type": "Point",
        "coordinates": [
          116.3462,
          39.99
        ]
      }
    },
    {
      "type": "Feature",
      "id": "SCENE-04",
      "properties": {
        "id": "SCENE-04",
        "layer": "SCENARIO_NODE",
        "source_type": "agent_generated_design",
        "confidence": "medium",
        "geometry_role": "design_proposal",
        "name_zh": "近校成果转化街",
        "name_en": "University-linked Transfer Street",
        "scenario_id": "SCENE-04",
        "scenario_type": "enterprise_service",
        "key_area": "AI Origin",
        "data_input": "self_declared_needs",
        "human_review": "specialist_confirmation",
        "pilot_cycle_days": 90,
        "entry_gates": [
          "technical_maturity",
          "data_compliance",
          "safety",
          "human_impact",
          "exit_condition"
        ]
      },
      "geometry": {
        "type": "Point",
        "coordinates": [
          116.3504,
          39.986
        ]
      }
    },
    {
      "type": "Feature",
      "id": "SCENE-05",
      "properties": {
        "id": "SCENE-05",
        "layer": "SCENARIO_NODE",
        "source_type": "agent_generated_design",
        "confidence": "medium",
        "geometry_role": "design_proposal",
        "name_zh": "慢行无障碍导航",
        "name_en": "Accessible Mobility Guide",
        "scenario_id": "SCENE-05",
        "scenario_type": "public_service",
        "key_area": "Civic Spine",
        "data_input": "public_network_and_reports",
        "human_review": "signage_and_hotline",
        "pilot_cycle_days": 90,
        "entry_gates": [
          "technical_maturity",
          "data_compliance",
          "safety",
          "human_impact",
          "exit_condition"
        ]
      },
      "geometry": {
        "type": "Point",
        "coordinates": [
          116.3487,
          39.978
        ]
      }
    },
    {
      "type": "Feature",
      "id": "SCENE-06",
      "properties": {
        "id": "SCENE-06",
        "layer": "SCENARIO_NODE",
        "source_type": "agent_generated_design",
        "confidence": "medium",
        "geometry_role": "design_proposal",
        "name_zh": "清河低碳创新廊",
        "name_en": "Low-carbon Innovation Corridor",
        "scenario_id": "SCENE-06",
        "scenario_type": "public_service",
        "key_area": "Zhongzhiyuan",
        "data_input": "aggregated_environment_sensors",
        "human_review": "manual_inspection",
        "pilot_cycle_days": 90,
        "entry_gates": [
          "technical_maturity",
          "data_compliance",
          "safety",
          "human_impact",
          "exit_condition"
        ]
      },
      "geometry": {
        "type": "Point",
        "coordinates": [
          116.345,
          40.022
        ]
      }
    },
    {
      "type": "Feature",
      "id": "SCENE-07",
      "properties": {
        "id": "SCENE-07",
        "layer": "SCENARIO_NODE",
        "source_type": "agent_generated_design",
        "confidence": "medium",
        "geometry_role": "design_proposal",
        "name_zh": "国际路演客厅",
        "name_en": "International Demo Living Room",
        "scenario_id": "SCENE-07",
        "scenario_type": "enterprise_service",
        "key_area": "Dazhongsi",
        "data_input": "authorized_corporate_material",
        "human_review": "host_edit",
        "pilot_cycle_days": 90,
        "entry_gates": [
          "technical_maturity",
          "data_compliance",
          "safety",
          "human_impact",
          "exit_condition"
        ]
      },
      "geometry": {
        "type": "Point",
        "coordinates": [
          116.3508,
          39.947
        ]
      }
    },
    {
      "type": "Feature",
      "id": "SCENE-08",
      "properties": {
        "id": "SCENE-08",
        "layer": "SCENARIO_NODE",
        "source_type": "agent_generated_design",
        "confidence": "medium",
        "geometry_role": "design_proposal",
        "name_zh": "智能终端体验街",
        "name_en": "Smart-device Experience Street",
        "scenario_id": "SCENE-08",
        "scenario_type": "industry_validation",
        "key_area": "Dazhongsi",
        "data_input": "anonymized_feedback",
        "human_review": "immediate_suspension",
        "pilot_cycle_days": 90,
        "entry_gates": [
          "technical_maturity",
          "data_compliance",
          "safety",
          "human_impact",
          "exit_condition"
        ]
      },
      "geometry": {
        "type": "Point",
        "coordinates": [
          116.346,
          39.946
        ]
      }
    },
    {
      "type": "Feature",
      "id": "SCENE-09",
      "properties": {
        "id": "SCENE-09",
        "layer": "SCENARIO_NODE",
        "source_type": "agent_generated_design",
        "confidence": "medium",
        "geometry_role": "design_proposal",
        "name_zh": "AI生活服务驿站",
        "name_en": "AI Civic-service Station",
        "scenario_id": "SCENE-09",
        "scenario_type": "public_service",
        "key_area": "Civic Spine",
        "data_input": "user_provided_information",
        "human_review": "staff_confirmation",
        "pilot_cycle_days": 90,
        "entry_gates": [
          "technical_maturity",
          "data_compliance",
          "safety",
          "human_impact",
          "exit_condition"
        ]
      },
      "geometry": {
        "type": "Point",
        "coordinates": [
          116.3484,
          39.962
        ]
      }
    },
    {
      "type": "Feature",
      "id": "SCENE-10",
      "properties": {
        "id": "SCENE-10",
        "layer": "SCENARIO_NODE",
        "source_type": "agent_generated_design",
        "confidence": "medium",
        "geometry_role": "design_proposal",
        "name_zh": "全球AI活动周路线",
        "name_en": "Global AI Week Route",
        "scenario_id": "SCENE-10",
        "scenario_type": "public_event",
        "key_area": "Civic Spine",
        "data_input": "public_event_information",
        "human_review": "on_site_dispatch",
        "pilot_cycle_days": 90,
        "entry_gates": [
          "technical_maturity",
          "data_compliance",
          "safety",
          "human_impact",
          "exit_condition"
        ]
      },
      "geometry": {
        "type": "Point",
        "coordinates": [
          116.349,
          40.001
        ]
      }
    },
    {
      "type": "Feature",
      "id": "LANDMARK-01",
      "properties": {
        "id": "LANDMARK-01",
        "layer": "SCENARIO_NODE",
        "source_type": "agent_generated_design",
        "confidence": "medium",
        "geometry_role": "design_proposal",
        "name_zh": "可信AI测试塔",
        "name_en": "Trusted-AI Test Tower",
        "landmark_role": "public_knowledge_infrastructure",
        "reversible": true
      },
      "geometry": {
        "type": "Point",
        "coordinates": [
          116.3523,
          40.023
        ]
      }
    },
    {
      "type": "Feature",
      "id": "LANDMARK-02",
      "properties": {
        "id": "LANDMARK-02",
        "layer": "SCENARIO_NODE",
        "source_type": "agent_generated_design",
        "confidence": "medium",
        "geometry_role": "design_proposal",
        "name_zh": "开源贡献长廊",
        "name_en": "Open-source Contribution Walk",
        "landmark_role": "public_knowledge_infrastructure",
        "reversible": true
      },
      "geometry": {
        "type": "Point",
        "coordinates": [
          116.3445,
          39.986
        ]
      }
    },
    {
      "type": "Feature",
      "id": "LANDMARK-03",
      "properties": {
        "id": "LANDMARK-03",
        "layer": "SCENARIO_NODE",
        "source_type": "agent_generated_design",
        "confidence": "medium",
        "geometry_role": "design_proposal",
        "name_zh": "人机共创城市客厅",
        "name_en": "Human–AI Co-creation Living Room",
        "landmark_role": "public_knowledge_infrastructure",
        "reversible": true
      },
      "geometry": {
        "type": "Point",
        "coordinates": [
          116.353,
          39.9465
        ]
      }
    }
  ]
}
