{
  "type": "FeatureCollection",
  "features": [
    {
      "type": "Feature",
      "id": "ROAD-001",
      "properties": {
        "id": "ROAD-001",
        "layer": "ROAD_CENTERLINE",
        "source_type": "agent_generated_design",
        "confidence": "medium",
        "geometry_role": "design_proposal",
        "road_class": "greenway",
        "name_zh": "公共服务主轴",
        "name_en": "Civic Service Spine",
        "usage_note": "Concept mobility connection; not an official road redline or engineering alignment."
      },
      "geometry": {
        "type": "LineString",
        "coordinates": [
          [
            116.3485,
            39.942
          ],
          [
            116.3483,
            40.024
          ]
        ]
      }
    },
    {
      "type": "Feature",
      "id": "ROAD-002",
      "properties": {
        "id": "ROAD-002",
        "layer": "ROAD_CENTERLINE",
        "source_type": "agent_generated_design",
        "confidence": "medium",
        "geometry_role": "design_proposal",
        "road_class": "pedestrian",
        "name_zh": "众智园横向缝合线",
        "name_en": "Zhongzhiyuan Cross-link",
        "usage_note": "Concept mobility connection; not an official road redline or engineering alignment."
      },
      "geometry": {
        "type": "LineString",
        "coordinates": [
          [
            116.3432,
            40.017
          ],
          [
            116.3536,
            40.017
          ]
        ]
      }
    },
    {
      "type": "Feature",
      "id": "ROAD-003",
      "properties": {
        "id": "ROAD-003",
        "layer": "ROAD_CENTERLINE",
        "source_type": "agent_generated_design",
        "confidence": "medium",
        "geometry_role": "design_proposal",
        "road_class": "cycleway",
        "name_zh": "原点社区横向缝合线",
        "name_en": "AI Origin Cross-link",
        "usage_note": "Concept mobility connection; not an official road redline or engineering alignment."
      },
      "geometry": {
        "type": "LineString",
        "coordinates": [
          [
            116.3424,
            39.988
          ],
          [
            116.3527,
            39.988
          ]
        ]
      }
    },
    {
      "type": "Feature",
      "id": "ROAD-004",
      "properties": {
        "id": "ROAD-004",
        "layer": "ROAD_CENTERLINE",
        "source_type": "agent_generated_design",
        "confidence": "medium",
        "geometry_role": "design_proposal",
        "road_class": "transit_connection",
        "name_zh": "大钟寺四象限步行联系",
        "name_en": "Dazhongsi Four-quadrant Link",
        "usage_note": "Concept mobility connection; not an official road redline or engineering alignment."
      },
      "geometry": {
        "type": "LineString",
        "coordinates": [
          [
            116.3424,
            39.947
          ],
          [
            116.3546,
            39.947
          ]
        ]
      }
    }
  ]
}
