{
 "type": "FeatureCollection",
 "name": "public_space",
 "features": [
  {
   "type": "Feature",
   "id": "PS-LM00",
   "properties": {
    "id": "PS-LM00",
    "layer": "PUBLIC_SPACE",
    "scenario_type": "ai_landmark",
    "label_zh": "滨水路演广场",
    "landmark_id": "ROADSHOW-SQUARE",
    "official_boundary": false,
    "geometry_role": "design_proposal",
    "confidence": "low",
    "source_type": "agent_generated_design"
   },
   "geometry": {
    "type": "Polygon",
    "coordinates": [
     [
      [
       116.34829992658858,
       40.01666980983414
      ],
      [
       116.34829842772476,
       40.01682737481883
      ],
      [
       116.34870008490337,
       40.016829632935604
      ],
      [
       116.34870158284359,
       40.016672067938394
      ],
      [
       116.34829992658858,
       40.01666980983414
      ]
     ]
    ]
   }
  },
  {
   "type": "Feature",
   "id": "PS-LM01",
   "properties": {
    "id": "PS-LM01",
    "layer": "PUBLIC_SPACE",
    "scenario_type": "ai_landmark",
    "label_zh": "AI科普驿站",
    "landmark_id": "AI-SCIENCE-STATION",
    "official_boundary": false,
    "geometry_role": "design_proposal",
    "confidence": "low",
    "source_type": "agent_generated_design"
   },
   "geometry": {
    "type": "Polygon",
    "coordinates": [
     [
      [
       116.34730000378921,
       39.98842009796285
      ],
      [
       116.34729850412565,
       39.98857766368651
      ],
      [
       116.34769999572404,
       39.988579923951846
      ],
      [
       116.3477014944653,
       39.98842235821566
      ],
      [
       116.34730000378921,
       39.98842009796285
      ]
     ]
    ]
   }
  },
  {
   "type": "Feature",
   "id": "PS-LM02",
   "properties": {
    "id": "PS-LM02",
    "layer": "PUBLIC_SPACE",
    "scenario_type": "ai_landmark",
    "label_zh": "社区共验场",
    "landmark_id": "COMMUNITY-CO-LAB",
    "official_boundary": false,
    "geometry_role": "design_proposal",
    "confidence": "low",
    "source_type": "agent_generated_design"
   },
   "geometry": {
    "type": "Polygon",
    "coordinates": [
     [
      [
       116.34830012028108,
       39.946840230524046
      ],
      [
       116.34829862511734,
       39.9469977974127
      ],
      [
       116.34869987362701,
       39.947000052277204
      ],
      [
       116.34870136787032,
       39.94684248537603
      ],
      [
       116.34830012028108,
       39.946840230524046
      ]
     ]
    ]
   }
  },
  {
   "type": "Feature",
   "id": "PS-SN00",
   "properties": {
    "id": "PS-SN00",
    "layer": "PUBLIC_SPACE",
    "scenario_type": "scenario_node",
    "label_zh": "AI场景节点",
    "official_boundary": false,
    "geometry_role": "design_proposal",
    "confidence": "low",
    "source_type": "agent_generated_design"
   },
   "geometry": {
    "type": "Polygon",
    "coordinates": [
     [
      [
       116.3470554158291,
       40.01096509821432
      ],
      [
       116.34705026697185,
       40.01150543393505
      ],
      [
       116.34775296591548,
       40.011509391038366
      ],
      [
       116.34775810923252,
       40.01096905524233
      ],
      [
       116.3470554158291,
       40.01096509821432
      ]
     ]
    ]
   }
  },
  {
   "type": "Feature",
   "id": "PS-SN01",
   "properties": {
    "id": "PS-SN01",
    "layer": "PUBLIC_SPACE",
    "scenario_type": "scenario_node",
    "label_zh": "AI场景节点",
    "official_boundary": false,
    "geometry_role": "design_proposal",
    "confidence": "low",
    "source_type": "agent_generated_design"
   },
   "geometry": {
    "type": "Polygon",
    "coordinates": [
     [
      [
       116.34708191391854,
       40.00548144679342
      ],
      [
       116.3470746213743,
       40.00624692311326
      ],
      [
       116.34807003520716,
       40.00625252693566
      ],
      [
       116.34807731663551,
       40.00548705046477
      ],
      [
       116.34708191391854,
       40.00548144679342
      ]
     ]
    ]
   }
  },
  {
   "type": "Feature",
   "id": "PS-SN02",
   "properties": {
    "id": "PS-SN02",
    "layer": "PUBLIC_SPACE",
    "scenario_type": "scenario_node",
    "label_zh": "AI场景节点",
    "official_boundary": false,
    "geometry_role": "design_proposal",
    "confidence": "low",
    "source_type": "agent_generated_design"
   },
   "geometry": {
    "type": "Polygon",
    "coordinates": [
     [
      [
       116.34710840181135,
       39.99999779016163
      ],
      [
       116.34709896656202,
       40.00098840750141
      ],
      [
       116.34838705040576,
       40.000995656823655
      ],
      [
       116.3483964670439,
       40.00000503923097
      ],
      [
       116.34710840181135,
       39.99999779016163
      ]
     ]
    ]
   }
  },
  {
   "type": "Feature",
   "id": "PS-SN03",
   "properties": {
    "id": "PS-SN03",
    "layer": "PUBLIC_SPACE",
    "scenario_type": "scenario_node",
    "label_zh": "AI场景节点",
    "official_boundary": false,
    "geometry_role": "design_proposal",
    "confidence": "low",
    "source_type": "agent_generated_design"
   },
   "geometry": {
    "type": "Polygon",
    "coordinates": [
     [
      [
       116.34757074389388,
       39.99485431164864
      ],
      [
       116.34756560203239,
       39.99539464893148
      ],
      [
       116.34826813590318,
       39.99539860159703
      ],
      [
       116.34827327222892,
       39.99485826423898
      ],
      [
       116.34757074389388,
       39.99485431164864
      ]
     ]
    ]
   }
  },
  {
   "type": "Feature",
   "id": "PS-SN04",
   "properties": {
    "id": "PS-SN04",
    "layer": "PUBLIC_SPACE",
    "scenario_type": "scenario_node",
    "label_zh": "AI场景节点",
    "official_boundary": false,
    "geometry_role": "design_proposal",
    "confidence": "low",
    "source_type": "agent_generated_design"
   },
   "geometry": {
    "type": "Polygon",
    "coordinates": [
     [
      [
       116.3475971770464,
       39.989370644537956
      ],
      [
       116.34758989441019,
       39.9901361230707
      ],
      [
       116.34858507445124,
       39.99014172060794
      ],
      [
       116.3485923459805,
       39.98937624192429
      ],
      [
       116.3475971770464,
       39.989370644537956
      ]
     ]
    ]
   }
  },
  {
   "type": "Feature",
   "id": "PS-SN05",
   "properties": {
    "id": "PS-SN05",
    "layer": "PUBLIC_SPACE",
    "scenario_type": "scenario_node",
    "label_zh": "AI场景节点",
    "official_boundary": false,
    "geometry_role": "design_proposal",
    "confidence": "low",
    "source_type": "agent_generated_design"
   },
   "geometry": {
    "type": "Polygon",
    "coordinates": [
     [
      [
       116.34759491568418,
       39.98388649071971
      ],
      [
       116.34758549283947,
       39.98487711091757
      ],
      [
       116.34887327419217,
       39.984884352426796
      ],
      [
       116.3488826784406,
       39.98389373197631
      ],
      [
       116.34759491568418,
       39.98388649071971
      ]
     ]
    ]
   }
  },
  {
   "type": "Feature",
   "id": "PS-SN06",
   "properties": {
    "id": "PS-SN06",
    "layer": "PUBLIC_SPACE",
    "scenario_type": "scenario_node",
    "label_zh": "AI场景节点",
    "official_boundary": false,
    "geometry_role": "design_proposal",
    "confidence": "low",
    "source_type": "agent_generated_design"
   },
   "geometry": {
    "type": "Polygon",
    "coordinates": [
     [
      [
       116.34801842011707,
       39.97874234574902
      ],
      [
       116.34801328471272,
       39.97928268458661
      ],
      [
       116.34871565362238,
       39.979286633225996
      ],
      [
       116.34872078349547,
       39.97874629431326
      ],
      [
       116.34801842011707,
       39.97874234574902
      ]
     ]
    ]
   }
  },
  {
   "type": "Feature",
   "id": "PS-SN07",
   "properties": {
    "id": "PS-SN07",
    "layer": "PUBLIC_SPACE",
    "scenario_type": "scenario_node",
    "label_zh": "AI场景节点",
    "official_boundary": false,
    "geometry_role": "design_proposal",
    "confidence": "low",
    "source_type": "agent_generated_design"
   },
   "geometry": {
    "type": "Polygon",
    "coordinates": [
     [
      [
       116.34800612070785,
       39.973258013924365
      ],
      [
       116.34799884678554,
       39.97402349465379
      ],
      [
       116.34899379317599,
       39.97402908682069
      ],
      [
       116.34900105600029,
       39.97326360594051
      ],
      [
       116.34800612070785,
       39.973258013924365
      ]
     ]
    ]
   }
  },
  {
   "type": "Feature",
   "id": "PS-SN08",
   "properties": {
    "id": "PS-SN08",
    "layer": "PUBLIC_SPACE",
    "scenario_type": "scenario_node",
    "label_zh": "AI场景节点",
    "official_boundary": false,
    "geometry_role": "design_proposal",
    "confidence": "low",
    "source_type": "agent_generated_design"
   },
   "geometry": {
    "type": "Polygon",
    "coordinates": [
     [
      [
       116.34799381731509,
       39.967773676943104
      ],
      [
       116.3479844056004,
       39.968764299981686
      ],
      [
       116.34927188465537,
       39.96877153465376
      ],
      [
       116.34928127778875,
       39.96778091136276
      ],
      [
       116.34799381731509,
       39.967773676943104
      ]
     ]
    ]
   }
  },
  {
   "type": "Feature",
   "id": "PS-SN09",
   "properties": {
    "id": "PS-SN09",
    "layer": "PUBLIC_SPACE",
    "scenario_type": "scenario_node",
    "label_zh": "AI场景节点",
    "official_boundary": false,
    "geometry_role": "design_proposal",
    "confidence": "low",
    "source_type": "agent_generated_design"
   },
   "geometry": {
    "type": "Polygon",
    "coordinates": [
     [
      [
       116.34841717603108,
       39.962629515226034
      ],
      [
       116.34841204669348,
       39.96316985561302
      ],
      [
       116.34911425075958,
       39.96317380052398
      ],
      [
       116.34911937457034,
       39.96263346006193
      ],
      [
       116.34841717603108,
       39.962629515226034
      ]
     ]
    ]
   }
  },
  {
   "type": "Feature",
   "id": "PS-SN10",
   "properties": {
    "id": "PS-SN10",
    "layer": "PUBLIC_SPACE",
    "scenario_type": "scenario_node",
    "label_zh": "AI场景节点",
    "official_boundary": false,
    "geometry_role": "design_proposal",
    "confidence": "low",
    "source_type": "agent_generated_design"
   },
   "geometry": {
    "type": "Polygon",
    "coordinates": [
     [
      [
       116.34840483017321,
       39.95714516801883
      ],
      [
       116.3483975648436,
       39.957910650943134
      ],
      [
       116.34939227776695,
       39.95791623782938
      ],
      [
       116.34939953200747,
       39.95715075475444
      ],
      [
       116.34840483017321,
       39.95714516801883
      ]
     ]
    ]
   }
  },
  {
   "type": "Feature",
   "id": "PS-SN11",
   "properties": {
    "id": "PS-SN11",
    "layer": "PUBLIC_SPACE",
    "scenario_type": "scenario_node",
    "label_zh": "AI场景节点",
    "official_boundary": false,
    "geometry_role": "design_proposal",
    "confidence": "low",
    "source_type": "agent_generated_design"
   },
   "geometry": {
    "type": "Polygon",
    "coordinates": [
     [
      [
       116.34839248034173,
       39.951660815655515
      ],
      [
       116.34838307974452,
       39.95265144153442
      ],
      [
       116.34967025674494,
       39.952658669374344
      ],
      [
       116.3496796387758,
       39.95166804324321
      ],
      [
       116.34839248034173,
       39.951660815655515
      ]
     ]
    ]
   }
  }
 ]
}