{
  "type": "FeatureCollection",
  "name": "origin_jingzhang_buildings",
  "metadata": {
    "proposal_slug": "jingzhang-origin-belt",
    "coordinate_reference_system": "EPSG:4326",
    "generated_date": "2026-08-14",
    "note": "Conceptual building massing / footprints."
  },
  "features": [
    {
      "type": "Feature",
      "id": "BLD-TOWER-001",
      "properties": {
        "id": "BLD-TOWER-001",
        "layer": "BUILDING_FOOTPRINT",
        "source_type": "agent_generated_design",
        "confidence": "low",
        "geometry_role": "design_proposal",
        "building_type": "cultural",
        "name_zh": "源·塔（Origin Tower）",
        "name_en": "Origin Tower",
        "concept_height_m": 100,
        "primary_function_zh": "AI展览、观景、会议",
        "parent_area_id": "beijing_ai_origin_community",
        "footprint_area_sqm": 47419.336,
        "concept_floors": 25
      },
      "geometry": {
        "type": "Polygon",
        "coordinates": [
          [
            [
              116.3475,
              39.9905
            ],
            [
              116.3495,
              39.9905
            ],
            [
              116.3495,
              39.988
            ],
            [
              116.3475,
              39.988
            ],
            [
              116.3475,
              39.9905
            ]
          ]
        ]
      }
    },
    {
      "type": "Feature",
      "id": "BLD-GATE-001",
      "properties": {
        "id": "BLD-GATE-001",
        "layer": "BUILDING_FOOTPRINT",
        "source_type": "agent_generated_design",
        "confidence": "low",
        "geometry_role": "design_proposal",
        "building_type": "cultural",
        "name_zh": "源·门（Origin Gate）",
        "name_en": "Origin Gate",
        "concept_height_m": 45,
        "primary_function_zh": "门户空间、商业、文化展示",
        "parent_area_id": "dazhongsi_ai_industry_cluster",
        "footprint_area_sqm": 37958.556,
        "concept_floors": 10
      },
      "geometry": {
        "type": "Polygon",
        "coordinates": [
          [
            [
              116.3475,
              39.948
            ],
            [
              116.3495,
              39.948
            ],
            [
              116.3495,
              39.946
            ],
            [
              116.3475,
              39.946
            ],
            [
              116.3475,
              39.948
            ]
          ]
        ]
      }
    },
    {
      "type": "Feature",
      "id": "BLD-MONUMENT-001",
      "properties": {
        "id": "BLD-MONUMENT-001",
        "layer": "BUILDING_FOOTPRINT",
        "source_type": "agent_generated_design",
        "confidence": "low",
        "geometry_role": "design_proposal",
        "building_type": "cultural",
        "name_zh": "源·碑（Origin Monument）",
        "name_en": "Origin Monument",
        "concept_height_m": 15,
        "primary_function_zh": "纪念碑、公共艺术",
        "parent_area_id": "zhongzhiyuan_ai_acceleration_area",
        "footprint_area_sqm": 9480.073
      },
      "geometry": {
        "type": "Polygon",
        "coordinates": [
          [
            [
              116.348,
              40.0175
            ],
            [
              116.349,
              40.0175
            ],
            [
              116.349,
              40.0165
            ],
            [
              116.348,
              40.0165
            ],
            [
              116.348,
              40.0175
            ]
          ]
        ]
      }
    },
    {
      "type": "Feature",
      "id": "BLD-INNOVATION-001",
      "properties": {
        "id": "BLD-INNOVATION-001",
        "layer": "BUILDING_FOOTPRINT",
        "source_type": "agent_generated_design",
        "confidence": "low",
        "geometry_role": "design_proposal",
        "building_type": "mixed_use",
        "name_zh": "源·创综合体",
        "name_en": "Origin Innovation Complex",
        "concept_height_m": 60,
        "primary_function_zh": "研发办公、众创空间、路演中心",
        "parent_area_id": "zhongzhiyuan_ai_acceleration_area",
        "footprint_area_sqm": 189599.99,
        "concept_floors": 15
      },
      "geometry": {
        "type": "Polygon",
        "coordinates": [
          [
            [
              116.349,
              40.02
            ],
            [
              116.353,
              40.02
            ],
            [
              116.353,
              40.015
            ],
            [
              116.349,
              40.015
            ],
            [
              116.349,
              40.02
            ]
          ]
        ]
      }
    }
  ]
}