{
  "type": "FeatureCollection",
  "name": "origin_jingzhang_constraints",
  "metadata": {
    "proposal_slug": "jingzhang-origin-belt",
    "coordinate_reference_system": "EPSG:4326",
    "generated_date": "2026-08-14",
    "note": "Known constraints from public sources. All constraints are conceptual references, not official regulatory controls."
  },
  "features": [
    {
      "type": "Feature",
      "id": "CONST-RAIL-001",
      "properties": {
        "id": "CONST-RAIL-001",
        "layer": "REGULATORY_CONTROL",
        "source_type": "agent_inferred_from_public_data",
        "confidence": "high",
        "geometry_role": "provisional_constraint",
        "constraint_type": "railway_heritage",
        "name_zh": "京张铁路遗址保护带",
        "name_en": "Jing-Zhang Railway Heritage Protection Zone",
        "description_zh": "铁路遗址文物保护范围，需遵守文物保护法规",
        "description_en": "Railway heritage protection zone, subject to cultural relic protection regulations"
      },
      "geometry": {
        "type": "Polygon",
        "coordinates": [
          [
            [
              116.345,
              39.939
            ],
            [
              116.351,
              39.939
            ],
            [
              116.351,
              40.0265
            ],
            [
              116.345,
              40.0265
            ],
            [
              116.345,
              39.939
            ]
          ]
        ]
      }
    }
  ]
}
