{
  "type": "FeatureCollection",
  "name": "origin_jingzhang_key_areas",
  "metadata": {
    "proposal_slug": "jingzhang-origin-belt",
    "coordinate_reference_system": "EPSG:4326",
    "generated_date": "2026-08-14",
    "note": "Three key detailed-design areas (provisional)."
  },
  "features": [
    {
      "type": "Feature",
      "id": "PROV-KEY-001",
      "properties": {
        "id": "PROV-KEY-001",
        "layer": "KEY_AREA",
        "area_id": "zhongzhiyuan_ai_acceleration_area",
        "name_zh": "众智园AI自主创新加速区",
        "name_en": "Zhongzhiyuan AI Acceleration Area",
        "brand_name_zh": "众智园",
        "brand_name_en": "Zhongzhiyuan",
        "source_type": "agent_inferred_from_public_data",
        "confidence": "medium",
        "geometry_role": "provisional_constraint",
        "official_boundary": false,
        "boundary_precision": "provisional_rough",
        "announced_area_sqm": 1921000,
        "area_sqm_calculated": 1929201.877,
        "design_focus_zh": "AI基础研究、大模型训练、具身智能、AI芯片、高校科研"
      },
      "geometry": {
        "type": "Polygon",
        "coordinates": [
          [
            [
              116.343,
              40.0075
            ],
            [
              116.354,
              40.0075
            ],
            [
              116.354,
              40.026
            ],
            [
              116.343,
              40.026
            ],
            [
              116.343,
              40.0075
            ]
          ]
        ]
      }
    },
    {
      "type": "Feature",
      "id": "PROV-KEY-002",
      "properties": {
        "id": "PROV-KEY-002",
        "layer": "KEY_AREA",
        "area_id": "beijing_ai_origin_community",
        "name_zh": "北京AI原点社区",
        "name_en": "Beijing AI Origin Community",
        "brand_name_zh": "AI原点",
        "brand_name_en": "AI Origin",
        "source_type": "agent_inferred_from_public_data",
        "confidence": "medium",
        "geometry_role": "provisional_constraint",
        "official_boundary": false,
        "boundary_precision": "provisional_rough",
        "announced_area_sqm": 1043000,
        "area_sqm_calculated": 1043236.909,
        "design_focus_zh": "商业综合体、AI人才社区、生活服务、烟火气"
      },
      "geometry": {
        "type": "Polygon",
        "coordinates": [
          [
            [
              116.342,
              39.9835
            ],
            [
              116.353,
              39.9835
            ],
            [
              116.353,
              39.9935
            ],
            [
              116.342,
              39.9935
            ],
            [
              116.342,
              39.9835
            ]
          ]
        ]
      }
    },
    {
      "type": "Feature",
      "id": "PROV-KEY-003",
      "properties": {
        "id": "PROV-KEY-003",
        "layer": "KEY_AREA",
        "area_id": "dazhongsi_ai_industry_cluster",
        "name_zh": "大钟寺AI产业集聚区",
        "name_en": "Dazhongsi AI Industry Cluster",
        "brand_name_zh": "大钟寺",
        "brand_name_en": "Dazhongsi",
        "source_type": "agent_inferred_from_public_data",
        "confidence": "medium",
        "geometry_role": "provisional_constraint",
        "official_boundary": false,
        "boundary_precision": "provisional_rough",
        "announced_area_sqm": 720000,
        "area_sqm_calculated": 720454.219,
        "design_focus_zh": "AI企业总部、智能原生商业、交通枢纽、产业窗口"
      },
      "geometry": {
        "type": "Polygon",
        "coordinates": [
          [
            [
              116.342,
              39.944
            ],
            [
              116.355,
              39.944
            ],
            [
              116.355,
              39.94984
            ],
            [
              116.342,
              39.94984
            ],
            [
              116.342,
              39.944
            ]
          ]
        ]
      }
    }
  ]
}