{
  "type": "FeatureCollection",
  "name": "origin_jingzhang_land_use",
  "metadata": {
    "proposal_slug": "jingzhang-origin-belt",
    "coordinate_reference_system": "EPSG:4326",
    "generated_date": "2026-08-14",
    "note": "Conceptual land-use partition; full site coverage, no gaps/overlaps."
  },
  "features": [
    {
      "type": "Feature",
      "id": "LU-001",
      "properties": {
        "id": "LU-001",
        "layer": "LAND_USE",
        "source_type": "agent_generated_design",
        "confidence": "low",
        "geometry_role": "design_proposal",
        "land_use_code": "0802",
        "land_use_zh": "科研用地",
        "land_use_en": "Research Land",
        "area_name_zh": "众智园AI研发集群",
        "area_name_en": "Zhongzhiyuan AI R&D Cluster",
        "parent_area_id": "overall_design_area"
      },
      "geometry": {
        "type": "Polygon",
        "coordinates": [
          [
            [
              116.3407,
              39.939
            ],
            [
              116.34039888888888,
              39.94984
            ],
            [
              116.3465,
              39.94984
            ],
            [
              116.3465,
              39.939
            ],
            [
              116.3407,
              39.939
            ]
          ]
        ]
      }
    },
    {
      "type": "Feature",
      "id": "LU-002",
      "properties": {
        "id": "LU-002",
        "layer": "LAND_USE",
        "source_type": "agent_generated_design",
        "confidence": "low",
        "geometry_role": "design_proposal",
        "land_use_code": "0804",
        "land_use_zh": "教育用地",
        "land_use_en": "Education Land",
        "area_name_zh": "清华园科教协同区",
        "area_name_en": "Tsinghuayuan Education Zone",
        "parent_area_id": "overall_design_area"
      },
      "geometry": {
        "type": "Polygon",
        "coordinates": [
          [
            [
              116.33997777777778,
              39.965
            ],
            [
              116.3465,
              39.965
            ],
            [
              116.3465,
              39.94984
            ],
            [
              116.34039888888888,
              39.94984
            ],
            [
              116.33997777777778,
              39.965
            ]
          ]
        ]
      }
    },
    {
      "type": "Feature",
      "id": "LU-003",
      "properties": {
        "id": "LU-003",
        "layer": "LAND_USE",
        "source_type": "agent_generated_design",
        "confidence": "low",
        "geometry_role": "design_proposal",
        "land_use_code": "0701",
        "land_use_zh": "城镇住宅用地",
        "land_use_en": "Urban Residential Land",
        "area_name_zh": "AI人才社区",
        "area_name_en": "AI Talent Community",
        "parent_area_id": "overall_design_area"
      },
      "geometry": {
        "type": "Polygon",
        "coordinates": [
          [
            [
              116.34024838709676,
              39.9835
            ],
            [
              116.3465,
              39.9835
            ],
            [
              116.3465,
              39.965
            ],
            [
              116.33997777777778,
              39.965
            ],
            [
              116.3397,
              39.975
            ],
            [
              116.34024838709676,
              39.9835
            ]
          ]
        ]
      }
    },
    {
      "type": "Feature",
      "id": "LU-004",
      "properties": {
        "id": "LU-004",
        "layer": "LAND_USE",
        "source_type": "agent_generated_design",
        "confidence": "low",
        "geometry_role": "design_proposal",
        "land_use_code": "05",
        "land_use_zh": "商业服务业用地",
        "land_use_en": "Commercial & Business Service Land",
        "area_name_zh": "创新走廊商务带",
        "area_name_en": "Innovation Corridor Business Belt",
        "parent_area_id": "overall_design_area"
      },
      "geometry": {
        "type": "Polygon",
        "coordinates": [
          [
            [
              116.3408935483871,
              39.9935
            ],
            [
              116.3465,
              39.9935
            ],
            [
              116.3465,
              39.9835
            ],
            [
              116.34024838709676,
              39.9835
            ],
            [
              116.3408935483871,
              39.9935
            ]
          ]
        ]
      }
    },
    {
      "type": "Feature",
      "id": "LU-005",
      "properties": {
        "id": "LU-005",
        "layer": "LAND_USE",
        "source_type": "agent_generated_design",
        "confidence": "low",
        "geometry_role": "design_proposal",
        "land_use_code": "05",
        "land_use_zh": "商业服务业用地",
        "land_use_en": "Commercial & Business Service Land",
        "area_name_zh": "大钟寺AI体验商业区",
        "area_name_en": "Dazhongsi AI Experience Commercial Area",
        "parent_area_id": "overall_design_area"
      },
      "geometry": {
        "type": "Polygon",
        "coordinates": [
          [
            [
              116.3417,
              40.006
            ],
            [
              116.34177317073171,
              40.0075
            ],
            [
              116.3465,
              40.0075
            ],
            [
              116.3465,
              39.9935
            ],
            [
              116.3408935483871,
              39.9935
            ],
            [
              116.3417,
              40.006
            ]
          ]
        ]
      }
    },
    {
      "type": "Feature",
      "id": "LU-006",
      "properties": {
        "id": "LU-006",
        "layer": "LAND_USE",
        "source_type": "agent_generated_design",
        "confidence": "low",
        "geometry_role": "design_proposal",
        "land_use_code": "1401",
        "land_use_zh": "公园绿地",
        "land_use_en": "Park Green Space",
        "area_name_zh": "遗址公园南段绿带",
        "area_name_en": "Heritage Park South Green Belt",
        "parent_area_id": "overall_design_area"
      },
      "geometry": {
        "type": "Polygon",
        "coordinates": [
          [
            [
              116.3465,
              40.0265
            ],
            [
              116.3465,
              40.0075
            ],
            [
              116.34177317073171,
              40.0075
            ],
            [
              116.3427,
              40.0265
            ],
            [
              116.3465,
              40.0265
            ]
          ]
        ]
      }
    },
    {
      "type": "Feature",
      "id": "LU-007",
      "properties": {
        "id": "LU-007",
        "layer": "LAND_USE",
        "source_type": "agent_generated_design",
        "confidence": "low",
        "geometry_role": "design_proposal",
        "land_use_code": "1401",
        "land_use_zh": "公园绿地",
        "land_use_en": "Park Green Space",
        "area_name_zh": "京张遗址公园主轴",
        "area_name_en": "Jing-Zhang Heritage Park Main Axis",
        "parent_area_id": "jingzhang_heritage_corridor"
      },
      "geometry": {
        "type": "Polygon",
        "coordinates": [
          [
            [
              116.3465,
              39.939
            ],
            [
              116.3465,
              39.94984
            ],
            [
              116.35,
              39.94984
            ],
            [
              116.35,
              39.939
            ],
            [
              116.3465,
              39.939
            ]
          ]
        ]
      }
    },
    {
      "type": "Feature",
      "id": "LU-008",
      "properties": {
        "id": "LU-008",
        "layer": "LAND_USE",
        "source_type": "agent_generated_design",
        "confidence": "low",
        "geometry_role": "design_proposal",
        "land_use_code": "1401",
        "land_use_zh": "公园绿地",
        "land_use_en": "Park Green Space",
        "area_name_zh": "京张遗址公园主轴",
        "area_name_en": "Jing-Zhang Heritage Park Main Axis",
        "parent_area_id": "jingzhang_heritage_corridor"
      },
      "geometry": {
        "type": "Polygon",
        "coordinates": [
          [
            [
              116.3465,
              39.94984
            ],
            [
              116.3465,
              39.965
            ],
            [
              116.35,
              39.965
            ],
            [
              116.35,
              39.94984
            ],
            [
              116.3465,
              39.94984
            ]
          ]
        ]
      }
    },
    {
      "type": "Feature",
      "id": "LU-009",
      "properties": {
        "id": "LU-009",
        "layer": "LAND_USE",
        "source_type": "agent_generated_design",
        "confidence": "low",
        "geometry_role": "design_proposal",
        "land_use_code": "1401",
        "land_use_zh": "公园绿地",
        "land_use_en": "Park Green Space",
        "area_name_zh": "京张遗址公园主轴",
        "area_name_en": "Jing-Zhang Heritage Park Main Axis",
        "parent_area_id": "jingzhang_heritage_corridor"
      },
      "geometry": {
        "type": "Polygon",
        "coordinates": [
          [
            [
              116.3465,
              39.965
            ],
            [
              116.3465,
              39.9835
            ],
            [
              116.35,
              39.9835
            ],
            [
              116.35,
              39.965
            ],
            [
              116.3465,
              39.965
            ]
          ]
        ]
      }
    },
    {
      "type": "Feature",
      "id": "LU-010",
      "properties": {
        "id": "LU-010",
        "layer": "LAND_USE",
        "source_type": "agent_generated_design",
        "confidence": "low",
        "geometry_role": "design_proposal",
        "land_use_code": "1401",
        "land_use_zh": "公园绿地",
        "land_use_en": "Park Green Space",
        "area_name_zh": "京张遗址公园主轴",
        "area_name_en": "Jing-Zhang Heritage Park Main Axis",
        "parent_area_id": "jingzhang_heritage_corridor"
      },
      "geometry": {
        "type": "Polygon",
        "coordinates": [
          [
            [
              116.3465,
              39.9835
            ],
            [
              116.3465,
              39.9935
            ],
            [
              116.35,
              39.9935
            ],
            [
              116.35,
              39.9835
            ],
            [
              116.3465,
              39.9835
            ]
          ]
        ]
      }
    },
    {
      "type": "Feature",
      "id": "LU-011",
      "properties": {
        "id": "LU-011",
        "layer": "LAND_USE",
        "source_type": "agent_generated_design",
        "confidence": "low",
        "geometry_role": "design_proposal",
        "land_use_code": "1401",
        "land_use_zh": "公园绿地",
        "land_use_en": "Park Green Space",
        "area_name_zh": "京张遗址公园主轴",
        "area_name_en": "Jing-Zhang Heritage Park Main Axis",
        "parent_area_id": "jingzhang_heritage_corridor"
      },
      "geometry": {
        "type": "Polygon",
        "coordinates": [
          [
            [
              116.3465,
              39.9935
            ],
            [
              116.3465,
              40.0075
            ],
            [
              116.35,
              40.0075
            ],
            [
              116.35,
              39.9935
            ],
            [
              116.3465,
              39.9935
            ]
          ]
        ]
      }
    },
    {
      "type": "Feature",
      "id": "LU-012",
      "properties": {
        "id": "LU-012",
        "layer": "LAND_USE",
        "source_type": "agent_generated_design",
        "confidence": "low",
        "geometry_role": "design_proposal",
        "land_use_code": "1401",
        "land_use_zh": "公园绿地",
        "land_use_en": "Park Green Space",
        "area_name_zh": "京张遗址公园主轴",
        "area_name_en": "Jing-Zhang Heritage Park Main Axis",
        "parent_area_id": "jingzhang_heritage_corridor"
      },
      "geometry": {
        "type": "Polygon",
        "coordinates": [
          [
            [
              116.35,
              40.0265
            ],
            [
              116.35,
              40.0075
            ],
            [
              116.3465,
              40.0075
            ],
            [
              116.3465,
              40.0265
            ],
            [
              116.35,
              40.0265
            ]
          ]
        ]
      }
    },
    {
      "type": "Feature",
      "id": "LU-013",
      "properties": {
        "id": "LU-013",
        "layer": "LAND_USE",
        "source_type": "agent_generated_design",
        "confidence": "low",
        "geometry_role": "design_proposal",
        "land_use_code": "0802",
        "land_use_zh": "科研用地",
        "land_use_en": "Research Land",
        "area_name_zh": "众智园AI研发集群",
        "area_name_en": "Zhongzhiyuan AI R&D Cluster",
        "parent_area_id": "overall_design_area"
      },
      "geometry": {
        "type": "Polygon",
        "coordinates": [
          [
            [
              116.35,
              39.939
            ],
            [
              116.35,
              39.94984
            ],
            [
              116.3553,
              39.94984
            ],
            [
              116.3553,
              39.939
            ],
            [
              116.35,
              39.939
            ]
          ]
        ]
      }
    },
    {
      "type": "Feature",
      "id": "LU-014",
      "properties": {
        "id": "LU-014",
        "layer": "LAND_USE",
        "source_type": "agent_generated_design",
        "confidence": "low",
        "geometry_role": "design_proposal",
        "land_use_code": "0804",
        "land_use_zh": "教育用地",
        "land_use_en": "Education Land",
        "area_name_zh": "清华园科教协同区",
        "area_name_en": "Tsinghuayuan Education Zone",
        "parent_area_id": "overall_design_area"
      },
      "geometry": {
        "type": "Polygon",
        "coordinates": [
          [
            [
              116.3553,
              39.94984
            ],
            [
              116.35,
              39.94984
            ],
            [
              116.35,
              39.965
            ],
            [
              116.3553,
              39.965
            ],
            [
              116.3553,
              39.94984
            ]
          ]
        ]
      }
    },
    {
      "type": "Feature",
      "id": "LU-015",
      "properties": {
        "id": "LU-015",
        "layer": "LAND_USE",
        "source_type": "agent_generated_design",
        "confidence": "low",
        "geometry_role": "design_proposal",
        "land_use_code": "0701",
        "land_use_zh": "城镇住宅用地",
        "land_use_en": "Urban Residential Land",
        "area_name_zh": "AI人才社区",
        "area_name_en": "AI Talent Community",
        "parent_area_id": "overall_design_area"
      },
      "geometry": {
        "type": "Polygon",
        "coordinates": [
          [
            [
              116.3553,
              39.965
            ],
            [
              116.35,
              39.965
            ],
            [
              116.35,
              39.9835
            ],
            [
              116.35382,
              39.9835
            ],
            [
              116.3553,
              39.965
            ]
          ]
        ]
      }
    },
    {
      "type": "Feature",
      "id": "LU-016",
      "properties": {
        "id": "LU-016",
        "layer": "LAND_USE",
        "source_type": "agent_generated_design",
        "confidence": "low",
        "geometry_role": "design_proposal",
        "land_use_code": "05",
        "land_use_zh": "商业服务业用地",
        "land_use_en": "Commercial & Business Service Land",
        "area_name_zh": "创新走廊商务带",
        "area_name_en": "Innovation Corridor Business Belt",
        "parent_area_id": "overall_design_area"
      },
      "geometry": {
        "type": "Polygon",
        "coordinates": [
          [
            [
              116.3533,
              39.99
            ],
            [
              116.35382,
              39.9835
            ],
            [
              116.35,
              39.9835
            ],
            [
              116.35,
              39.9935
            ],
            [
              116.35349178082193,
              39.9935
            ],
            [
              116.3533,
              39.99
            ]
          ]
        ]
      }
    },
    {
      "type": "Feature",
      "id": "LU-017",
      "properties": {
        "id": "LU-017",
        "layer": "LAND_USE",
        "source_type": "agent_generated_design",
        "confidence": "low",
        "geometry_role": "design_proposal",
        "land_use_code": "05",
        "land_use_zh": "商业服务业用地",
        "land_use_en": "Commercial & Business Service Land",
        "area_name_zh": "大钟寺AI体验商业区",
        "area_name_en": "Dazhongsi AI Experience Commercial Area",
        "parent_area_id": "overall_design_area"
      },
      "geometry": {
        "type": "Polygon",
        "coordinates": [
          [
            [
              116.35349178082193,
              39.9935
            ],
            [
              116.35,
              39.9935
            ],
            [
              116.35,
              40.0075
            ],
            [
              116.35425890410959,
              40.0075
            ],
            [
              116.35349178082193,
              39.9935
            ]
          ]
        ]
      }
    },
    {
      "type": "Feature",
      "id": "LU-018",
      "properties": {
        "id": "LU-018",
        "layer": "LAND_USE",
        "source_type": "agent_generated_design",
        "confidence": "low",
        "geometry_role": "design_proposal",
        "land_use_code": "1401",
        "land_use_zh": "公园绿地",
        "land_use_en": "Park Green Space",
        "area_name_zh": "遗址公园南段绿带",
        "area_name_en": "Heritage Park South Green Belt",
        "parent_area_id": "overall_design_area"
      },
      "geometry": {
        "type": "Polygon",
        "coordinates": [
          [
            [
              116.35425890410959,
              40.0075
            ],
            [
              116.35,
              40.0075
            ],
            [
              116.35,
              40.0265
            ],
            [
              116.3553,
              40.0265
            ],
            [
              116.35425890410959,
              40.0075
            ]
          ]
        ]
      }
    }
  ]
}