{
  "type": "FeatureCollection",
  "name": "origin_jingzhang_phasing",
  "metadata": {
    "proposal_slug": "jingzhang-origin-belt",
    "coordinate_reference_system": "EPSG:4326",
    "generated_date": "2026-08-14",
    "note": "Conceptual phasing plan. All phases are conceptual suggestions, not confirmed implementation schedules."
  },
  "features": [
    {
      "type": "Feature",
      "id": "PHASE-001",
      "properties": {
        "id": "PHASE-001",
        "layer": "PHASE",
        "source_type": "agent_generated_design",
        "confidence": "low",
        "geometry_role": "design_proposal",
        "phase_id": "phase_1_launch",
        "phase_name_zh": "一期：启动",
        "phase_name_en": "Phase 1: Launch",
        "period": "2026-2028",
        "focus_zh": "遗址公园全线贯通、AI原点社区启动、首期AI地标建设",
        "focus_en": "Heritage park full connection, AI Origin Community launch, first AI landmarks"
      },
      "geometry": {
        "type": "Polygon",
        "coordinates": [
          [
            [
              116.342,
              39.9835
            ],
            [
              116.353,
              39.9835
            ],
            [
              116.353,
              39.9935
            ],
            [
              116.342,
              39.9935
            ],
            [
              116.342,
              39.9835
            ]
          ]
        ]
      }
    },
    {
      "type": "Feature",
      "id": "PHASE-002",
      "properties": {
        "id": "PHASE-002",
        "layer": "PHASE",
        "source_type": "agent_generated_design",
        "confidence": "low",
        "geometry_role": "design_proposal",
        "phase_id": "phase_2_growth",
        "phase_name_zh": "二期：发展",
        "phase_name_en": "Phase 2: Growth",
        "period": "2028-2030",
        "focus_zh": "众智园全面建设、大钟寺产业升级、智轨示范线",
        "focus_en": "Zhongzhiyuan full construction, Dazhongsi upgrade, smart rail demo"
      },
      "geometry": {
        "type": "Polygon",
        "coordinates": [
          [
            [
              116.343,
              40.0075
            ],
            [
              116.354,
              40.0075
            ],
            [
              116.354,
              40.026
            ],
            [
              116.343,
              40.026
            ],
            [
              116.343,
              40.0075
            ]
          ]
        ]
      }
    },
    {
      "type": "Feature",
      "id": "PHASE-003",
      "properties": {
        "id": "PHASE-003",
        "layer": "PHASE",
        "source_type": "agent_generated_design",
        "confidence": "low",
        "geometry_role": "design_proposal",
        "phase_id": "phase_3_maturity",
        "phase_name_zh": "三期：成熟",
        "phase_name_en": "Phase 3: Maturity",
        "period": "2030-2035",
        "focus_zh": "全域AI场景覆盖、国际品牌确立、运营闭环形成",
        "focus_en": "Full-domain AI scenarios, international brand, operation loop"
      },
      "geometry": {
        "type": "Polygon",
        "coordinates": [
          [
            [
              116.342,
              39.944
            ],
            [
              116.355,
              39.944
            ],
            [
              116.355,
              39.94984
            ],
            [
              116.342,
              39.94984
            ],
            [
              116.342,
              39.944
            ]
          ]
        ]
      }
    }
  ]
}
