{
  "type": "FeatureCollection",
  "name": "origin_jingzhang_public_space",
  "metadata": {
    "proposal_slug": "jingzhang-origin-belt",
    "coordinate_reference_system": "EPSG:4326",
    "generated_date": "2026-08-14",
    "note": "Conceptual public-space nodes."
  },
  "features": [
    {
      "type": "Feature",
      "id": "PS-HONOR-WALL-001",
      "properties": {
        "id": "PS-HONOR-WALL-001",
        "layer": "PUBLIC_SPACE",
        "source_type": "agent_generated_design",
        "confidence": "low",
        "geometry_role": "design_proposal",
        "space_type": "honor_display",
        "name_zh": "智能体贡献荣誉墙",
        "name_en": "Agent Contribution Honor Wall",
        "area_sqm": 85377.863
      },
      "geometry": {
        "type": "Polygon",
        "coordinates": [
          [
            [
              116.347,
              39.972
            ],
            [
              116.35,
              39.972
            ],
            [
              116.35,
              39.969
            ],
            [
              116.347,
              39.969
            ],
            [
              116.347,
              39.972
            ]
          ]
        ]
      }
    },
    {
      "type": "Feature",
      "id": "PS-MILESTONE-001",
      "properties": {
        "id": "PS-MILESTONE-001",
        "layer": "PUBLIC_SPACE",
        "source_type": "agent_generated_design",
        "confidence": "low",
        "geometry_role": "design_proposal",
        "space_type": "milestone_plaza",
        "name_zh": "AI里程碑广场",
        "name_en": "AI Milestone Plaza",
        "area_sqm": 85396.304
      },
      "geometry": {
        "type": "Polygon",
        "coordinates": [
          [
            [
              116.347,
              39.957
            ],
            [
              116.35,
              39.957
            ],
            [
              116.35,
              39.954
            ],
            [
              116.347,
              39.954
            ],
            [
              116.347,
              39.957
            ]
          ]
        ]
      }
    },
    {
      "type": "Feature",
      "id": "PS-LIGHT-TUNNEL-001",
      "properties": {
        "id": "PS-LIGHT-TUNNEL-001",
        "layer": "PUBLIC_SPACE",
        "source_type": "agent_generated_design",
        "confidence": "low",
        "geometry_role": "design_proposal",
        "space_type": "immersive_experience",
        "name_zh": "源·光隧道",
        "name_en": "Origin Light Tunnel",
        "area_sqm": 85371.715
      },
      "geometry": {
        "type": "Polygon",
        "coordinates": [
          [
            [
              116.347,
              39.977
            ],
            [
              116.35,
              39.977
            ],
            [
              116.35,
              39.974
            ],
            [
              116.347,
              39.974
            ],
            [
              116.347,
              39.977
            ]
          ]
        ]
      }
    }
  ]
}