{
  "type": "FeatureCollection",
  "name": "origin_jingzhang_roads",
  "metadata": {
    "proposal_slug": "jingzhang-origin-belt",
    "coordinate_reference_system": "EPSG:4326",
    "generated_date": "2026-08-14",
    "note": "Conceptual road and path network. NOT official road redlines."
  },
  "features": [
    {
      "type": "Feature",
      "id": "RD-HERITAGE-PATH-001",
      "properties": {
        "id": "RD-HERITAGE-PATH-001",
        "layer": "ROAD_CENTERLINE",
        "source_type": "agent_generated_design",
        "confidence": "low",
        "geometry_role": "design_proposal",
        "road_type": "pedestrian_cycling",
        "name_zh": "开发者散步道",
        "name_en": "Developer Walk",
        "width_m": 8,
        "length_km": 9
      },
      "geometry": {
        "type": "LineString",
        "coordinates": [
          [
            116.348,
            39.939
          ],
          [
            116.348,
            39.94984
          ],
          [
            116.347,
            39.965
          ],
          [
            116.347,
            39.9835
          ],
          [
            116.347,
            39.9935
          ],
          [
            116.348,
            40.0075
          ],
          [
            116.348,
            40.0265
          ]
        ]
      }
    },
    {
      "type": "Feature",
      "id": "RD-STITCH-EW-001",
      "properties": {
        "id": "RD-STITCH-EW-001",
        "layer": "ROAD_CENTERLINE",
        "source_type": "agent_generated_design",
        "confidence": "low",
        "geometry_role": "design_proposal",
        "road_type": "pedestrian_cycling",
        "name_zh": "东西缝合通道1号",
        "name_en": "East-West Stitch 1",
        "width_m": 6
      },
      "geometry": {
        "type": "LineString",
        "coordinates": [
          [
            116.342,
            39.9885
          ],
          [
            116.353,
            39.9885
          ]
        ]
      }
    },
    {
      "type": "Feature",
      "id": "RD-STITCH-EW-002",
      "properties": {
        "id": "RD-STITCH-EW-002",
        "layer": "ROAD_CENTERLINE",
        "source_type": "agent_generated_design",
        "confidence": "low",
        "geometry_role": "design_proposal",
        "road_type": "pedestrian_cycling",
        "name_zh": "东西缝合通道2号",
        "name_en": "East-West Stitch 2",
        "width_m": 6
      },
      "geometry": {
        "type": "LineString",
        "coordinates": [
          [
            116.342,
            39.9469
          ],
          [
            116.355,
            39.9469
          ]
        ]
      }
    },
    {
      "type": "Feature",
      "id": "RD-MAIN-001",
      "properties": {
        "id": "RD-MAIN-001",
        "layer": "ROAD_CENTERLINE",
        "source_type": "agent_generated_design",
        "confidence": "low",
        "geometry_role": "design_proposal",
        "road_type": "urban_arterial",
        "name_zh": "创新大道",
        "name_en": "Innovation Boulevard",
        "width_m": 40
      },
      "geometry": {
        "type": "LineString",
        "coordinates": [
          [
            116.35,
            39.939
          ],
          [
            116.35,
            40.0265
          ]
        ]
      }
    },
    {
      "type": "Feature",
      "id": "RD-APM-001",
      "properties": {
        "id": "RD-APM-001",
        "layer": "ROAD_CENTERLINE",
        "source_type": "agent_generated_design",
        "confidence": "low",
        "geometry_role": "design_proposal",
        "road_type": "automated_people_mover",
        "name_zh": "京张APM无人驾驶旅客捷运线",
        "name_en": "Jing-Zhang APM (Automated People Mover)",
        "description_zh": "借鉴广州珠江新城APM线经验，穿入创新区域内部的全自动无人驾驶旅客捷运系统。不走遗址公园主廊道（13号线走廊），而是串联三个核心区的核心创新节点。GoA4级自动驾驶，全长约8.9公里，12座车站，设计时速40-60km/h",
        "description_en": "Inspired by Guangzhou Zhujiang New Town APM, a driverless APM penetrating the innovation area interior. Does NOT follow the heritage park main corridor (Line 13's corridor), but connects core innovation nodes of the three key areas. GoA4 autonomous, ~8.9km, 12 stations, design speed 40-60km/h",
        "design_rationale_zh": "广州APM不和3号线竞争主干客流，而是深入珠江新城内部做'最后一公里'。京张APM同理：13号线走城市主干道是'大动脉'，APM走创新区域内部是'毛细血管'。两者在大钟寺站和五道口站换乘。",
        "length_km": 8.9,
        "stations": 12,
        "avg_station_spacing_m": 739,
        "design_speed_kmh": 60,
        "operation_level": "GoA4_fully_autonomous",
        "train_config": "2-3 car EMU",
        "single_trip_time_min": 12,
        "interchange_line13": [
          "dazhongsi_station",
          "wudaokou_station"
        ]
      },
      "geometry": {
        "type": "LineString",
        "coordinates": [
          [
            116.349,
            39.947
          ],
          [
            116.347,
            39.955
          ],
          [
            116.345,
            39.965
          ],
          [
            116.344,
            39.975
          ],
          [
            116.345,
            39.9835
          ],
          [
            116.344,
            39.99
          ],
          [
            116.346,
            39.9935
          ],
          [
            116.345,
            40.0
          ],
          [
            116.346,
            40.01
          ],
          [
            116.347,
            40.02
          ],
          [
            116.348,
            40.026
          ]
        ]
      }
    }
  ]
}
