{
  "type": "FeatureCollection",
  "name": "origin_jingzhang_site_boundary",
  "metadata": {
    "proposal_slug": "jingzhang-origin-belt",
    "coordinate_reference_system": "EPSG:4326",
    "generated_date": "2026-08-14",
    "area_check_crs": "EPSG:4548",
    "note": "Overall design area only; provisional, NOT an official redline."
  },
  "features": [
    {
      "type": "Feature",
      "id": "PROV-SITE-001",
      "properties": {
        "id": "PROV-SITE-001",
        "layer": "SITE_BOUNDARY",
        "scope_id": "overall_design_area",
        "name_zh": "总体设计范围",
        "name_en": "Overall Design Area",
        "source_type": "agent_inferred_from_public_data",
        "confidence": "medium",
        "geometry_role": "provisional_constraint",
        "official_boundary": false,
        "boundary_precision": "provisional_rough",
        "source_id": "DATA-SRC-PROVISIONAL-BOUNDARIES-20260605",
        "area_sqm_declared": 11400000,
        "area_sqm_calculated": 11412825.386
      },
      "geometry": {
        "type": "Polygon",
        "coordinates": [
          [
            [
              116.3407,
              39.939
            ],
            [
              116.3553,
              39.939
            ],
            [
              116.3553,
              39.965
            ],
            [
              116.3533,
              39.99
            ],
            [
              116.3553,
              40.0265
            ],
            [
              116.3427,
              40.0265
            ],
            [
              116.3417,
              40.006
            ],
            [
              116.3397,
              39.975
            ],
            [
              116.3407,
              39.939
            ]
          ]
        ]
      }
    }
  ]
}