{
  "type": "FeatureCollection",
  "name": "buildings_design_v2",
  "features": [
    {
      "type": "Feature",
      "id": "BLDG-001",
      "properties": {
        "id": "BLDG-001",
        "layer": "BUILDING_FOOTPRINT",
        "source_type": "agent_generated_design",
        "confidence": "medium",
        "geometry_role": "design_proposal",
        "building_type": "ai_r_and_d",
        "name_zh": "AI研发示范建筑基底",
        "area_sqm_declared": 310807.184,
        "status": "design_proposal",
        "version": "formal-provisional-v2.0",
        "rights_status": "cleared_for_research_display_only",
        "stable_id": "BLDG-001",
        "source_ids": [
          "SITE-PACKAGE"
        ],
        "recalculation_trigger": "official geometry/control change"
      },
      "geometry": {
        "type": "Polygon",
        "coordinates": [
          [
            [
              116.341572,
              39.95475
            ],
            [
              116.341572,
              39.97225
            ],
            [
              116.34344399999999,
              39.97225
            ],
            [
              116.34344399999999,
              39.95475
            ],
            [
              116.341572,
              39.95475
            ]
          ]
        ]
      }
    }
  ],
  "schema_version": "geojson-evidence-v2.0",
  "crs_declared": "EPSG:4326 coordinate order as stored; source layer CRS must be confirmed before metric use",
  "geometry_version": "formal-provisional-v2.0",
  "boundary_status": "design_proposal",
  "usage_note": "Research/design evidence only; do not treat as statutory redline, precise area, ownership, or construction geometry.",
  "provenance": {
    "source_ids": [
      "SITE-PACKAGE"
    ],
    "generated_by": "research-report-v2.0",
    "coordinates_changed_from_scaffold": false,
    "recalculation_trigger": "official geometry or professional controls change"
  }
}
