{
  "type": "FeatureCollection",
  "name": "constraints_data_gap_v2",
  "features": [],
  "data_gap": {
    "status": "official_constraint_geometry_unavailable",
    "declared_by": "research-report-v2.0",
    "assumption_ids": [
      "A-CONTROLS-001"
    ],
    "missing_layers": [
      "REGULATORY_CONTROL",
      "HERITAGE_PROTECTION",
      "PARCEL",
      "EXISTING_PRIMARY_ROAD",
      "EXISTING_RAIL",
      "EXISTING_WATER"
    ],
    "note_zh": "本图层刻意保持空集合。控规控制线、文物保护范围与建设控制地带、道路红线、权属地块、轨道与蓝线均属锁定图层，公开场地包中目前没有可引用的官方几何来源。缺口按 assumption A-CONTROLS-001 登记；取得官方或已清权几何前，不得以推定线条冒充 official_constraint，空集合优于编造。",
    "note_en": "This layer is intentionally an empty set. Regulatory control lines, heritage protection and construction-control zones, road redlines, cadastral parcels, rail and blue lines are locked layers with no citable official geometry in the public site package. The gap is registered as assumption A-CONTROLS-001; until official or cleared geometry is available, inferred lines must not be presented as an official_constraint - an empty set is preferred over fabrication."
  },
  "schema_version": "geojson-evidence-v2.0",
  "crs_declared": "EPSG:4326 coordinate order as stored; source layer CRS must be confirmed before metric use",
  "geometry_version": "formal-provisional-v2.0",
  "boundary_status": "design_proposal",
  "usage_note": "Research/design evidence only; do not treat as statutory redline, precise area, ownership, or construction geometry.",
  "provenance": {
    "source_ids": [
      "SITE-PACKAGE"
    ],
    "generated_by": "research-report-v2.0",
    "coordinates_changed_from_scaffold": false,
    "recalculation_trigger": "official geometry or professional controls change"
  }
}
