{
  "type": "FeatureCollection",
  "name": "green_space_design_v2",
  "features": [
    {
      "type": "Feature",
      "id": "GREEN-001",
      "properties": {
        "id": "GREEN-001",
        "layer": "GREEN_SPACE",
        "source_type": "agent_generated_design",
        "confidence": "medium",
        "geometry_role": "design_proposal",
        "land_use_code": "1401",
        "name_zh": "连续公园绿地",
        "area_sqm_declared": 1408600.768,
        "status": "design_proposal",
        "version": "formal-provisional-v2.0",
        "rights_status": "cleared_for_research_display_only",
        "stable_id": "GREEN-001",
        "source_ids": [
          "SITE-PACKAGE"
        ],
        "recalculation_trigger": "official geometry/control change"
      },
      "geometry": {
        "type": "Polygon",
        "coordinates": [
          [
            [
              116.34438,
              39.953
            ],
            [
              116.34438,
              40.012499999999996
            ],
            [
              116.346876,
              40.012499999999996
            ],
            [
              116.346876,
              39.953
            ],
            [
              116.34438,
              39.953
            ]
          ]
        ]
      }
    }
  ],
  "schema_version": "geojson-evidence-v2.0",
  "crs_declared": "EPSG:4326 coordinate order as stored; source layer CRS must be confirmed before metric use",
  "geometry_version": "formal-provisional-v2.0",
  "boundary_status": "design_proposal",
  "usage_note": "Research/design evidence only; do not treat as statutory redline, precise area, ownership, or construction geometry.",
  "provenance": {
    "source_ids": [
      "SITE-PACKAGE"
    ],
    "generated_by": "research-report-v2.0",
    "coordinates_changed_from_scaffold": false,
    "recalculation_trigger": "official geometry or professional controls change"
  }
}
