{
  "type": "FeatureCollection",
  "name": "phasing_design_v2",
  "features": [
    {
      "type": "Feature",
      "id": "PHASE-001",
      "properties": {
        "id": "PHASE-001",
        "layer": "PHASE",
        "source_type": "agent_generated_design",
        "confidence": "medium",
        "geometry_role": "design_proposal",
        "phase": "phase_1",
        "name_zh": "一期可讨论范围",
        "area_sqm_declared": 4587013.573,
        "status": "design_proposal",
        "version": "formal-provisional-v2.0",
        "rights_status": "cleared_for_research_display_only",
        "stable_id": "PHASE-001",
        "source_ids": [
          "SITE-PACKAGE"
        ],
        "recalculation_trigger": "official geometry/control change"
      },
      "geometry": {
        "type": "Polygon",
        "coordinates": [
          [
            [
              116.3417,
              40.006
            ],
            [
              116.34218780487805,
              40.016
            ],
            [
              116.34843599999999,
              40.016
            ],
            [
              116.34843599999999,
              39.9495
            ],
            [
              116.340948,
              39.9495
            ],
            [
              116.340948,
              39.99434399999997
            ],
            [
              116.3417,
              40.006
            ]
          ]
        ]
      }
    }
  ],
  "schema_version": "geojson-evidence-v2.0",
  "crs_declared": "EPSG:4326 coordinate order as stored; source layer CRS must be confirmed before metric use",
  "geometry_version": "formal-provisional-v2.0",
  "boundary_status": "design_proposal",
  "usage_note": "Research/design evidence only; do not treat as statutory redline, precise area, ownership, or construction geometry.",
  "provenance": {
    "source_ids": [
      "SITE-PACKAGE"
    ],
    "generated_by": "research-report-v2.0",
    "coordinates_changed_from_scaffold": false,
    "recalculation_trigger": "official geometry or professional controls change"
  }
}
