{
  "type": "FeatureCollection",
  "name": "roads_design_v2",
  "features": [
    {
      "type": "Feature",
      "id": "ROAD-001",
      "properties": {
        "id": "ROAD-001",
        "layer": "ROAD_CENTERLINE",
        "source_type": "agent_generated_design",
        "confidence": "medium",
        "geometry_role": "design_proposal",
        "road_class": "greenway",
        "name_zh": "慢行与创新服务廊道",
        "status": "design_proposal",
        "version": "formal-provisional-v2.0",
        "rights_status": "cleared_for_research_display_only",
        "stable_id": "ROAD-001",
        "source_ids": [
          "SITE-PACKAGE"
        ],
        "recalculation_trigger": "official geometry/control change"
      },
      "geometry": {
        "type": "LineString",
        "coordinates": [
          [
            116.340948,
            39.9845
          ],
          [
            116.35374,
            39.9845
          ]
        ]
      }
    }
  ],
  "schema_version": "geojson-evidence-v2.0",
  "crs_declared": "EPSG:4326 coordinate order as stored; source layer CRS must be confirmed before metric use",
  "geometry_version": "formal-provisional-v2.0",
  "boundary_status": "design_proposal",
  "usage_note": "Research/design evidence only; do not treat as statutory redline, precise area, ownership, or construction geometry.",
  "provenance": {
    "source_ids": [
      "SITE-PACKAGE"
    ],
    "generated_by": "research-report-v2.0",
    "coordinates_changed_from_scaffold": false,
    "recalculation_trigger": "official geometry or professional controls change"
  }
}
