{
 "type": "FeatureCollection",
 "name": "building_footprints_design",
 "features": [
  {
   "type": "Feature",
   "id": "BLDG-001",
   "properties": {
    "id": "BLDG-001",
    "layer": "BUILDING_FOOTPRINT",
    "source_type": "agent_generated_design",
    "confidence": "medium",
    "geometry_role": "design_proposal",
    "building_type": "cultural",
    "usage_note_zh": "概念性小型构筑物基底示意（参考方案），体量与选址待专业团队深化；不含建筑高度与工程结论。",
    "name_zh": "应答钟阁概念基底（钟声广场内）",
    "area_sqm_declared": 1599.999,
    "usage_note": "概念建筑体量示意，功能见 name_zh；原分类意向：civic_pavilion_concept"
   },
   "geometry": {
    "type": "Polygon",
    "coordinates": [
     [
      [
       116.348391362,
       39.944583322
      ],
      [
       116.348387944,
       39.94494355
      ],
      [
       116.348855956,
       39.944946179
      ],
      [
       116.348859371,
       39.944585951
      ],
      [
       116.348391362,
       39.944583322
      ]
     ]
    ]
   }
  },
  {
   "type": "Feature",
   "id": "BLDG-002",
   "properties": {
    "id": "BLDG-002",
    "layer": "BUILDING_FOOTPRINT",
    "source_type": "agent_generated_design",
    "confidence": "medium",
    "geometry_role": "design_proposal",
    "building_type": "cultural",
    "usage_note_zh": "概念性小型构筑物基底示意（参考方案），体量与选址待专业团队深化；不含建筑高度与工程结论。",
    "name_zh": "城市进化档案馆概念装置基底（道钉带旁）",
    "area_sqm_declared": 900.0,
    "usage_note": "概念建筑体量示意，功能见 name_zh；原分类意向：archive_pavilion_concept"
   },
   "geometry": {
    "type": "Polygon",
    "coordinates": [
     [
      [
       116.347273065,
       39.988363633
      ],
      [
       116.347270494,
       39.988633802
      ],
      [
       116.347621726,
       39.988635779
      ],
      [
       116.347624296,
       39.98836561
      ],
      [
       116.347273065,
       39.988363633
      ]
     ]
    ]
   }
  },
  {
   "type": "Feature",
   "id": "BLDG-003",
   "properties": {
    "id": "BLDG-003",
    "layer": "BUILDING_FOOTPRINT",
    "source_type": "agent_generated_design",
    "confidence": "medium",
    "geometry_role": "design_proposal",
    "building_type": "community_service",
    "usage_note_zh": "概念性小型构筑物基底示意（参考方案），体量与选址待专业团队深化；不含建筑高度与工程结论。",
    "name_zh": "要素服务驿站示范点基底（东翼低效空间概念布点）",
    "area_sqm_declared": 625.0,
    "usage_note": "概念建筑体量示意，功能见 name_zh；原分类意向：service_station_concept"
   },
   "geometry": {
    "type": "Polygon",
    "coordinates": [
     [
      [
       116.347568285,
       39.966557832
      ],
      [
       116.347566144,
       39.966782973
      ],
      [
       116.347858745,
       39.96678462
      ],
      [
       116.347860884,
       39.966559478
      ],
      [
       116.347568285,
       39.966557832
      ]
     ]
    ]
   }
  }
 ]
}