{
  "type": "FeatureCollection",
  "name": "green_space_design",
  "features": [
    {
      "type": "Feature",
      "id": "GREEN-001",
      "properties": {
        "id": "GREEN-001",
        "layer": "GREEN_SPACE",
        "source_type": "agent_generated_design",
        "confidence": "medium",
        "geometry_role": "design_proposal",
        "land_use_code": "1401",
        "usage_note_zh": "概念性绿地深化建议（参考方案），待专业团队结合公园既有设计与蓝绿系统深化；不构成工程结论。",
        "name_zh": "公园绿廊南段（南问段·鸣钟之门绿地界面，概念）",
        "area_sqm_declared": 1316500.098
      },
      "geometry": {
        "type": "Polygon",
        "coordinates": [
          [
            [
              116.344082529,
              39.983480711
            ],
            [
              116.347202293,
              39.983498324
            ],
            [
              116.347625328,
              39.939000229
            ],
            [
              116.344507419,
              39.939000177
            ],
            [
              116.344082529,
              39.983480711
            ]
          ]
        ]
      }
    },
    {
      "type": "Feature",
      "id": "GREEN-002",
      "properties": {
        "id": "GREEN-002",
        "layer": "GREEN_SPACE",
        "source_type": "agent_generated_design",
        "confidence": "medium",
        "geometry_role": "design_proposal",
        "land_use_code": "1401",
        "usage_note_zh": "概念性绿地深化建议（参考方案），待专业团队结合公园既有设计与蓝绿系统深化；不构成工程结论。",
        "name_zh": "公园绿廊中段（应答原点段·道钉带核心界面，概念）",
        "area_sqm_declared": 710158.967
      },
      "geometry": {
        "type": "Polygon",
        "coordinates": [
          [
            [
              116.343852894,
              40.007479408
            ],
            [
              116.346973749,
              40.007497036
            ],
            [
              116.347202293,
              39.983498324
            ],
            [
              116.344082529,
              39.983480711
            ],
            [
              116.343852894,
              40.007479408
            ]
          ]
        ]
      }
    },
    {
      "type": "Feature",
      "id": "GREEN-003",
      "properties": {
        "id": "GREEN-003",
        "layer": "GREEN_SPACE",
        "source_type": "agent_generated_design",
        "confidence": "medium",
        "geometry_role": "design_proposal",
        "land_use_code": "1401",
        "usage_note_zh": "概念性绿地深化建议（参考方案），待专业团队结合公园既有设计与蓝绿系统深化；不构成工程结论。",
        "name_zh": "公园绿廊北段（北跃段·人字之跃与清河衔接，概念）",
        "area_sqm_declared": 562593.053
      },
      "geometry": {
        "type": "Polygon",
        "coordinates": [
          [
            [
              116.343670695,
              40.026500049
            ],
            [
              116.346792584,
              40.02650015
            ],
            [
              116.346973749,
              40.007497036
            ],
            [
              116.343852894,
              40.007479408
            ],
            [
              116.343670695,
              40.026500049
            ]
          ]
        ]
      }
    },
    {
      "type": "Feature",
      "id": "GREEN-004",
      "properties": {
        "id": "GREEN-004",
        "layer": "GREEN_SPACE",
        "source_type": "agent_generated_design",
        "confidence": "medium",
        "geometry_role": "design_proposal",
        "land_use_code": "1402",
        "usage_note_zh": "概念性绿地深化建议（参考方案），待专业团队结合公园既有设计与蓝绿系统深化；不构成工程结论。",
        "name_zh": "清河蓝绿空间概念协调带（跨地块生态界面示意）",
        "area_sqm_declared": 268014.191
      },
      "geometry": {
        "type": "MultiPolygon",
        "coordinates": [
          [
            [
              [
                116.343670695,
                40.026500049
              ],
              [
                116.34369965,
                40.023478538
              ],
              [
                116.342552262,
                40.023472034
              ],
              [
                116.3427,
                40.0265
              ],
              [
                116.343670695,
                40.026500049
              ]
            ]
          ],
          [
            [
              [
                116.3553,
                40.0265
              ],
              [
                116.355137889,
                40.023542756
              ],
              [
                116.346821234,
                40.023496176
              ],
              [
                116.346792584,
                40.02650015
              ],
              [
                116.3553,
                40.0265
              ]
            ]
          ]
        ]
      }
    }
  ]
}
