{
  "type": "FeatureCollection",
  "name": "land_use_topology_partition",
  "features": [
    {
      "type": "Feature",
      "id": "LU-001",
      "properties": {
        "id": "LU-001",
        "layer": "LAND_USE",
        "source_type": "agent_generated_design",
        "confidence": "medium",
        "geometry_role": "design_proposal",
        "land_use_code": "1401",
        "usage_note_zh": "概念性用地布局建议（参考方案），仅表达结构意向，待专业团队结合控规、现状权属与文物保护要求深化核定；不构成用地批准依据，边线不代表道路红线或地块权属边界；既有校园、居住社区与商业设施以现状延续为前提，本图层不含拆改留结论。",
        "name_zh": "京张遗址公园绿廊（九公里应答长卷主脊段，概念）",
        "area_sqm_declared": 2589251.89
      },
      "geometry": {
        "type": "Polygon",
        "coordinates": [
          [
            [
              116.344507419,
              39.939000177
            ],
            [
              116.343670695,
              40.026500049
            ],
            [
              116.346792584,
              40.02650015
            ],
            [
              116.347625328,
              39.939000229
            ],
            [
              116.344507419,
              39.939000177
            ]
          ]
        ]
      }
    },
    {
      "type": "Feature",
      "id": "LU-002",
      "properties": {
        "id": "LU-002",
        "layer": "LAND_USE",
        "source_type": "agent_generated_design",
        "confidence": "medium",
        "geometry_role": "design_proposal",
        "land_use_code": "0803",
        "usage_note_zh": "概念性用地布局建议（参考方案），仅表达结构意向，待专业团队结合控规、现状权属与文物保护要求深化核定；不构成用地批准依据，边线不代表道路红线或地块权属边界；既有校园、居住社区与商业设施以现状延续为前提，本图层不含拆改留结论。",
        "name_zh": "大钟寺文化片区（鸣钟之门西翼，概念）",
        "area_sqm_declared": 400735.683
      },
      "geometry": {
        "type": "Polygon",
        "coordinates": [
          [
            [
              116.3407,
              39.939
            ],
            [
              116.340400143,
              39.949799822
            ],
            [
              116.344404128,
              39.949822534
            ],
            [
              116.344507419,
              39.939000177
            ],
            [
              116.3407,
              39.939
            ]
          ]
        ]
      }
    },
    {
      "type": "Feature",
      "id": "LU-003",
      "properties": {
        "id": "LU-003",
        "layer": "LAND_USE",
        "source_type": "agent_generated_design",
        "confidence": "medium",
        "geometry_role": "design_proposal",
        "land_use_code": "0901",
        "usage_note_zh": "概念性用地布局建议（参考方案），仅表达结构意向，待专业团队结合控规、现状权属与文物保护要求深化核定；不构成用地批准依据，边线不代表道路红线或地块权属边界；既有校园、居住社区与商业设施以现状延续为前提，本图层不含拆改留结论。",
        "name_zh": "大钟寺商业活力片区（东翼更新界面，概念）",
        "area_sqm_declared": 796407.677
      },
      "geometry": {
        "type": "Polygon",
        "coordinates": [
          [
            [
              116.3553,
              39.939
            ],
            [
              116.347625328,
              39.939000229
            ],
            [
              116.347522362,
              39.949840126
            ],
            [
              116.355300016,
              39.949883639
            ],
            [
              116.3553,
              39.939
            ]
          ]
        ]
      }
    },
    {
      "type": "Feature",
      "id": "LU-004",
      "properties": {
        "id": "LU-004",
        "layer": "LAND_USE",
        "source_type": "agent_generated_design",
        "confidence": "medium",
        "geometry_role": "design_proposal",
        "land_use_code": "0802",
        "usage_note_zh": "概念性用地布局建议（参考方案），仅表达结构意向，待专业团队结合控规、现状权属与文物保护要求深化核定；不构成用地批准依据，边线不代表道路红线或地块权属边界；既有校园、居住社区与商业设施以现状延续为前提，本图层不含拆改留结论。",
        "name_zh": "学院南路科研创新带（南问段西翼，概念）",
        "area_sqm_declared": 1345239.039
      },
      "geometry": {
        "type": "Polygon",
        "coordinates": [
          [
            [
              116.3397,
              39.975
            ],
            [
              116.340245576,
              39.983458934
            ],
            [
              116.344082529,
              39.983480711
            ],
            [
              116.344404128,
              39.949822534
            ],
            [
              116.340400143,
              39.949799822
            ],
            [
              116.3397,
              39.975
            ]
          ]
        ]
      }
    },
    {
      "type": "Feature",
      "id": "LU-005",
      "properties": {
        "id": "LU-005",
        "layer": "LAND_USE",
        "source_type": "agent_generated_design",
        "confidence": "medium",
        "geometry_role": "design_proposal",
        "land_use_code": "0701",
        "usage_note_zh": "概念性用地布局建议（参考方案），仅表达结构意向，待专业团队结合控规、现状权属与文物保护要求深化核定；不构成用地批准依据，边线不代表道路红线或地块权属边界；既有校园、居住社区与商业设施以现状延续为前提，本图层不含拆改留结论。",
        "name_zh": "东侧既有居住社区片区南段（应答门渗透界面，概念）",
        "area_sqm_declared": 2404339.099
      },
      "geometry": {
        "type": "Polygon",
        "coordinates": [
          [
            [
              116.3553,
              39.965
            ],
            [
              116.355300016,
              39.949883639
            ],
            [
              116.347522362,
              39.949840126
            ],
            [
              116.347202293,
              39.983498324
            ],
            [
              116.353817321,
              39.983535391
            ],
            [
              116.3553,
              39.965
            ]
          ]
        ]
      }
    },
    {
      "type": "Feature",
      "id": "LU-006",
      "properties": {
        "id": "LU-006",
        "layer": "LAND_USE",
        "source_type": "agent_generated_design",
        "confidence": "medium",
        "geometry_role": "design_proposal",
        "land_use_code": "0804",
        "usage_note_zh": "概念性用地布局建议（参考方案），仅表达结构意向，待专业团队结合控规、现状权属与文物保护要求深化核定；不构成用地批准依据，边线不代表道路红线或地块权属边界；既有校园、居住社区与商业设施以现状延续为前提，本图层不含拆改留结论。",
        "name_zh": "高校科教界面片区（清华园车站西翼，概念）",
        "area_sqm_declared": 328759.955
      },
      "geometry": {
        "type": "Polygon",
        "coordinates": [
          [
            [
              116.34089094,
              39.993462604
            ],
            [
              116.343986882,
              39.993480168
            ],
            [
              116.344082529,
              39.983480711
            ],
            [
              116.340245576,
              39.983458934
            ],
            [
              116.34089094,
              39.993462604
            ]
          ]
        ]
      }
    },
    {
      "type": "Feature",
      "id": "LU-007",
      "properties": {
        "id": "LU-007",
        "layer": "LAND_USE",
        "source_type": "agent_generated_design",
        "confidence": "medium",
        "geometry_role": "design_proposal",
        "land_use_code": "0902",
        "usage_note_zh": "概念性用地布局建议（参考方案），仅表达结构意向，待专业团队结合控规、现状权属与文物保护要求深化核定；不构成用地批准依据，边线不代表道路红线或地块权属边界；既有校园、居住社区与商业设施以现状延续为前提，本图层不含拆改留结论。",
        "name_zh": "学院路知识经济商务带（中答段东翼，概念）",
        "area_sqm_declared": 601926.438
      },
      "geometry": {
        "type": "Polygon",
        "coordinates": [
          [
            [
              116.3533,
              39.99
            ],
            [
              116.353817321,
              39.983535391
            ],
            [
              116.347202293,
              39.983498324
            ],
            [
              116.3471071,
              39.993497787
            ],
            [
              116.353493539,
              39.993533588
            ],
            [
              116.3533,
              39.99
            ]
          ]
        ]
      }
    },
    {
      "type": "Feature",
      "id": "LU-008",
      "properties": {
        "id": "LU-008",
        "layer": "LAND_USE",
        "source_type": "agent_generated_design",
        "confidence": "medium",
        "geometry_role": "design_proposal",
        "land_use_code": "0802",
        "usage_note_zh": "概念性用地布局建议（参考方案），仅表达结构意向，待专业团队结合控规、现状权属与文物保护要求深化核定；不构成用地批准依据，边线不代表道路红线或地块权属边界；既有校园、居住社区与商业设施以现状延续为前提，本图层不含拆改留结论。",
        "name_zh": "西翼科研创新带北段（面向众智园，概念）",
        "area_sqm_declared": 617522.586
      },
      "geometry": {
        "type": "Polygon",
        "coordinates": [
          [
            [
              116.3417,
              40.006
            ],
            [
              116.3427,
              40.0265
            ],
            [
              116.343670695,
              40.026500049
            ],
            [
              116.343986882,
              39.993480168
            ],
            [
              116.34089094,
              39.993462604
            ],
            [
              116.3417,
              40.006
            ]
          ]
        ]
      }
    },
    {
      "type": "Feature",
      "id": "LU-009",
      "properties": {
        "id": "LU-009",
        "layer": "LAND_USE",
        "source_type": "agent_generated_design",
        "confidence": "medium",
        "geometry_role": "design_proposal",
        "land_use_code": "0701",
        "usage_note_zh": "概念性用地布局建议（参考方案），仅表达结构意向，待专业团队结合控规、现状权属与文物保护要求深化核定；不构成用地批准依据，边线不代表道路红线或地块权属边界；既有校园、居住社区与商业设施以现状延续为前提，本图层不含拆改留结论。",
        "name_zh": "东侧既有居住社区片区北段（概念）",
        "area_sqm_declared": 907585.397
      },
      "geometry": {
        "type": "Polygon",
        "coordinates": [
          [
            [
              116.353493539,
              39.993533588
            ],
            [
              116.3471071,
              39.993497787
            ],
            [
              116.346973749,
              40.007497036
            ],
            [
              116.354260744,
              40.007537868
            ],
            [
              116.353493539,
              39.993533588
            ]
          ]
        ]
      }
    },
    {
      "type": "Feature",
      "id": "LU-010",
      "properties": {
        "id": "LU-010",
        "layer": "LAND_USE",
        "source_type": "agent_generated_design",
        "confidence": "medium",
        "geometry_role": "design_proposal",
        "land_use_code": "16",
        "usage_note_zh": "概念性用地布局建议（参考方案），仅表达结构意向，待专业团队结合控规、现状权属与文物保护要求深化核定；不构成用地批准依据，边线不代表道路红线或地块权属边界；既有校园、居住社区与商业设施以现状延续为前提，本图层不含拆改留结论。",
        "name_zh": "众智园弹性留白用地（北跃段·面向未来之问，概念）",
        "area_sqm_declared": 1421057.362
      },
      "geometry": {
        "type": "Polygon",
        "coordinates": [
          [
            [
              116.3553,
              40.0265
            ],
            [
              116.354260744,
              40.007537868
            ],
            [
              116.346973749,
              40.007497036
            ],
            [
              116.346792584,
              40.02650015
            ],
            [
              116.3553,
              40.0265
            ]
          ]
        ]
      }
    }
  ]
}
