{
  "type": "FeatureCollection",
  "name": "phasing_design",
  "features": [
    {
      "type": "Feature",
      "id": "PHASE-001",
      "properties": {
        "id": "PHASE-001",
        "layer": "PHASE",
        "source_type": "agent_generated_design",
        "confidence": "medium",
        "geometry_role": "design_proposal",
        "phase": "phase_1",
        "usage_note_zh": "概念性时序建议（参考方案），不构成政府承诺或实施计划；实际时序以主管部门与专业团队确定为准。",
        "name_zh": "一期·南问段（鸣钟之门与既有界面场景启动，概念时序建议）",
        "area_sqm_declared": 6263221.578
      },
      "geometry": {
        "type": "Polygon",
        "coordinates": [
          [
            [
              116.3553,
              39.965
            ],
            [
              116.3553,
              39.939
            ],
            [
              116.3407,
              39.939
            ],
            [
              116.3397,
              39.975
            ],
            [
              116.340245576,
              39.983458934
            ],
            [
              116.353817321,
              39.983535391
            ],
            [
              116.3553,
              39.965
            ]
          ]
        ]
      }
    },
    {
      "type": "Feature",
      "id": "PHASE-002",
      "properties": {
        "id": "PHASE-002",
        "layer": "PHASE",
        "source_type": "agent_generated_design",
        "confidence": "medium",
        "geometry_role": "design_proposal",
        "phase": "phase_2",
        "usage_note_zh": "概念性时序建议（参考方案），不构成政府承诺或实施计划；实际时序以主管部门与专业团队确定为准。",
        "name_zh": "二期·中答段（应答原点与道钉带核心段，概念时序建议）",
        "area_sqm_declared": 2890709.805
      },
      "geometry": {
        "type": "Polygon",
        "coordinates": [
          [
            [
              116.3533,
              39.99
            ],
            [
              116.353817321,
              39.983535391
            ],
            [
              116.340245576,
              39.983458934
            ],
            [
              116.3417,
              40.006
            ],
            [
              116.341771573,
              40.007467606
            ],
            [
              116.354260744,
              40.007537868
            ],
            [
              116.3533,
              39.99
            ]
          ]
        ]
      }
    },
    {
      "type": "Feature",
      "id": "PHASE-003",
      "properties": {
        "id": "PHASE-003",
        "layer": "PHASE",
        "source_type": "agent_generated_design",
        "confidence": "medium",
        "geometry_role": "design_proposal",
        "phase": "phase_3",
        "usage_note_zh": "概念性时序建议（参考方案），不构成政府承诺或实施计划；实际时序以主管部门与专业团队确定为准。",
        "name_zh": "三期·北跃段（人字之跃与清河蓝绿衔接，概念时序建议）",
        "area_sqm_declared": 2258894.016
      },
      "geometry": {
        "type": "Polygon",
        "coordinates": [
          [
            [
              116.3427,
              40.0265
            ],
            [
              116.3553,
              40.0265
            ],
            [
              116.354260744,
              40.007537868
            ],
            [
              116.341771573,
              40.007467606
            ],
            [
              116.3427,
              40.0265
            ]
          ]
        ]
      }
    }
  ]
}
