{
 "type": "FeatureCollection",
 "name": "public_space_design",
 "features": [
  {
   "type": "Feature",
   "id": "PUBLIC-001",
   "properties": {
    "id": "PUBLIC-001",
    "layer": "PUBLIC_SPACE",
    "source_type": "agent_generated_design",
    "confidence": "medium",
    "geometry_role": "design_proposal",
    "usage_note_zh": "概念性公共空间建议（参考方案），选址与规模待专业团队深化；不构成工程或审批结论。 应答钟为新铸概念构想，与大钟寺古钟博物馆为文化呼应关系，不涉及文物本体及其保护范围。",
    "name_zh": "钟声广场（大钟寺·应答钟概念广场与四象限步行缝合界面）",
    "area_sqm_declared": 10000.0
   },
   "geometry": {
    "type": "Polygon",
    "coordinates": [
     [
      [
       116.34799013016958,
       39.94398986817046
      ],
      [
       116.34798232640468,
       39.944811972354515
      ],
      [
       116.34926402685878,
       39.944819173621426
      ],
      [
       116.3492718155369,
       39.94399706896292
      ],
      [
       116.34799013016958,
       39.94398986817046
      ]
     ]
    ]
   }
  },
  {
   "type": "Feature",
   "id": "PUBLIC-002",
   "properties": {
    "id": "PUBLIC-002",
    "layer": "PUBLIC_SPACE",
    "source_type": "agent_generated_design",
    "confidence": "medium",
    "geometry_role": "design_proposal",
    "usage_note_zh": "概念性公共空间建议（参考方案），选址与规模待专业团队深化；不构成工程或审批结论。 清华园车站文保范围GIS缺失，本选点仅为待文物部门协商的概念选点，不得视为已确定落位。",
    "name_zh": "清华园车站站前纪念广场与零公里桩（概念选点，待文物部门协商）",
    "area_sqm_declared": 6000.0
   },
   "geometry": {
    "type": "Polygon",
    "coordinates": [
     [
      [
       116.34270658848898,
       39.98816373514023
      ],
      [
       116.34270066210436,
       39.98878206697725
      ],
      [
       116.34372376014642,
       39.988787864396734
      ],
      [
       116.34372967710361,
       39.988169532635744
      ],
      [
       116.34270658848898,
       39.98816373514023
      ]
     ]
    ]
   }
  },
  {
   "type": "Feature",
   "id": "PUBLIC-003",
   "properties": {
    "id": "PUBLIC-003",
    "layer": "PUBLIC_SPACE",
    "source_type": "agent_generated_design",
    "confidence": "medium",
    "geometry_role": "design_proposal",
    "usage_note_zh": "概念性公共空间建议（参考方案），选址与规模待专业团队深化；不构成工程或审批结论。 跨五环人字天桥为概念节点，不含桥梁工程结论。",
    "name_zh": "人字天桥北桥头·未来之问广场（概念节点）",
    "area_sqm_declared": 8000.0
   },
   "geometry": {
    "type": "Polygon",
    "coordinates": [
     [
      [
       116.34716308221473,
       40.01662356114947
      ],
      [
       116.34715568567468,
       40.01739974487337
      ],
      [
       116.34824284397139,
       40.017405864923504
      ],
      [
       116.34825022820753,
       40.016629680621605
      ],
      [
       116.34716308221473,
       40.01662356114947
      ]
     ]
    ]
   }
  },
  {
   "type": "Feature",
   "id": "PUBLIC-004",
   "properties": {
    "id": "PUBLIC-004",
    "layer": "PUBLIC_SPACE",
    "source_type": "agent_generated_design",
    "confidence": "medium",
    "geometry_role": "design_proposal",
    "usage_note_zh": "概念性公共空间建议（参考方案），选址与规模待专业团队深化；不构成工程或审批结论。 应答门依托遗址公园二期规划出入口表述，以实际建成为准。",
    "name_zh": "应答门社区微广场示范点（东翼·一页考卷界面，概念）",
    "area_sqm_declared": 4200.0
   },
   "geometry": {
    "type": "Polygon",
    "coordinates": [
     [
      [
       116.349764274,
       39.966412563
      ],
      [
       116.349759154,
       39.966952903000006
      ],
      [
       116.350578438,
       39.96695749599999
      ],
      [
       116.35058355100001,
       39.96641715599999
      ],
      [
       116.349764274,
       39.966412563
      ]
     ]
    ]
   }
  },
  {
   "type": "Feature",
   "id": "PUBLIC-005",
   "properties": {
    "id": "PUBLIC-005",
    "layer": "PUBLIC_SPACE",
    "source_type": "agent_generated_design",
    "confidence": "medium",
    "geometry_role": "design_proposal",
    "usage_note_zh": "概念性公共空间建议（参考方案），选址与规模待专业团队深化；不构成工程或审批结论。",
    "name_zh": "公园东翼慢行公共活动界面带（要素服务驿站与路演界面概念布点带）",
    "area_sqm_declared": 192069.1
   },
   "geometry": {
    "type": "Polygon",
    "coordinates": [
     [
      [
       116.3476978787216,
       39.949841113700764
      ],
      [
       116.34714941350128,
       40.007498025709744
      ],
      [
       116.34750074250243,
       40.00750000408914
      ],
      [
       116.34804891222261,
       39.949843088096145
      ],
      [
       116.3476978787216,
       39.949841113700764
      ]
     ]
    ]
   }
  }
 ]
}