{
 "type": "FeatureCollection",
 "name": "roads_concept_design",
 "features": [
  {
   "type": "Feature",
   "id": "ROAD-001",
   "properties": {
    "id": "ROAD-001",
    "layer": "ROAD_CENTERLINE",
    "source_type": "agent_generated_design",
    "confidence": "medium",
    "geometry_role": "design_proposal",
    "road_class": "greenway",
    "concept": true,
    "usage_note_zh": "概念线（参考方案），仅表达联通意向，不代表道路红线、断面或工程结论，待专业团队深化。",
    "name_zh": "九公里应答长卷慢行主线（概念线）"
   },
   "geometry": {
    "type": "LineString",
    "coordinates": [
     [
      116.346066116,
      39.939027232
     ],
     [
      116.345231898,
      40.026473093
     ]
    ]
   }
  },
  {
   "type": "Feature",
   "id": "ROAD-002",
   "properties": {
    "id": "ROAD-002",
    "layer": "ROAD_CENTERLINE",
    "source_type": "agent_generated_design",
    "confidence": "medium",
    "geometry_role": "design_proposal",
    "road_class": "cycleway",
    "concept": true,
    "usage_note_zh": "概念线（参考方案），仅表达联通意向，不代表道路红线、断面或工程结论，待专业团队深化。 与无障碍坡道一套改造两用为概念机制，测试验证场景建议选址于已开放的一期建成段。",
    "name_zh": "低速物流机器人测试通道（概念线·建议先行于已开放建成段验证）"
   },
   "geometry": {
    "type": "LineString",
    "coordinates": [
     [
      116.34702669,
      39.983497335
     ],
     [
      116.346798085,
      40.007496046
     ]
    ]
   }
  },
  {
   "type": "Feature",
   "id": "ROAD-003",
   "properties": {
    "id": "ROAD-003",
    "layer": "ROAD_CENTERLINE",
    "source_type": "agent_generated_design",
    "confidence": "medium",
    "geometry_role": "design_proposal",
    "road_class": "pedestrian",
    "concept": true,
    "usage_note_zh": "概念线（参考方案），仅表达联通意向，不代表道路红线、断面或工程结论，待专业团队深化。",
    "name_zh": "应答门东西缝合慢行连线·鸣钟之门段（概念示范线）"
   },
   "geometry": {
    "type": "LineString",
    "coordinates": [
     [
      116.34058633,
      39.944359067
     ],
     [
      116.355264909,
      39.944441627
     ]
    ]
   }
  },
  {
   "type": "Feature",
   "id": "ROAD-004",
   "properties": {
    "id": "ROAD-004",
    "layer": "ROAD_CENTERLINE",
    "source_type": "agent_generated_design",
    "confidence": "medium",
    "geometry_role": "design_proposal",
    "road_class": "pedestrian",
    "concept": true,
    "usage_note_zh": "概念线（参考方案），仅表达联通意向，不代表道路红线、断面或工程结论，待专业团队深化。",
    "name_zh": "应答门东西缝合慢行连线·应答原点段（概念示范线）"
   },
   "geometry": {
    "type": "LineString",
    "coordinates": [
     [
      116.340603417,
      39.988460972
     ],
     [
      116.353382216,
      39.988532968
     ]
    ]
   }
  },
  {
   "type": "Feature",
   "id": "ROAD-005",
   "properties": {
    "id": "ROAD-005",
    "layer": "ROAD_CENTERLINE",
    "source_type": "agent_generated_design",
    "confidence": "medium",
    "geometry_role": "design_proposal",
    "road_class": "pedestrian",
    "concept": true,
    "usage_note_zh": "概念线（参考方案），仅表达联通意向，不代表道路红线、断面或工程结论，待专业团队深化。 跨五环人字天桥为概念节点，不含工程结论。",
    "name_zh": "应答门东西缝合慢行连线·人字之跃段（指向跨五环概念节点方向）"
   },
   "geometry": {
    "type": "LineString",
    "coordinates": [
     [
      116.342270904,
      40.016984011
     ],
     [
      116.354747069,
      40.017054151
     ]
    ]
   }
  }
 ]
}