{
  "type": "FeatureCollection",
  "name": "phase2_conceptual_building_interfaces",
  "evidence_status": "design_target",
  "description": "Multiple conceptual building-interface footprints; none represents surveyed buildings, approved envelopes, demolition/retention, FAR, height, ownership, or feasibility.",
  "features": [
    {
      "type": "Feature",
      "id": "BLDG-001",
      "properties": {
        "id": "BLDG-001",
        "layer": "BUILDING_FOOTPRINT",
        "source_type": "agent_generated_design",
        "confidence": "medium",
        "geometry_role": "design_proposal",
        "status": "conceptual_footprint_not_surveyed",
        "name_zh": "众智园验证庭院北翼",
        "building_type": "ai_r_and_d"
      },
      "geometry": {
        "type": "Polygon",
        "coordinates": [
          [
            [
              116.3442,
              40.01
            ],
            [
              116.3461,
              40.01
            ],
            [
              116.3461,
              40.013
            ],
            [
              116.3442,
              40.013
            ],
            [
              116.3442,
              40.01
            ]
          ]
        ]
      }
    },
    {
      "type": "Feature",
      "id": "BLDG-002",
      "properties": {
        "id": "BLDG-002",
        "layer": "BUILDING_FOOTPRINT",
        "source_type": "agent_generated_design",
        "confidence": "medium",
        "geometry_role": "design_proposal",
        "status": "conceptual_footprint_not_surveyed",
        "name_zh": "众智园人工接管与服务翼",
        "building_type": "community_service"
      },
      "geometry": {
        "type": "Polygon",
        "coordinates": [
          [
            [
              116.35,
              40.0172
            ],
            [
              116.352,
              40.0172
            ],
            [
              116.352,
              40.02
            ],
            [
              116.35,
              40.02
            ],
            [
              116.35,
              40.0172
            ]
          ]
        ]
      }
    },
    {
      "type": "Feature",
      "id": "BLDG-003",
      "properties": {
        "id": "BLDG-003",
        "layer": "BUILDING_FOOTPRINT",
        "source_type": "agent_generated_design",
        "confidence": "medium",
        "geometry_role": "design_proposal",
        "status": "conceptual_footprint_not_surveyed",
        "name_zh": "AI 原点成果转译首层",
        "building_type": "mixed_use"
      },
      "geometry": {
        "type": "Polygon",
        "coordinates": [
          [
            [
              116.3434,
              39.985
            ],
            [
              116.3455,
              39.985
            ],
            [
              116.3455,
              39.988
            ],
            [
              116.3434,
              39.988
            ],
            [
              116.3434,
              39.985
            ]
          ]
        ]
      }
    },
    {
      "type": "Feature",
      "id": "BLDG-004",
      "properties": {
        "id": "BLDG-004",
        "layer": "BUILDING_FOOTPRINT",
        "source_type": "agent_generated_design",
        "confidence": "medium",
        "geometry_role": "design_proposal",
        "status": "conceptual_footprint_not_surveyed",
        "name_zh": "AI 原点共享中试界面",
        "building_type": "ai_r_and_d"
      },
      "geometry": {
        "type": "Polygon",
        "coordinates": [
          [
            [
              116.3492,
              39.989
            ],
            [
              116.3514,
              39.989
            ],
            [
              116.3514,
              39.992
            ],
            [
              116.3492,
              39.992
            ],
            [
              116.3492,
              39.989
            ]
          ]
        ]
      }
    },
    {
      "type": "Feature",
      "id": "BLDG-005",
      "properties": {
        "id": "BLDG-005",
        "layer": "BUILDING_FOOTPRINT",
        "source_type": "agent_generated_design",
        "confidence": "medium",
        "geometry_role": "design_proposal",
        "status": "conceptual_footprint_not_surveyed",
        "name_zh": "大钟寺公众试用室",
        "building_type": "community_service"
      },
      "geometry": {
        "type": "Polygon",
        "coordinates": [
          [
            [
              116.3434,
              39.9446
            ],
            [
              116.346,
              39.9446
            ],
            [
              116.346,
              39.9472
            ],
            [
              116.3434,
              39.9472
            ],
            [
              116.3434,
              39.9446
            ]
          ]
        ]
      }
    },
    {
      "type": "Feature",
      "id": "BLDG-006",
      "properties": {
        "id": "BLDG-006",
        "layer": "BUILDING_FOOTPRINT",
        "source_type": "agent_generated_design",
        "confidence": "medium",
        "geometry_role": "design_proposal",
        "status": "conceptual_footprint_not_surveyed",
        "name_zh": "大钟寺市集文化界面",
        "building_type": "mixed_use"
      },
      "geometry": {
        "type": "Polygon",
        "coordinates": [
          [
            [
              116.35,
              39.946
            ],
            [
              116.353,
              39.946
            ],
            [
              116.353,
              39.949
            ],
            [
              116.35,
              39.949
            ],
            [
              116.35,
              39.946
            ]
          ]
        ]
      }
    }
  ]
}
