{
  "type": "FeatureCollection",
  "name": "phase2_blue_green_scenarios",
  "evidence_status": "design_target",
  "description": "Multiple conceptual green-space polygons; not statutory green land or an existing-condition survey.",
  "features": [
    {
      "type": "Feature",
      "id": "GREEN-001",
      "properties": {
        "id": "GREEN-001",
        "layer": "GREEN_SPACE",
        "source_type": "agent_generated_design",
        "confidence": "low",
        "geometry_role": "design_proposal",
        "status": "design_target_not_existing_green",
        "name_zh": "众智园园带接口情景",
        "green_type": "linear_park"
      },
      "geometry": {
        "type": "Polygon",
        "coordinates": [
          [
            [
              116.3465,
              40.0082
            ],
            [
              116.3496,
              40.0082
            ],
            [
              116.3496,
              40.025
            ],
            [
              116.3465,
              40.025
            ],
            [
              116.3465,
              40.0082
            ]
          ]
        ]
      }
    },
    {
      "type": "Feature",
      "id": "GREEN-002",
      "properties": {
        "id": "GREEN-002",
        "layer": "GREEN_SPACE",
        "source_type": "agent_generated_design",
        "confidence": "low",
        "geometry_role": "design_proposal",
        "status": "design_target_not_existing_green",
        "name_zh": "AI 原点遮阴休息情景",
        "green_type": "campus_green"
      },
      "geometry": {
        "type": "Polygon",
        "coordinates": [
          [
            [
              116.3458,
              39.9842
            ],
            [
              116.3488,
              39.9842
            ],
            [
              116.3488,
              39.993
            ],
            [
              116.3458,
              39.993
            ],
            [
              116.3458,
              39.9842
            ]
          ]
        ]
      }
    },
    {
      "type": "Feature",
      "id": "GREEN-003",
      "properties": {
        "id": "GREEN-003",
        "layer": "GREEN_SPACE",
        "source_type": "agent_generated_design",
        "confidence": "low",
        "geometry_role": "design_proposal",
        "status": "design_target_not_existing_green",
        "name_zh": "大钟寺到达绿楔情景",
        "green_type": "station_green"
      },
      "geometry": {
        "type": "Polygon",
        "coordinates": [
          [
            [
              116.3464,
              39.9443
            ],
            [
              116.3493,
              39.9443
            ],
            [
              116.3493,
              39.9494
            ],
            [
              116.3464,
              39.9494
            ],
            [
              116.3464,
              39.9443
            ]
          ]
        ]
      }
    },
    {
      "type": "Feature",
      "id": "GREEN-004",
      "properties": {
        "id": "GREEN-004",
        "layer": "GREEN_SPACE",
        "source_type": "agent_generated_design",
        "confidence": "low",
        "geometry_role": "design_proposal",
        "status": "design_target_not_existing_green",
        "name_zh": "在场脊柱蓝绿缓冲情景",
        "green_type": "corridor"
      },
      "geometry": {
        "type": "Polygon",
        "coordinates": [
          [
            [
              116.344,
              39.951
            ],
            [
              116.351,
              39.951
            ],
            [
              116.352,
              39.975
            ],
            [
              116.342,
              39.975
            ],
            [
              116.344,
              39.951
            ]
          ]
        ]
      }
    }
  ]
}
