{
  "type": "FeatureCollection",
  "name": "key_areas_provisional_rough",
  "evidence_status": "provisional_only",
  "confidence": "low",
  "source_id": "DATA-SRC-PROVISIONAL-BOUNDARIES-20260605",
  "description": "Three rough substitute polygons derived from public text and approximate announced areas; not official key-area boundaries or precise-area evidence.",
  "features": [
    {
      "type": "Feature",
      "id": "PROV-KEY-001",
      "properties": {
        "id": "PROV-KEY-001",
        "layer": "KEY_AREA",
        "parent_scope_id": "key_detailed_design_area",
        "area_id": "zhongzhiyuan_ai_acceleration_area",
        "name_zh": "众智园AI自主创新加速区粗略范围",
        "source_type": "agent_inferred_from_public_data",
        "confidence": "low",
        "geometry_role": "provisional_constraint",
        "official_boundary": false,
        "boundary_precision": "provisional_rough",
        "usable_for_formal": "provisional_only",
        "announced_area_sqm": 1921000,
        "area_sqm_calculated": 1929201.877,
        "source_id": "DATA-SRC-PROVISIONAL-BOUNDARIES-20260605",
        "derived_from_source_ids": [
          "DATA-SRC-OFFICIAL-ANNOUNCEMENT-20260509"
        ],
        "source_title": "依据公告重点片区名称、南北顺序、公告约面积和临时 SITE_BOUNDARY 形成的临时粗略范围",
        "derivation_method": "按公告自北向南第一处、众智园AI自主创新加速区、约192.1公顷及五环路/清河相关任务线索，在临时总体设计范围内粗略定位并校核面积；公告未给出四至，矩形边不得解释为地块或道路红线。",
        "usage_note": "仅用于 AI agent 生成、展示和临时自检；不得作为 official key-area polygon、审批依据或精确面积复算依据。",
        "status": "provisional_not_surveyed",
        "observations": [
          {
            "id": "OBS-ZZY-01",
            "statement_zh": "官方任务命名众智园 AI 自主创新加速区，公告约 192.1 公顷。",
            "evidence_status": "open-data-derived"
          },
          {
            "id": "OBS-ZZY-02",
            "statement_zh": "一期固定 SC01/SC02/SC03/SC04，以 SC01 为旗舰。",
            "evidence_status": "design-target"
          },
          {
            "id": "OBS-ZZY-03",
            "statement_zh": "任务线索要求处理京张遗址公园与创新载体关系。",
            "evidence_status": "open-data-derived"
          },
          {
            "id": "OBS-ZZY-04",
            "statement_zh": "正式片区 polygon、权属和道路红线未提供。",
            "evidence_status": "unknown"
          },
          {
            "id": "OBS-ZZY-05",
            "statement_zh": "现场出入口、树荫、坡度、客流和无障碍连续性未调查。",
            "evidence_status": "unknown"
          }
        ],
        "spatial_actions": [
          {
            "id": "ACT-ZZY-01",
            "statement_zh": "验证庭院：把受控测试、旁观和人工停止界面并置。",
            "dimension_status": "design-target",
            "implementation_status": "conceptual"
          },
          {
            "id": "ACT-ZZY-02",
            "statement_zh": "园带接口：把慢行、遮阴、休息与低技术说明组织成连续边缘。",
            "dimension_status": "design-target",
            "implementation_status": "conceptual"
          },
          {
            "id": "ACT-ZZY-03",
            "statement_zh": "可逆证据前场：所有设备以可拆、可断电、可移除为进入条件。",
            "dimension_status": "design-target",
            "implementation_status": "conceptual"
          }
        ],
        "common_scale_plan": {
          "comparison_frame_m": 400,
          "dimension_status": "design-target",
          "actual_site_extent_m": null,
          "actual_site_extent_status": "unknown"
        },
        "relational_section": {
          "cross_section_id": "CX02",
          "status": "representative_design_target_not_existing_section"
        },
        "operations_overlay": {
          "states": [
            "open",
            "human_takeover",
            "stop",
            "remove"
          ],
          "status": "design-target"
        },
        "prototype_role": "validation_present",
        "scenario_ids": [
          "SC01",
          "SC02",
          "SC03",
          "SC04"
        ],
        "flagship_scenario_id": "SC01",
        "survey_status": "not_surveyed",
        "accessibility_audit_status": "not_conducted",
        "pedestrian_survey_status": "not_conducted",
        "dimensions": [
          {
            "id": "PROV-KEY-001-D01",
            "name": "announced_approximate_area",
            "value": 1921000,
            "unit": "sqm",
            "dimension_status": "open-data-derived"
          },
          {
            "id": "PROV-KEY-001-D02",
            "name": "common_comparison_frame",
            "value": 400,
            "unit": "m",
            "dimension_status": "design-target"
          },
          {
            "id": "PROV-KEY-001-D03",
            "name": "official_boundary_width",
            "value": null,
            "unit": "m",
            "dimension_status": "unknown"
          }
        ]
      },
      "geometry": {
        "type": "Polygon",
        "coordinates": [
          [
            [
              116.343,
              40.0075
            ],
            [
              116.354,
              40.0075
            ],
            [
              116.354,
              40.026
            ],
            [
              116.343,
              40.026
            ],
            [
              116.343,
              40.0075
            ]
          ]
        ]
      }
    },
    {
      "type": "Feature",
      "id": "PROV-KEY-002",
      "properties": {
        "id": "PROV-KEY-002",
        "layer": "KEY_AREA",
        "parent_scope_id": "key_detailed_design_area",
        "area_id": "beijing_ai_origin_community",
        "name_zh": "北京AI原点社区粗略范围",
        "source_type": "agent_inferred_from_public_data",
        "confidence": "low",
        "geometry_role": "provisional_constraint",
        "official_boundary": false,
        "boundary_precision": "provisional_rough",
        "usable_for_formal": "provisional_only",
        "announced_area_sqm": 1043000,
        "area_sqm_calculated": 1043236.909,
        "source_id": "DATA-SRC-PROVISIONAL-BOUNDARIES-20260605",
        "derived_from_source_ids": [
          "DATA-SRC-OFFICIAL-ANNOUNCEMENT-20260509"
        ],
        "source_title": "依据公告重点片区名称、南北顺序、公告约面积和临时 SITE_BOUNDARY 形成的临时粗略范围",
        "derivation_method": "按公告自北向南第二处、北京AI原点社区、约104.3公顷及五道口/清华东路西口相关任务线索，在临时总体设计范围内粗略定位并校核面积；公告未给出四至，矩形边不得解释为地块或道路红线。",
        "usage_note": "仅用于 AI agent 生成、展示和临时自检；不得作为 official key-area polygon、审批依据或精确面积复算依据。",
        "status": "provisional_not_surveyed",
        "observations": [
          {
            "id": "OBS-AIO-01",
            "statement_zh": "官方任务命名北京 AI 原点社区，公告约 104.3 公顷。",
            "evidence_status": "open-data-derived"
          },
          {
            "id": "OBS-AIO-02",
            "statement_zh": "一期固定 SC05/SC06/SC07，以 SC05 为旗舰。",
            "evidence_status": "design-target"
          },
          {
            "id": "OBS-AIO-03",
            "statement_zh": "任务强调成果转化、人才服务与开放共享。",
            "evidence_status": "open-data-derived"
          },
          {
            "id": "OBS-AIO-04",
            "statement_zh": "校园开放边界、首层使用和消防条件未获得。",
            "evidence_status": "unknown"
          },
          {
            "id": "OBS-AIO-05",
            "statement_zh": "居民、学生、研发人员及配送时段流量未调查。",
            "evidence_status": "unknown"
          }
        ],
        "spatial_actions": [
          {
            "id": "ACT-AIO-01",
            "statement_zh": "开放首层环：以公共步行环串联说明、人工顾问和安静绕行。",
            "dimension_status": "design-target",
            "implementation_status": "conceptual"
          },
          {
            "id": "ACT-AIO-02",
            "statement_zh": "成果转译诊所：把研究成果改写为可比较、可追问、可撤回的公众说明。",
            "dimension_status": "design-target",
            "implementation_status": "conceptual"
          },
          {
            "id": "ACT-AIO-03",
            "statement_zh": "照护服务节点：保留非智能入口、人工转接和社区使用时段。",
            "dimension_status": "design-target",
            "implementation_status": "conceptual"
          }
        ],
        "common_scale_plan": {
          "comparison_frame_m": 400,
          "dimension_status": "design-target",
          "actual_site_extent_m": null,
          "actual_site_extent_status": "unknown"
        },
        "relational_section": {
          "cross_section_id": "CX05",
          "status": "representative_design_target_not_existing_section"
        },
        "operations_overlay": {
          "states": [
            "open",
            "human_takeover",
            "stop",
            "remove"
          ],
          "status": "design-target"
        },
        "prototype_role": "translation_present",
        "scenario_ids": [
          "SC05",
          "SC06",
          "SC07"
        ],
        "flagship_scenario_id": "SC05",
        "survey_status": "not_surveyed",
        "accessibility_audit_status": "not_conducted",
        "pedestrian_survey_status": "not_conducted",
        "dimensions": [
          {
            "id": "PROV-KEY-002-D01",
            "name": "announced_approximate_area",
            "value": 1043000,
            "unit": "sqm",
            "dimension_status": "open-data-derived"
          },
          {
            "id": "PROV-KEY-002-D02",
            "name": "common_comparison_frame",
            "value": 400,
            "unit": "m",
            "dimension_status": "design-target"
          },
          {
            "id": "PROV-KEY-002-D03",
            "name": "official_boundary_width",
            "value": null,
            "unit": "m",
            "dimension_status": "unknown"
          }
        ]
      },
      "geometry": {
        "type": "Polygon",
        "coordinates": [
          [
            [
              116.342,
              39.9835
            ],
            [
              116.353,
              39.9835
            ],
            [
              116.353,
              39.9935
            ],
            [
              116.342,
              39.9935
            ],
            [
              116.342,
              39.9835
            ]
          ]
        ]
      }
    },
    {
      "type": "Feature",
      "id": "PROV-KEY-003",
      "properties": {
        "id": "PROV-KEY-003",
        "layer": "KEY_AREA",
        "parent_scope_id": "key_detailed_design_area",
        "area_id": "dazhongsi_ai_industry_cluster",
        "name_zh": "大钟寺AI产业聚集区粗略范围",
        "source_type": "agent_inferred_from_public_data",
        "confidence": "low",
        "geometry_role": "provisional_constraint",
        "official_boundary": false,
        "boundary_precision": "provisional_rough",
        "usable_for_formal": "provisional_only",
        "announced_area_sqm": 720000,
        "area_sqm_calculated": 720454.221,
        "source_id": "DATA-SRC-PROVISIONAL-BOUNDARIES-20260605",
        "derived_from_source_ids": [
          "DATA-SRC-OFFICIAL-ANNOUNCEMENT-20260509"
        ],
        "source_title": "依据公告重点片区名称、南北顺序、公告约面积和临时 SITE_BOUNDARY 形成的临时粗略范围",
        "derivation_method": "按公告自北向南第三处、大钟寺AI产业聚集区、约72.0公顷及大钟寺站相关任务线索，在临时总体设计范围内粗略定位并校核面积；公告未给出四至，矩形边不得解释为地块或道路红线。",
        "usage_note": "仅用于 AI agent 生成、展示和临时自检；不得作为 official key-area polygon、审批依据或精确面积复算依据。",
        "status": "provisional_not_surveyed",
        "observations": [
          {
            "id": "OBS-DZS-01",
            "statement_zh": "官方任务命名大钟寺 AI 产业聚集区，公告约 72.0 公顷。",
            "evidence_status": "open-data-derived"
          },
          {
            "id": "OBS-DZS-02",
            "statement_zh": "一期固定 SC09/SC10/SC11，以 SC10 为旗舰。",
            "evidence_status": "design-target"
          },
          {
            "id": "OBS-DZS-03",
            "statement_zh": "任务要求处理站城到达、公共体验与文化表达。",
            "evidence_status": "open-data-derived"
          },
          {
            "id": "OBS-DZS-04",
            "statement_zh": "车站界面、商业权属、消防和撤场路线未获得。",
            "evidence_status": "unknown"
          },
          {
            "id": "OBS-DZS-05",
            "statement_zh": "换乘、消费、摊位和文化访客流量未调查。",
            "evidence_status": "unknown"
          }
        ],
        "spatial_actions": [
          {
            "id": "ACT-DZS-01",
            "statement_zh": "四象限到达环：到达、试用、人工申诉和退出四个象限可见相连。",
            "dimension_status": "design-target",
            "implementation_status": "conceptual"
          },
          {
            "id": "ACT-DZS-02",
            "statement_zh": "公众试用室：仅承载唯一 SC10＋IM06 首用试验并设置书面期限。",
            "dimension_status": "design-target",
            "implementation_status": "conceptual"
          },
          {
            "id": "ACT-DZS-03",
            "statement_zh": "市集文化界面：经营、文化说明和消防净空并列核验。",
            "dimension_status": "design-target",
            "implementation_status": "conceptual"
          }
        ],
        "common_scale_plan": {
          "comparison_frame_m": 400,
          "dimension_status": "design-target",
          "actual_site_extent_m": null,
          "actual_site_extent_status": "unknown"
        },
        "relational_section": {
          "cross_section_id": "CX10",
          "status": "representative_design_target_not_existing_section"
        },
        "operations_overlay": {
          "states": [
            "open",
            "human_takeover",
            "stop",
            "remove"
          ],
          "status": "design-target"
        },
        "prototype_role": "public_trial_present",
        "scenario_ids": [
          "SC09",
          "SC10",
          "SC11"
        ],
        "flagship_scenario_id": "SC10",
        "survey_status": "not_surveyed",
        "accessibility_audit_status": "not_conducted",
        "pedestrian_survey_status": "not_conducted",
        "dimensions": [
          {
            "id": "PROV-KEY-003-D01",
            "name": "announced_approximate_area",
            "value": 720000,
            "unit": "sqm",
            "dimension_status": "open-data-derived"
          },
          {
            "id": "PROV-KEY-003-D02",
            "name": "common_comparison_frame",
            "value": 400,
            "unit": "m",
            "dimension_status": "design-target"
          },
          {
            "id": "PROV-KEY-003-D03",
            "name": "official_boundary_width",
            "value": null,
            "unit": "m",
            "dimension_status": "unknown"
          }
        ]
      },
      "geometry": {
        "type": "Polygon",
        "coordinates": [
          [
            [
              116.342,
              39.944
            ],
            [
              116.355,
              39.944
            ],
            [
              116.355,
              39.94984
            ],
            [
              116.342,
              39.94984
            ],
            [
              116.342,
              39.944
            ]
          ]
        ]
      }
    }
  ],
  "phase2_observation_count": 15,
  "phase2_spatial_action_count": 9,
  "common_legend": [
    "open-data-derived",
    "design-target",
    "unknown",
    "candidate/not surveyed"
  ]
}
