{
  "type": "FeatureCollection",
  "name": "phase2_conditional_action_areas",
  "evidence_status": "design_target",
  "description": "Conditional action areas, not approved projects, budgets, schedules, or implementation commitments.",
  "features": [
    {
      "type": "Feature",
      "id": "PHASE-001",
      "properties": {
        "id": "PHASE-001",
        "layer": "PHASE",
        "source_type": "agent_generated_design",
        "confidence": "low",
        "geometry_role": "design_proposal",
        "status": "time_bounded_reversible_concept",
        "name_zh": "唯一首用试验：SC10＋IM06",
        "package_id": "AP5",
        "scenario_id": "SC10",
        "implementation_id": "IM06",
        "phase": "first_use_trial",
        "start_date": null,
        "end_date": null,
        "stop_exit": "Written expiry or any rights, safety, misleading-marketing, complaint-loop failure triggers removal."
      },
      "geometry": {
        "type": "Polygon",
        "coordinates": [
          [
            [
              116.343,
              39.9442
            ],
            [
              116.3542,
              39.9442
            ],
            [
              116.3542,
              39.9495
            ],
            [
              116.343,
              39.9495
            ],
            [
              116.343,
              39.9442
            ]
          ]
        ]
      }
    },
    {
      "type": "Feature",
      "id": "PHASE-002",
      "properties": {
        "id": "PHASE-002",
        "layer": "PHASE",
        "source_type": "agent_generated_design",
        "confidence": "low",
        "geometry_role": "design_proposal",
        "status": "conceptual_requires_entry_gate",
        "name_zh": "众智园原型行动包",
        "package_id": "AP3",
        "phase": "conditional_prototype"
      },
      "geometry": {
        "type": "Polygon",
        "coordinates": [
          [
            [
              116.3432,
              40.008
            ],
            [
              116.3535,
              40.008
            ],
            [
              116.3535,
              40.0255
            ],
            [
              116.3432,
              40.0255
            ],
            [
              116.3432,
              40.008
            ]
          ]
        ]
      }
    },
    {
      "type": "Feature",
      "id": "PHASE-003",
      "properties": {
        "id": "PHASE-003",
        "layer": "PHASE",
        "source_type": "agent_generated_design",
        "confidence": "low",
        "geometry_role": "design_proposal",
        "status": "conceptual_requires_entry_gate",
        "name_zh": "AI 原点原型行动包",
        "package_id": "AP4",
        "phase": "conditional_prototype"
      },
      "geometry": {
        "type": "Polygon",
        "coordinates": [
          [
            [
              116.3425,
              39.984
            ],
            [
              116.3528,
              39.984
            ],
            [
              116.3528,
              39.9932
            ],
            [
              116.3425,
              39.9932
            ],
            [
              116.3425,
              39.984
            ]
          ]
        ]
      }
    },
    {
      "type": "Feature",
      "id": "PHASE-004",
      "properties": {
        "id": "PHASE-004",
        "layer": "PHASE",
        "source_type": "agent_generated_design",
        "confidence": "low",
        "geometry_role": "design_proposal",
        "status": "candidate_not_approved_project",
        "name_zh": "在场脊柱责任核验包",
        "package_id": "AP2",
        "scenario_id": "SC08",
        "phase": "survey_and_protocol_before_design"
      },
      "geometry": {
        "type": "Polygon",
        "coordinates": [
          [
            [
              116.3438,
              39.9505
            ],
            [
              116.3515,
              39.9505
            ],
            [
              116.352,
              39.978
            ],
            [
              116.341,
              39.978
            ],
            [
              116.3438,
              39.9505
            ]
          ]
        ]
      }
    }
  ]
}
