{
  "type": "FeatureCollection",
  "name": "phase2_public_interface_scenarios",
  "evidence_status": "design_target",
  "description": "Multiple conceptual public-interface polygons; not cadastral or approved public-space boundaries.",
  "features": [
    {
      "type": "Feature",
      "id": "PUBLIC-001",
      "properties": {
        "id": "PUBLIC-001",
        "layer": "PUBLIC_SPACE",
        "source_type": "agent_generated_design",
        "confidence": "low",
        "geometry_role": "design_proposal",
        "status": "design_target_not_surveyed",
        "name_zh": "众智园验证前场",
        "public_space_type": "validation_apron"
      },
      "geometry": {
        "type": "Polygon",
        "coordinates": [
          [
            [
              116.3436,
              40.014
            ],
            [
              116.3462,
              40.014
            ],
            [
              116.3462,
              40.017
            ],
            [
              116.3436,
              40.017
            ],
            [
              116.3436,
              40.014
            ]
          ]
        ]
      }
    },
    {
      "type": "Feature",
      "id": "PUBLIC-002",
      "properties": {
        "id": "PUBLIC-002",
        "layer": "PUBLIC_SPACE",
        "source_type": "agent_generated_design",
        "confidence": "low",
        "geometry_role": "design_proposal",
        "status": "design_target_not_surveyed",
        "name_zh": "众智园人工接管前场",
        "public_space_type": "human_takeover_apron"
      },
      "geometry": {
        "type": "Polygon",
        "coordinates": [
          [
            [
              116.35,
              40.0135
            ],
            [
              116.3533,
              40.0135
            ],
            [
              116.3533,
              40.016
            ],
            [
              116.35,
              40.016
            ],
            [
              116.35,
              40.0135
            ]
          ]
        ]
      }
    },
    {
      "type": "Feature",
      "id": "PUBLIC-003",
      "properties": {
        "id": "PUBLIC-003",
        "layer": "PUBLIC_SPACE",
        "source_type": "agent_generated_design",
        "confidence": "low",
        "geometry_role": "design_proposal",
        "status": "design_target_not_surveyed",
        "name_zh": "AI 原点转译庭院",
        "public_space_type": "translation_court"
      },
      "geometry": {
        "type": "Polygon",
        "coordinates": [
          [
            [
              116.3428,
              39.9885
            ],
            [
              116.346,
              39.9885
            ],
            [
              116.346,
              39.9915
            ],
            [
              116.3428,
              39.9915
            ],
            [
              116.3428,
              39.9885
            ]
          ]
        ]
      }
    },
    {
      "type": "Feature",
      "id": "PUBLIC-004",
      "properties": {
        "id": "PUBLIC-004",
        "layer": "PUBLIC_SPACE",
        "source_type": "agent_generated_design",
        "confidence": "low",
        "geometry_role": "design_proposal",
        "status": "design_target_not_surveyed",
        "name_zh": "AI 原点照护服务节点",
        "public_space_type": "care_service_node"
      },
      "geometry": {
        "type": "Polygon",
        "coordinates": [
          [
            [
              116.349,
              39.985
            ],
            [
              116.3527,
              39.985
            ],
            [
              116.3527,
              39.988
            ],
            [
              116.349,
              39.988
            ],
            [
              116.349,
              39.985
            ]
          ]
        ]
      }
    },
    {
      "type": "Feature",
      "id": "PUBLIC-005",
      "properties": {
        "id": "PUBLIC-005",
        "layer": "PUBLIC_SPACE",
        "source_type": "agent_generated_design",
        "confidence": "low",
        "geometry_role": "design_proposal",
        "status": "design_target_not_surveyed",
        "name_zh": "大钟寺四象限到达厅",
        "public_space_type": "station_living_room"
      },
      "geometry": {
        "type": "Polygon",
        "coordinates": [
          [
            [
              116.3427,
              39.9475
            ],
            [
              116.347,
              39.9475
            ],
            [
              116.347,
              39.9492
            ],
            [
              116.3427,
              39.9492
            ],
            [
              116.3427,
              39.9475
            ]
          ]
        ]
      }
    },
    {
      "type": "Feature",
      "id": "PUBLIC-006",
      "properties": {
        "id": "PUBLIC-006",
        "layer": "PUBLIC_SPACE",
        "source_type": "agent_generated_design",
        "confidence": "low",
        "geometry_role": "design_proposal",
        "status": "design_target_not_surveyed",
        "name_zh": "大钟寺撤场与投诉前场",
        "public_space_type": "exit_complaint_apron"
      },
      "geometry": {
        "type": "Polygon",
        "coordinates": [
          [
            [
              116.3492,
              39.9445
            ],
            [
              116.354,
              39.9445
            ],
            [
              116.354,
              39.946
            ],
            [
              116.3492,
              39.946
            ],
            [
              116.3492,
              39.9445
            ]
          ]
        ]
      }
    }
  ]
}
