{
  "type": "FeatureCollection",
  "name": "grow-with-jingzhang-v2-public-service-nodes",
  "crs": {
    "type": "name",
    "properties": {
      "name": "urn:ogc:def:crs:OGC:1.3:CRS84"
    }
  },
  "properties": {
    "design_version": "v2-evidence-informed",
    "node_count": 12,
    "prototype_module_sqm": 320.0,
    "retained_v1_centers": 8,
    "multiobjective_consensus_replacements": 4,
    "geometry_status": "conceptual_provisional",
    "evidence": [
      "visual/assets/v2-evidence-summary.json"
    ]
  },
  "features": [
    {
      "type": "Feature",
      "id": "PUBLIC-01",
      "properties": {
        "id": "PUBLIC-01",
        "layer": "PUBLIC_SPACE",
        "source_type": "agent_generated_design",
        "confidence": "medium",
        "geometry_role": "design_proposal",
        "name_zh": "公共服务节点 01",
        "station_index": 1,
        "design_status": "conceptual_v2_evidence_informed_retain",
        "decision": "retain_v1_center_resize_to_320sqm_module",
        "evidence_ref": "visual/assets/v2-evidence-summary.json",
        "prototype_width_m": 20.0,
        "prototype_depth_m": 16.0,
        "area_sqm_declared": 320.0,
        "non_digital_fallback": true,
        "formal_status": "conceptual_provisional",
        "pending_checks": [
          "ownership",
          "utilities",
          "fire_access",
          "universal_access",
          "field_survey"
        ]
      },
      "geometry": {
        "type": "Polygon",
        "coordinates": [
          [
            [
              116.34699720278515,
              39.9425746029254
            ],
            [
              116.34699583296741,
              39.94271869415947
            ],
            [
              116.34676183474419,
              39.94271737594173
            ],
            [
              116.34676320505271,
              39.942573284714356
            ],
            [
              116.34699720278515,
              39.9425746029254
            ]
          ]
        ]
      }
    },
    {
      "type": "Feature",
      "id": "PUBLIC-02",
      "properties": {
        "id": "PUBLIC-02",
        "layer": "PUBLIC_SPACE",
        "source_type": "agent_generated_design",
        "confidence": "medium",
        "geometry_role": "design_proposal",
        "name_zh": "公共服务节点 02",
        "station_index": 2,
        "design_status": "conceptual_v2_evidence_informed_retain",
        "decision": "retain_v1_center_resize_to_320sqm_module",
        "evidence_ref": "visual/assets/v2-evidence-summary.json",
        "prototype_width_m": 20.0,
        "prototype_depth_m": 16.0,
        "area_sqm_declared": 320.0,
        "non_digital_fallback": true,
        "formal_status": "conceptual_provisional",
        "pending_checks": [
          "ownership",
          "utilities",
          "fire_access",
          "universal_access",
          "field_survey"
        ]
      },
      "geometry": {
        "type": "Polygon",
        "coordinates": [
          [
            [
              116.34715734277931,
              39.94986612726682
            ],
            [
              116.34715597294395,
              39.95001021832372
            ],
            [
              116.34692194987036,
              39.95000890023055
            ],
            [
              116.34692332019668,
              39.94986480918034
            ],
            [
              116.34715734277931,
              39.94986612726682
            ]
          ]
        ]
      }
    },
    {
      "type": "Feature",
      "id": "PUBLIC-05",
      "properties": {
        "id": "PUBLIC-05",
        "layer": "PUBLIC_SPACE",
        "source_type": "agent_generated_design",
        "confidence": "medium",
        "geometry_role": "design_proposal",
        "name_zh": "公共服务节点 05",
        "station_index": 5,
        "design_status": "conceptual_v2_evidence_informed_retain",
        "decision": "retain_v1_center_resize_to_320sqm_module",
        "evidence_ref": "visual/assets/v2-evidence-summary.json",
        "prototype_width_m": 20.0,
        "prototype_depth_m": 16.0,
        "area_sqm_declared": 320.0,
        "non_digital_fallback": true,
        "formal_status": "conceptual_provisional",
        "pending_checks": [
          "ownership",
          "utilities",
          "fire_access",
          "universal_access",
          "field_survey"
        ]
      },
      "geometry": {
        "type": "Polygon",
        "coordinates": [
          [
            [
              116.34763175727336,
              39.97174071735628
            ],
            [
              116.34763038737314,
              39.97188480788144
            ],
            [
              116.34739628969413,
              39.971883490150574
            ],
            [
              116.34739766008583,
              39.9717393996321
            ],
            [
              116.34763175727336,
              39.97174071735628
            ]
          ]
        ]
      }
    },
    {
      "type": "Feature",
      "id": "PUBLIC-06",
      "properties": {
        "id": "PUBLIC-06",
        "layer": "PUBLIC_SPACE",
        "source_type": "agent_generated_design",
        "confidence": "medium",
        "geometry_role": "design_proposal",
        "name_zh": "公共服务节点 06",
        "station_index": 6,
        "design_status": "conceptual_v2_evidence_informed_retain",
        "decision": "retain_v1_center_resize_to_320sqm_module",
        "evidence_ref": "visual/assets/v2-evidence-summary.json",
        "prototype_width_m": 20.0,
        "prototype_depth_m": 16.0,
        "area_sqm_declared": 320.0,
        "non_digital_fallback": true,
        "formal_status": "conceptual_provisional",
        "pending_checks": [
          "ownership",
          "utilities",
          "fire_access",
          "universal_access",
          "field_survey"
        ]
      },
      "geometry": {
        "type": "Polygon",
        "coordinates": [
          [
            [
              116.34777167233713,
              39.97903245204588
            ],
            [
              116.34777030237719,
              39.979176542393255
            ],
            [
              116.34753617981168,
              39.97917522474655
            ],
            [
              116.34753755026328,
              39.97903113440587
            ],
            [
              116.34777167233713,
              39.97903245204588
            ]
          ]
        ]
      }
    },
    {
      "type": "Feature",
      "id": "PUBLIC-07",
      "properties": {
        "id": "PUBLIC-07",
        "layer": "PUBLIC_SPACE",
        "source_type": "agent_generated_design",
        "confidence": "medium",
        "geometry_role": "design_proposal",
        "name_zh": "公共服务节点 07",
        "station_index": 7,
        "design_status": "conceptual_v2_evidence_informed_retain",
        "decision": "retain_v1_center_resize_to_320sqm_module",
        "evidence_ref": "visual/assets/v2-evidence-summary.json",
        "prototype_width_m": 20.0,
        "prototype_depth_m": 16.0,
        "area_sqm_declared": 320.0,
        "non_digital_fallback": true,
        "formal_status": "conceptual_provisional",
        "pending_checks": [
          "ownership",
          "utilities",
          "fire_access",
          "universal_access",
          "field_survey"
        ]
      },
      "geometry": {
        "type": "Polygon",
        "coordinates": [
          [
            [
              116.34791160667474,
              39.986324178488786
            ],
            [
              116.34791023665522,
              39.98646826865837
            ],
            [
              116.34767608919411,
              39.986466951096
            ],
            [
              116.34767745970551,
              39.986322860933114
            ],
            [
              116.34791160667474,
              39.986324178488786
            ]
          ]
        ]
      }
    },
    {
      "type": "Feature",
      "id": "PUBLIC-08",
      "properties": {
        "id": "PUBLIC-08",
        "layer": "PUBLIC_SPACE",
        "source_type": "agent_generated_design",
        "confidence": "medium",
        "geometry_role": "design_proposal",
        "name_zh": "公共服务节点 08",
        "station_index": 8,
        "design_status": "conceptual_v2_evidence_informed_retain",
        "decision": "retain_v1_center_resize_to_320sqm_module",
        "evidence_ref": "visual/assets/v2-evidence-summary.json",
        "prototype_width_m": 20.0,
        "prototype_depth_m": 16.0,
        "area_sqm_declared": 320.0,
        "non_digital_fallback": true,
        "formal_status": "conceptual_provisional",
        "pending_checks": [
          "ownership",
          "utilities",
          "fire_access",
          "universal_access",
          "field_survey"
        ]
      },
      "geometry": {
        "type": "Polygon",
        "coordinates": [
          [
            [
              116.3480515601603,
              39.99361589421061
            ],
            [
              116.34805019008128,
              39.99375998420238
            ],
            [
              116.34781601771554,
              39.993758666724496
            ],
            [
              116.34781738828657,
              39.993614576739425
            ],
            [
              116.3480515601603,
              39.99361589421061
            ]
          ]
        ]
      }
    },
    {
      "type": "Feature",
      "id": "PUBLIC-11",
      "properties": {
        "id": "PUBLIC-11",
        "layer": "PUBLIC_SPACE",
        "source_type": "agent_generated_design",
        "confidence": "medium",
        "geometry_role": "design_proposal",
        "name_zh": "公共服务节点 11",
        "station_index": 11,
        "design_status": "conceptual_v2_evidence_informed_retain",
        "decision": "retain_v1_center_resize_to_320sqm_module",
        "evidence_ref": "visual/assets/v2-evidence-summary.json",
        "prototype_width_m": 20.0,
        "prototype_depth_m": 16.0,
        "area_sqm_declared": 320.0,
        "non_digital_fallback": true,
        "formal_status": "conceptual_provisional",
        "pending_checks": [
          "ownership",
          "utilities",
          "fire_access",
          "universal_access",
          "field_survey"
        ]
      },
      "geometry": {
        "type": "Polygon",
        "coordinates": [
          [
            [
              116.34845594102846,
              40.0154911632785
            ],
            [
              116.34845457073894,
              40.01563525273635
            ],
            [
              116.34822032360492,
              40.015633935481254
            ],
            [
              116.34822169438702,
              40.015489846030086
            ],
            [
              116.34845594102846,
              40.0154911632785
            ]
          ]
        ]
      }
    },
    {
      "type": "Feature",
      "id": "PUBLIC-12",
      "properties": {
        "id": "PUBLIC-12",
        "layer": "PUBLIC_SPACE",
        "source_type": "agent_generated_design",
        "confidence": "medium",
        "geometry_role": "design_proposal",
        "name_zh": "公共服务节点 12",
        "station_index": 12,
        "design_status": "conceptual_v2_evidence_informed_retain",
        "decision": "retain_v1_center_resize_to_320sqm_module",
        "evidence_ref": "visual/assets/v2-evidence-summary.json",
        "prototype_width_m": 20.0,
        "prototype_depth_m": 16.0,
        "area_sqm_declared": 320.0,
        "non_digital_fallback": true,
        "formal_status": "conceptual_provisional",
        "pending_checks": [
          "ownership",
          "utilities",
          "fire_access",
          "universal_access",
          "field_survey"
        ]
      },
      "geometry": {
        "type": "Polygon",
        "coordinates": [
          [
            [
              116.3485896272357,
              40.02278291308218
            ],
            [
              116.34858825687378,
              40.022927002361996
            ],
            [
              116.34835398479888,
              40.02292568517914
            ],
            [
              116.34835535565351,
              40.02278159590601
            ],
            [
              116.3485896272357,
              40.02278291308218
            ]
          ]
        ]
      }
    },
    {
      "type": "Feature",
      "id": "PUBLIC-V2-01",
      "properties": {
        "id": "PUBLIC-V2-01",
        "layer": "PUBLIC_SPACE",
        "source_type": "agent_generated_design",
        "confidence": "medium",
        "geometry_role": "design_proposal",
        "name_zh": "V2 公共服务节点 01",
        "design_status": "conceptual_v2_multiobjective_consensus_replacement",
        "decision": "replace_low_efficiency_v1_node_set",
        "collectively_replaces_v1_nodes": [
          "PUBLIC-03",
          "PUBLIC-04",
          "PUBLIC-09",
          "PUBLIC-10"
        ],
        "consensus_candidate_id": "CONS-CAND-01",
        "objective_support": [
          "balanced",
          "equity",
          "universal"
        ],
        "objective_support_count": 3,
        "source_grids": [
          "GRID-005-012",
          "GRID-005-011"
        ],
        "robust_top20_probability_v02": 0.0,
        "evidence_ref": "visual/assets/v2-evidence-summary.json",
        "prototype_width_m": 20.0,
        "prototype_depth_m": 16.0,
        "area_sqm_declared": 320.0,
        "non_digital_fallback": true,
        "formal_status": "conceptual_provisional",
        "pending_checks": [
          "right_of_way",
          "ownership",
          "utilities",
          "fire_access",
          "universal_access",
          "field_survey",
          "official_facility_crosscheck"
        ]
      },
      "geometry": {
        "type": "Polygon",
        "coordinates": [
          [
            [
              116.35365067845991,
              39.9433766066422
            ],
            [
              116.35364932256024,
              39.94352069804646
            ],
            [
              116.35341532129603,
              39.94351939323549
            ],
            [
              116.35341667768652,
              39.943375301837854
            ],
            [
              116.35365067845991,
              39.9433766066422
            ]
          ]
        ]
      }
    },
    {
      "type": "Feature",
      "id": "PUBLIC-V2-02",
      "properties": {
        "id": "PUBLIC-V2-02",
        "layer": "PUBLIC_SPACE",
        "source_type": "agent_generated_design",
        "confidence": "medium",
        "geometry_role": "design_proposal",
        "name_zh": "V2 公共服务节点 02",
        "design_status": "conceptual_v2_multiobjective_consensus_replacement",
        "decision": "replace_low_efficiency_v1_node_set",
        "collectively_replaces_v1_nodes": [
          "PUBLIC-03",
          "PUBLIC-04",
          "PUBLIC-09",
          "PUBLIC-10"
        ],
        "consensus_candidate_id": "CONS-CAND-06",
        "objective_support": [
          "equity"
        ],
        "objective_support_count": 1,
        "source_grids": [
          "GRID-008-007"
        ],
        "robust_top20_probability_v02": 0.687,
        "evidence_ref": "visual/assets/v2-evidence-summary.json",
        "prototype_width_m": 20.0,
        "prototype_depth_m": 16.0,
        "area_sqm_declared": 320.0,
        "non_digital_fallback": true,
        "formal_status": "conceptual_provisional",
        "pending_checks": [
          "right_of_way",
          "ownership",
          "utilities",
          "fire_access",
          "universal_access",
          "field_survey",
          "official_facility_crosscheck"
        ]
      },
      "geometry": {
        "type": "Polygon",
        "coordinates": [
          [
            [
              116.34777568909664,
              39.946045612724404
            ],
            [
              116.34777432074374,
              39.946189703894305
            ],
            [
              116.34754031065931,
              39.94618838715328
            ],
            [
              116.34754167950305,
              39.94604429599007
            ],
            [
              116.34777568909664,
              39.946045612724404
            ]
          ]
        ]
      }
    },
    {
      "type": "Feature",
      "id": "PUBLIC-V2-03",
      "properties": {
        "id": "PUBLIC-V2-03",
        "layer": "PUBLIC_SPACE",
        "source_type": "agent_generated_design",
        "confidence": "medium",
        "geometry_role": "design_proposal",
        "name_zh": "V2 公共服务节点 03",
        "design_status": "conceptual_v2_multiobjective_consensus_replacement",
        "decision": "replace_low_efficiency_v1_node_set",
        "collectively_replaces_v1_nodes": [
          "PUBLIC-03",
          "PUBLIC-04",
          "PUBLIC-09",
          "PUBLIC-10"
        ],
        "consensus_candidate_id": "CONS-CAND-05",
        "objective_support": [
          "universal"
        ],
        "objective_support_count": 1,
        "source_grids": [
          "GRID-011-002"
        ],
        "robust_top20_probability_v02": 0.489,
        "evidence_ref": "visual/assets/v2-evidence-summary.json",
        "prototype_width_m": 20.0,
        "prototype_depth_m": 16.0,
        "area_sqm_declared": 320.0,
        "non_digital_fallback": true,
        "formal_status": "conceptual_provisional",
        "pending_checks": [
          "right_of_way",
          "ownership",
          "utilities",
          "fire_access",
          "universal_access",
          "field_survey",
          "official_facility_crosscheck"
        ]
      },
      "geometry": {
        "type": "Polygon",
        "coordinates": [
          [
            [
              116.3418996997349,
              39.948714618809035
            ],
            [
              116.34189831892438,
              39.948858709743014
            ],
            [
              116.34166430002101,
              39.94885738106861
            ],
            [
              116.34166568132245,
              39.94871329014138
            ],
            [
              116.3418996997349,
              39.948714618809035
            ]
          ]
        ]
      }
    },
    {
      "type": "Feature",
      "id": "PUBLIC-V2-04",
      "properties": {
        "id": "PUBLIC-V2-04",
        "layer": "PUBLIC_SPACE",
        "source_type": "agent_generated_design",
        "confidence": "medium",
        "geometry_role": "design_proposal",
        "name_zh": "V2 公共服务节点 04",
        "design_status": "conceptual_v2_multiobjective_consensus_replacement",
        "decision": "replace_low_efficiency_v1_node_set",
        "collectively_replaces_v1_nodes": [
          "PUBLIC-03",
          "PUBLIC-04",
          "PUBLIC-09",
          "PUBLIC-10"
        ],
        "consensus_candidate_id": "CONS-CAND-02",
        "objective_support": [
          "balanced",
          "universal"
        ],
        "objective_support_count": 2,
        "source_grids": [
          "GRID-075-006"
        ],
        "robust_top20_probability_v02": 0.6116,
        "evidence_ref": "visual/assets/v2-evidence-summary.json",
        "prototype_width_m": 20.0,
        "prototype_depth_m": 16.0,
        "area_sqm_declared": 320.0,
        "non_digital_fallback": true,
        "formal_status": "conceptual_provisional",
        "pending_checks": [
          "right_of_way",
          "ownership",
          "utilities",
          "fire_access",
          "universal_access",
          "field_survey",
          "official_facility_crosscheck"
        ]
      },
      "geometry": {
        "type": "Polygon",
        "coordinates": [
          [
            [
              116.3460307952853,
              40.00637761608523
            ],
            [
              116.34602942033904,
              40.00652170570072
            ],
            [
              116.3457952044699,
              40.00652038379216
            ],
            [
              116.34579657990851,
              40.00637629418338
            ],
            [
              116.3460307952853,
              40.00637761608523
            ]
          ]
        ]
      }
    }
  ]
}
