{
  "type": "FeatureCollection",
  "name": "grow-with-jingzhang-v2-roads-and-pilot",
  "crs": {
    "type": "name",
    "properties": {
      "name": "urn:ogc:def:crs:OGC:1.3:CRS84"
    }
  },
  "features": [
    {
      "type": "Feature",
      "id": "ROAD-01",
      "properties": {
        "id": "ROAD-01",
        "layer": "ROAD_CENTERLINE",
        "source_type": "agent_generated_design",
        "confidence": "low",
        "geometry_role": "design_proposal",
        "name_zh": "京张创新发展轴：全龄步行与骑行主线",
        "road_class": "greenway",
        "design_status": "conceptual_alignment_pending_road_redlines"
      },
      "geometry": {
        "type": "LineString",
        "coordinates": [
          [
            116.34679946388759,
            39.93900022361117
          ],
          [
            116.34747170239778,
            39.9696061212875
          ],
          [
            116.34800949926725,
            39.997631788131024
          ],
          [
            116.34853864970466,
            40.02650017034582
          ]
        ]
      }
    },
    {
      "type": "Feature",
      "id": "ROAD-02",
      "properties": {
        "id": "ROAD-02",
        "layer": "ROAD_CENTERLINE",
        "source_type": "agent_generated_design",
        "confidence": "low",
        "geometry_role": "design_proposal",
        "name_zh": "成长横街 1",
        "road_class": "pedestrian",
        "design_status": "conceptual_alignment_pending_road_redlines"
      },
      "geometry": {
        "type": "LineString",
        "coordinates": [
          [
            116.34026465470195,
            39.954678248426255
          ],
          [
            116.35530001578292,
            39.954762838425445
          ]
        ]
      }
    },
    {
      "type": "Feature",
      "id": "ROAD-03",
      "properties": {
        "id": "ROAD-03",
        "layer": "ROAD_CENTERLINE",
        "source_type": "agent_generated_design",
        "confidence": "low",
        "geometry_role": "design_proposal",
        "name_zh": "成长横街 2",
        "road_class": "pedestrian",
        "design_status": "conceptual_alignment_pending_road_redlines"
      },
      "geometry": {
        "type": "LineString",
        "coordinates": [
          [
            116.33980244616184,
            39.97131411380652
          ],
          [
            116.35478827182969,
            39.97139849661522
          ]
        ]
      }
    },
    {
      "type": "Feature",
      "id": "ROAD-04",
      "properties": {
        "id": "ROAD-04",
        "layer": "ROAD_CENTERLINE",
        "source_type": "agent_generated_design",
        "confidence": "low",
        "geometry_role": "design_proposal",
        "name_zh": "成长横街 3",
        "road_class": "pedestrian",
        "design_status": "conceptual_alignment_pending_road_redlines"
      },
      "geometry": {
        "type": "LineString",
        "coordinates": [
          [
            116.34059223530073,
            39.98883276580541
          ],
          [
            116.35338764486184,
            39.98890485610082
          ]
        ]
      }
    },
    {
      "type": "Feature",
      "id": "ROAD-05",
      "properties": {
        "id": "ROAD-05",
        "layer": "ROAD_CENTERLINE",
        "source_type": "agent_generated_design",
        "confidence": "low",
        "geometry_role": "design_proposal",
        "name_zh": "成长横街 4",
        "road_class": "pedestrian",
        "design_status": "conceptual_alignment_pending_road_redlines"
      },
      "geometry": {
        "type": "LineString",
        "coordinates": [
          [
            116.34166626210805,
            40.005477271990664
          ],
          [
            116.35415168885669,
            40.00554752387584
          ]
        ]
      }
    },
    {
      "type": "Feature",
      "id": "ROAD-PILOT-V2-03",
      "properties": {
        "id": "ROAD-PILOT-V2-03",
        "layer": "ROAD_CENTERLINE",
        "source_type": "agent_generated_design",
        "confidence": "low",
        "geometry_role": "design_proposal",
        "name_zh": "京张创新发展轴 V2 示范段容差线",
        "design_status": "conceptual_alignment_pending_road_redlines",
        "v2_role": "tolerance",
        "research_candidate": "CORRIDOR-03",
        "length_target_m": 1000,
        "robust_top20_probability_v02": 0.923,
        "robust_top10_probability_v02": 0.7684,
        "evidence_ref": "visual/assets/v2-evidence-summary.json",
        "formal_status": "conceptual_provisional",
        "pending_checks": [
          "road_redline",
          "rail_safety",
          "ownership",
          "utilities",
          "field_survey"
        ]
      },
      "geometry": {
        "type": "LineString",
        "coordinates": [
          [
            116.34689832843658,
            39.94350255313941
          ],
          [
            116.34709608437662,
            39.952507201803414
          ]
        ]
      }
    },
    {
      "type": "Feature",
      "id": "ROAD-PILOT-V2-04",
      "properties": {
        "id": "ROAD-PILOT-V2-04",
        "layer": "ROAD_CENTERLINE",
        "source_type": "agent_generated_design",
        "confidence": "medium",
        "geometry_role": "design_proposal",
        "name_zh": "京张创新发展轴 V2 首期示范段",
        "design_status": "conceptual_alignment_pending_road_redlines",
        "v2_role": "lead",
        "research_candidate": "CORRIDOR-04",
        "length_target_m": 1000,
        "robust_top20_probability_v02": 0.997,
        "robust_top10_probability_v02": 0.9734,
        "evidence_ref": "visual/assets/v2-evidence-summary.json",
        "formal_status": "conceptual_provisional",
        "pending_checks": [
          "road_redline",
          "rail_safety",
          "ownership",
          "utilities",
          "field_survey"
        ]
      },
      "geometry": {
        "type": "LineString",
        "coordinates": [
          [
            116.34694776406562,
            39.94575371660451
          ],
          [
            116.34714552895652,
            39.95475836180421
          ]
        ]
      }
    },
    {
      "type": "Feature",
      "id": "ROAD-PILOT-V2-05",
      "properties": {
        "id": "ROAD-PILOT-V2-05",
        "layer": "ROAD_CENTERLINE",
        "source_type": "agent_generated_design",
        "confidence": "low",
        "geometry_role": "design_proposal",
        "name_zh": "京张创新发展轴 V2 示范段容差线",
        "design_status": "conceptual_alignment_pending_road_redlines",
        "v2_role": "tolerance",
        "research_candidate": "CORRIDOR-05",
        "length_target_m": 1000,
        "robust_top20_probability_v02": 0.9856,
        "robust_top10_probability_v02": 0.9374,
        "evidence_ref": "visual/assets/v2-evidence-summary.json",
        "formal_status": "conceptual_provisional",
        "pending_checks": [
          "road_redline",
          "rail_safety",
          "ownership",
          "utilities",
          "field_survey"
        ]
      },
      "geometry": {
        "type": "LineString",
        "coordinates": [
          [
            116.34699720193163,
            39.94800487920355
          ],
          [
            116.34719497577534,
            39.95700952093887
          ]
        ]
      }
    }
  ]
}
