{
  "type": "FeatureCollection",
  "name": "reference_building_response_within_provisional_container",
  "features": [
    {
      "type": "Feature",
      "id": "BLDG-001",
      "properties": {
        "id": "BLDG-001",
        "layer": "BUILDING_FOOTPRINT",
        "source_type": "agent_generated_design",
        "confidence": "low",
        "geometry_role": "design_proposal",
        "name_zh": "首层前沿带概念响应建筑群（临时容器）",
        "area_sqm_declared": 310807.184,
        "concept_status": "M_CONCEPT_DESIGN_GO",
        "engineering_implementation_verified": false,
        "design_action": "以现状保留为原则，只对经核实的首层、院前和后勤界面提出条件式复面建议。",
        "rebind_trigger": "官方总体/重点区 polygon 与现状建筑、产权、结构、消防和竣工图到位。",
        "usage_note": "为 provisional formal 容器内的可复算参考基底；不是 RF-06/A 实测建筑、不证明可改开间，不得推导总建面、拆改留或工程规模。"
      },
      "geometry": {
        "type": "Polygon",
        "coordinates": [
          [
            [
              116.341572,
              39.95475
            ],
            [
              116.341572,
              39.97225
            ],
            [
              116.34344399999999,
              39.97225
            ],
            [
              116.34344399999999,
              39.95475
            ],
            [
              116.341572,
              39.95475
            ]
          ]
        ]
      }
    }
  ]
}
