{
  "type": "FeatureCollection",
  "name": "park_spine_non_regression_design_model",
  "features": [
    {
      "type": "Feature",
      "id": "GREEN-001",
      "properties": {
        "id": "GREEN-001",
        "layer": "GREEN_SPACE",
        "source_type": "agent_generated_design",
        "confidence": "low",
        "geometry_role": "design_proposal",
        "land_use_code": "1401",
        "name_zh": "公园公共脊与生态不退化概念模型",
        "area_sqm_declared": 1408600.768,
        "concept_status": "M_CONCEPT_DESIGN_GO",
        "engineering_implementation_verified": false,
        "non_regression_rule": "公园净公共空间不减，普通通行能力不降，既有生态绩效不退。",
        "rebind_trigger": "官方边界、竣工/现状公园边界、树木、地形、透水与雨洪基线到位。",
        "usage_note": "为临时 formal 容器中的概念几何，不是实测现状绿地或已批绿地指标。"
      },
      "geometry": {
        "type": "Polygon",
        "coordinates": [
          [
            [
              116.34438,
              39.953
            ],
            [
              116.34438,
              40.012499999999996
            ],
            [
              116.346876,
              40.012499999999996
            ],
            [
              116.346876,
              39.953
            ],
            [
              116.34438,
              39.953
            ]
          ]
        ]
      }
    }
  ]
}
