{
  "type": "FeatureCollection",
  "name": "key_areas_provisional_formal_containers",
  "features": [
    {
      "type": "Feature",
      "id": "PROV-KEY-001",
      "properties": {
        "id": "PROV-KEY-001",
        "layer": "KEY_AREA",
        "parent_scope_id": "key_detailed_design_area",
        "area_id": "zhongzhiyuan_ai_acceleration_area",
        "name_zh": "众智园AI自主创新加速区粗略范围",
        "source_type": "agent_inferred_from_public_data",
        "confidence": "low",
        "geometry_role": "provisional_constraint",
        "constraint_class": "provisional_constraint",
        "official_boundary": false,
        "boundary_precision": "provisional_rough",
        "announced_area_sqm": 1921000,
        "area_sqm_calculated": 1929201.877,
        "source_id": "DATA-SRC-PROVISIONAL-BOUNDARIES-20260605",
        "derived_from_source_ids": [
          "DATA-SRC-OFFICIAL-ANNOUNCEMENT-20260509"
        ],
        "source_title": "依据公告重点片区名称、南北顺序、公告约面积和临时 SITE_BOUNDARY 形成的临时粗略范围",
        "derivation_method": "按公告自北向南第一处、众智园AI自主创新加速区、约192.1公顷及五环路/清河相关任务线索，在临时总体设计范围内粗略定位并校核面积；公告未给出四至，矩形边不得解释为地块或道路红线。",
        "real_world_binding_status": "unverified",
        "rebind_trigger": "取得官方众智园重点区 polygon 及坐标系、版本和来源信息。",
        "full_recalculation_required": true,
        "usage_note": "仅用于 AI agent 临时生成、同尺度概念比较和 intake 自检；不得作为 official key-area polygon、精确面积、权属、工程或审批依据。"
      },
      "geometry": {
        "type": "Polygon",
        "coordinates": [
          [
            [
              116.343,
              40.0075
            ],
            [
              116.354,
              40.0075
            ],
            [
              116.354,
              40.026
            ],
            [
              116.343,
              40.026
            ],
            [
              116.343,
              40.0075
            ]
          ]
        ]
      }
    },
    {
      "type": "Feature",
      "id": "PROV-KEY-002",
      "properties": {
        "id": "PROV-KEY-002",
        "layer": "KEY_AREA",
        "parent_scope_id": "key_detailed_design_area",
        "area_id": "beijing_ai_origin_community",
        "name_zh": "北京AI原点社区粗略范围",
        "source_type": "agent_inferred_from_public_data",
        "confidence": "low",
        "geometry_role": "provisional_constraint",
        "constraint_class": "provisional_constraint",
        "official_boundary": false,
        "boundary_precision": "provisional_rough",
        "announced_area_sqm": 1043000,
        "area_sqm_calculated": 1043236.909,
        "source_id": "DATA-SRC-PROVISIONAL-BOUNDARIES-20260605",
        "derived_from_source_ids": [
          "DATA-SRC-OFFICIAL-ANNOUNCEMENT-20260509"
        ],
        "source_title": "依据公告重点片区名称、南北顺序、公告约面积和临时 SITE_BOUNDARY 形成的临时粗略范围",
        "derivation_method": "按公告自北向南第二处、北京AI原点社区、约104.3公顷及五道口/清华东路西口相关任务线索，在临时总体设计范围内粗略定位并校核面积；公告未给出四至，矩形边不得解释为地块或道路红线。",
        "real_world_binding_status": "conflicts_with_osm_rf06_a_analysis_window",
        "known_spatial_conflict": "真实 OSM RF-06/A 分析框与本临时 polygon 不相交，最小东西间隔约 580 m；IF-01、IF-02 与 S2 不得静默平移到本 polygon 内。",
        "rebind_trigger": "取得官方 AI 原点社区 polygon，并与 RF-06/A 现场核验、冻结 OSM 及已批项目边界同步重绑定。",
        "full_recalculation_required": true,
        "usage_note": "仅用于 AI agent 临时生成、同尺度概念比较和 intake 自检；不得作为 official key-area polygon、精确面积、权属、工程或审批依据。"
      },
      "geometry": {
        "type": "Polygon",
        "coordinates": [
          [
            [
              116.342,
              39.9835
            ],
            [
              116.353,
              39.9835
            ],
            [
              116.353,
              39.9935
            ],
            [
              116.342,
              39.9935
            ],
            [
              116.342,
              39.9835
            ]
          ]
        ]
      }
    },
    {
      "type": "Feature",
      "id": "PROV-KEY-003",
      "properties": {
        "id": "PROV-KEY-003",
        "layer": "KEY_AREA",
        "parent_scope_id": "key_detailed_design_area",
        "area_id": "dazhongsi_ai_industry_cluster",
        "name_zh": "大钟寺AI产业聚集区粗略范围",
        "source_type": "agent_inferred_from_public_data",
        "confidence": "low",
        "geometry_role": "provisional_constraint",
        "constraint_class": "provisional_constraint",
        "official_boundary": false,
        "boundary_precision": "provisional_rough",
        "announced_area_sqm": 720000,
        "area_sqm_calculated": 720454.221,
        "source_id": "DATA-SRC-PROVISIONAL-BOUNDARIES-20260605",
        "derived_from_source_ids": [
          "DATA-SRC-OFFICIAL-ANNOUNCEMENT-20260509"
        ],
        "source_title": "依据公告重点片区名称、南北顺序、公告约面积和临时 SITE_BOUNDARY 形成的临时粗略范围",
        "derivation_method": "按公告自北向南第三处、大钟寺AI产业聚集区、约72.0公顷及大钟寺站相关任务线索，在临时总体设计范围内粗略定位并校核面积；公告未给出四至，矩形边不得解释为地块或道路红线。",
        "real_world_binding_status": "conflicts_with_osm_dazhongsi_station_anchor",
        "known_spatial_conflict": "冻结 OSM 大钟寺站 node/6617852356 距本临时 polygon 北边约 1.74 km；不在本 polygon 内伪造站口、站房或现状锚点。",
        "rebind_trigger": "取得官方大钟寺 AI 产业聚集区 polygon，并与官方站口/站房现状、道路与权属资料同步重绑定。",
        "full_recalculation_required": true,
        "usage_note": "仅用于 AI agent 临时生成、同尺度概念比较和 intake 自检；不得作为 official key-area polygon、精确面积、权属、工程或审批依据。"
      },
      "geometry": {
        "type": "Polygon",
        "coordinates": [
          [
            [
              116.342,
              39.944
            ],
            [
              116.355,
              39.944
            ],
            [
              116.355,
              39.94984
            ],
            [
              116.342,
              39.94984
            ],
            [
              116.342,
              39.944
            ]
          ]
        ]
      }
    }
  ]
}
