{
  "type": "FeatureCollection",
  "name": "gate3_frontier_family_topology_partition_provisional_container",
  "features": [
    {
      "type": "Feature",
      "id": "LU-001",
      "properties": {
        "id": "LU-001",
        "layer": "LAND_USE",
        "source_type": "agent_generated_design",
        "confidence": "low",
        "geometry_role": "design_proposal",
        "land_use_code": "0802",
        "name_zh": "科研复面概念分区（拓扑容器）",
        "area_sqm_declared": 2674562.492,
        "frontier_family": "research_refront",
        "concept_status": "M_CONCEPT_DESIGN_GO",
        "engineering_implementation_verified": false,
        "design_intent": "构建可见而不越界的科研公共观察面，保留实验、安全和独立后线。",
        "rebind_trigger": "官方用地、重点区、地块、机构入口、实验安全与运维条件到位。",
        "usage_note": "只是临时总体边界内的 topology-safe 概念分区，不是现状或已批法定用地。"
      },
      "geometry": {
        "type": "Polygon",
        "coordinates": [
          [
            [
              116.3407,
              39.939
            ],
            [
              116.3397,
              39.975
            ],
            [
              116.3417,
              40.006
            ],
            [
              116.3427,
              40.0265
            ],
            [
              116.344068,
              40.0265
            ],
            [
              116.344068,
              39.939
            ],
            [
              116.3407,
              39.939
            ]
          ]
        ]
      }
    },
    {
      "type": "Feature",
      "id": "LU-002",
      "properties": {
        "id": "LU-002",
        "layer": "LAND_USE",
        "source_type": "agent_generated_design",
        "confidence": "low",
        "geometry_role": "design_proposal",
        "land_use_code": "1401",
        "name_zh": "公园公共脊不退化概念分区（拓扑容器）",
        "area_sqm_declared": 2589339.239,
        "frontier_family": "shared_public_park_spine",
        "concept_status": "M_CONCEPT_DESIGN_GO",
        "engineering_implementation_verified": false,
        "design_intent": "公园保持普通公共使用为先，复面增量优先来自公园外首层、院前、低效硬地与经核停车。",
        "rebind_trigger": "官方绿地、已建公园、树木、地形、通行与生态绩效基线到位。",
        "usage_note": "只是临时总体边界内的 topology-safe 概念分区，不是现状或已批法定用地。"
      },
      "geometry": {
        "type": "Polygon",
        "coordinates": [
          [
            [
              116.344068,
              39.939
            ],
            [
              116.344068,
              40.0265
            ],
            [
              116.347188,
              40.0265
            ],
            [
              116.347188,
              39.939
            ],
            [
              116.344068,
              39.939
            ]
          ]
        ]
      }
    },
    {
      "type": "Feature",
      "id": "LU-003",
      "properties": {
        "id": "LU-003",
        "layer": "LAND_USE",
        "source_type": "agent_generated_design",
        "confidence": "low",
        "geometry_role": "design_proposal",
        "land_use_code": "09",
        "name_zh": "站城复面概念分区（拓扑容器）",
        "area_sqm_declared": 3366138.181,
        "frontier_family": "station_city_refront",
        "concept_status": "M_CONCEPT_DESIGN_GO",
        "engineering_implementation_verified": false,
        "design_intent": "使站口、过街、公园、社区服务与产业首层在地面可读，并保留疏散、无障碍与后勤独立性。",
        "rebind_trigger": "官方大钟寺重点区 polygon、站口/站房、过街、疏散、权属和后勤资料到位。",
        "usage_note": "只是临时总体边界内的 topology-safe 概念分区，不是现状或已批法定用地。"
      },
      "geometry": {
        "type": "Polygon",
        "coordinates": [
          [
            [
              116.347188,
              39.939
            ],
            [
              116.347188,
              40.0265
            ],
            [
              116.351244,
              40.0265
            ],
            [
              116.351244,
              39.939
            ],
            [
              116.347188,
              39.939
            ]
          ]
        ]
      }
    },
    {
      "type": "Feature",
      "id": "LU-004",
      "properties": {
        "id": "LU-004",
        "layer": "LAND_USE",
        "source_type": "agent_generated_design",
        "confidence": "low",
        "geometry_role": "design_proposal",
        "land_use_code": "0702",
        "name_zh": "校城复面与公共服务概念分区（拓扑容器）",
        "area_sqm_declared": 2782792.823,
        "frontier_family": "campus_city_refront",
        "concept_status": "M_CONCEPT_DESIGN_GO",
        "engineering_implementation_verified": false,
        "design_intent": "以首层前沿带—后勤换位促进校园、社区、医疗、创新活动和公园日常共存，不清空首层做 AI 展厅。",
        "rebind_trigger": "官方 AI 原点重点区 polygon 与 RF-06/A 门、首层、权属、消防、停车、后勤及已批项目边界完成重绑定。",
        "usage_note": "只是临时总体边界内的 topology-safe 概念分区，不是现状或已批法定用地。"
      },
      "geometry": {
        "type": "Polygon",
        "coordinates": [
          [
            [
              116.3553,
              40.0265
            ],
            [
              116.3533,
              39.99
            ],
            [
              116.3553,
              39.965
            ],
            [
              116.3553,
              39.939
            ],
            [
              116.351244,
              39.939
            ],
            [
              116.351244,
              40.0265
            ],
            [
              116.3553,
              40.0265
            ]
          ]
        ]
      }
    }
  ]
}
