{
  "type": "FeatureCollection",
  "name": "conditional_l_m_d_phasing_reference",
  "features": [
    {
      "type": "Feature",
      "id": "PHASE-001",
      "properties": {
        "id": "PHASE-001",
        "layer": "PHASE",
        "source_type": "agent_generated_design",
        "confidence": "low",
        "geometry_role": "design_proposal",
        "phase": "M_concept_reference",
        "name_zh": "M中度复面概念参考范围（非实施分期）",
        "area_sqm_declared": 4587013.573,
        "concept_status": "M_CONCEPT_DESIGN_GO",
        "engineering_status": "M_ENGINEERING_IMPLEMENTATION_LOCKED",
        "tier_status": {
          "L": "0-1_year_reversible_operations_pilot",
          "M": "competition_main_concept",
          "D": "long_term_possibility_not_current_commitment"
        },
        "unlock_conditions": [
          "official_and_real_world_geometry_rebinding",
          "property_and_operator_consent",
          "structure_and_fire_review",
          "accessibility_and_passage_baseline",
          "parking_replacement_and_logistics_closure",
          "ecological_non_regression_verification"
        ],
        "fallback_rule": "任一解锁条件失败即回退到 L 或删除对应动作。",
        "usage_note": "该 polygon 只是临时 formal 容器中的概念参考，不是已批项目范围、时序、投资或开工承诺。"
      },
      "geometry": {
        "type": "Polygon",
        "coordinates": [
          [
            [
              116.3417,
              40.006
            ],
            [
              116.34218780487805,
              40.016
            ],
            [
              116.34843599999999,
              40.016
            ],
            [
              116.34843599999999,
              39.9495
            ],
            [
              116.340948,
              39.9495
            ],
            [
              116.340948,
              39.99434399999997
            ],
            [
              116.3417,
              40.006
            ]
          ]
        ]
      }
    }
  ]
}
