{
  "type": "FeatureCollection",
  "name": "two_fronts_public_interface_design_model",
  "features": [
    {
      "type": "Feature",
      "id": "PUBLIC-001",
      "properties": {
        "id": "PUBLIC-001",
        "layer": "PUBLIC_SPACE",
        "source_type": "agent_generated_design",
        "confidence": "low",
        "geometry_role": "design_proposal",
        "name_zh": "一园双面公共界面概念模型",
        "area_sqm_declared": 836345.643,
        "concept_status": "M_CONCEPT_DESIGN_GO",
        "engineering_implementation_verified": false,
        "space_source_priority": [
          "verified_low_efficiency_hardscape",
          "verified_parking_conversion_with_replacement",
          "wall_edge_and_corner",
          "forecourt",
          "verified_ground_floor"
        ],
        "non_regression_rule": "不以压缩公园普通使用空间换取 AI 展示空间。",
        "rebind_trigger": "现状普通公共空间、通行、权属、停车与后勤基线完成联合核验。",
        "usage_note": "为临时 formal 容器中的概念几何，不是现状公共空间测绘、已批边界或可实施改造面。"
      },
      "geometry": {
        "type": "Polygon",
        "coordinates": [
          [
            [
              116.34734399999999,
              39.967
            ],
            [
              116.34734399999999,
              40.00025
            ],
            [
              116.349996,
              40.00025
            ],
            [
              116.349996,
              39.967
            ],
            [
              116.34734399999999,
              39.967
            ]
          ]
        ]
      }
    }
  ]
}
