{
  "type": "FeatureCollection",
  "name": "asymmetric_refront_connection_concept_model",
  "features": [
    {
      "type": "Feature",
      "id": "ROAD-001",
      "properties": {
        "id": "ROAD-001",
        "layer": "ROAD_CENTERLINE",
        "source_type": "agent_generated_design",
        "confidence": "low",
        "geometry_role": "design_proposal",
        "road_class": "greenway",
        "name_zh": "非对称复面概念接力线（临时容器）",
        "concept_status": "M_CONCEPT_DESIGN_GO",
        "engineering_implementation_verified": false,
        "connection_rule": "只在真实横路、合法过街与公共落点同时证实时换侧接棒；不机械左右交替。",
        "rebind_trigger": "官方道路与用地边界、横路、过街、落点、无障碍、人流与消防条件完成逐段核验。",
        "usage_note": "为 provisional formal 容器内的概念线，不表示现状道路、新建线位、S2 已贯通或任何已批工程。"
      },
      "geometry": {
        "type": "LineString",
        "coordinates": [
          [
            116.340948,
            39.9845
          ],
          [
            116.35374,
            39.9845
          ]
        ]
      }
    }
  ]
}
