{
  "type": "FeatureCollection",
  "name": "site_boundary",
  "features": [
    {
      "type": "Feature",
      "id": "SITE-001",
      "properties": {
        "id": "SITE-001",
        "layer": "SITE_BOUNDARY",
        "source_type": "agent_inferred_from_public_data",
        "confidence": "medium",
        "geometry_role": "provisional_constraint",
        "official_boundary": false,
        "scope_id": "overall_design_area",
        "name_zh": "总体设计范围（临时粗略边界）",
        "boundary_precision": "provisional_rough",
        "area_sqm_calculated": 11342335.6,
        "usage_note": "临时粗略边界，非 official redline，仅用于生成/可视化/自检"
      },
      "geometry": {
        "type": "Polygon",
        "coordinates": [
          [
            [
              116.3407,
              39.939
            ],
            [
              116.3553,
              39.939
            ],
            [
              116.3553,
              39.965
            ],
            [
              116.3533,
              39.99
            ],
            [
              116.3553,
              40.0265
            ],
            [
              116.3427,
              40.0265
            ],
            [
              116.3417,
              40.006
            ],
            [
              116.3397,
              39.975
            ],
            [
              116.3407,
              39.939
            ]
          ]
        ]
      }
    }
  ]
}