{
  "type": "FeatureCollection",
  "name": "proto_jz_phasing_design",
  "features": [
    {
      "type": "Feature",
      "id": "PHASE-001",
      "properties": {
        "id": "PHASE-001",
        "layer": "PHASE",
        "source_type": "agent_generated_design",
        "confidence": "medium",
        "geometry_role": "design_proposal",
        "phase": "phase_1",
        "name_zh": "一期可讨论范围",
        "area_sqm_declared": 4587013.573,
        "linked_nodes": ["Z1", "Z2", "Z3"],
        "design_intent": "先以三节点慢行参与轴组织影子测试，再由 G0/G1/G2 门控决定是否扩展；边界、面积和实施条件均为 provisional_only。",
        "design_intent_en": "Start with a three-node slow participation spine and shadow tests; G0/G1/G2 gates decide expansion. Boundary, area and implementation conditions are provisional_only."
      },
      "geometry": {
        "type": "Polygon",
        "coordinates": [
          [
            [
              116.3417,
              40.006
            ],
            [
              116.34218780487805,
              40.016
            ],
            [
              116.34843599999999,
              40.016
            ],
            [
              116.34843599999999,
              39.9495
            ],
            [
              116.340948,
              39.9495
            ],
            [
              116.340948,
              39.99434399999997
            ],
            [
              116.3417,
              40.006
            ]
          ]
        ]
      }
    }
  ]
}
