{
  "type": "FeatureCollection",
  "features": [
    {
      "type": "Feature",
      "id": "BLDG-001",
      "properties": {
        "id": "BLDG-001",
        "layer": "BUILDING_FOOTPRINT",
        "source_type": "agent_generated_design",
        "confidence": "low",
        "geometry_role": "design_proposal",
        "building_type": "lab",
        "renewal_action": "conceptual_reuse_or_retrofit",
        "area_sqm_declared": 20900.0,
        "label_zh": "公开评测与治理学庭",
        "label_en": "Public Evaluation Court",
        "usage_note": "Conceptual footprint; no parcel-level demolition or statutory scale conclusion."
      },
      "geometry": {
        "type": "Polygon",
        "coordinates": [
          [
            [
              116.34738259530604,
              40.01723876795363
            ],
            [
              116.34960799545799,
              40.017251279261316
            ],
            [
              116.3496173998606,
              40.01626066421527
            ],
            [
              116.34739203188148,
              40.01624815334397
            ],
            [
              116.34738259530604,
              40.01723876795363
            ]
          ]
        ]
      }
    },
    {
      "type": "Feature",
      "id": "BLDG-002",
      "properties": {
        "id": "BLDG-002",
        "layer": "BUILDING_FOOTPRINT",
        "source_type": "agent_generated_design",
        "confidence": "low",
        "geometry_role": "design_proposal",
        "building_type": "incubator",
        "renewal_action": "conceptual_reuse_or_retrofit",
        "area_sqm_declared": 20900.0,
        "label_zh": "开源转化与人才学庭",
        "label_en": "Open-source Transfer Court",
        "usage_note": "Conceptual footprint; no parcel-level demolition or statutory scale conclusion."
      },
      "geometry": {
        "type": "Polygon",
        "coordinates": [
          [
            [
              116.34638304551021,
              39.98898905390208
            ],
            [
              116.34860752824378,
              39.98900157711415
            ],
            [
              116.34861693770117,
              39.98801095742182
            ],
            [
              116.346392487095,
              39.98799843464663
            ],
            [
              116.34638304551021,
              39.98898905390208
            ]
          ]
        ]
      }
    },
    {
      "type": "Feature",
      "id": "BLDG-003",
      "properties": {
        "id": "BLDG-003",
        "layer": "BUILDING_FOOTPRINT",
        "source_type": "agent_generated_design",
        "confidence": "low",
        "geometry_role": "design_proposal",
        "building_type": "mixed_use",
        "renewal_action": "conceptual_reuse_or_retrofit",
        "area_sqm_declared": 20900.0,
        "label_zh": "智能业态与国际学庭",
        "label_en": "Native-AI Exchange Court",
        "usage_note": "Conceptual footprint; no parcel-level demolition or statutory scale conclusion."
      },
      "geometry": {
        "type": "Polygon",
        "coordinates": [
          [
            [
              116.34738373028215,
              39.94740920297698
            ],
            [
              116.34960686615156,
              39.94742169626527
            ],
            [
              116.34961624735762,
              39.94643106924905
            ],
            [
              116.34739314354898,
              39.946418576396724
            ],
            [
              116.34738373028215,
              39.94740920297698
            ]
          ]
        ]
      }
    }
  ]
}
