{
  "type": "FeatureCollection",
  "features": [
    {
      "type": "Feature",
      "id": "CONSTRAINTS",
      "properties": {
        "id": "CONSTRAINTS",
        "layer": "REGULATORY_CONTROL",
        "source_type": "agent_inferred_from_public_data",
        "confidence": "low",
        "geometry_role": "analysis_helper",
        "label_zh": "待正式控规与工程条件确认范围",
        "label_en": "Area pending official planning and engineering controls",
        "area_sqm_declared": 11412825.386,
        "usage_note": "No official FAR, height, road redline, ownership, utility, or demolition conclusion is asserted."
      },
      "geometry": {
        "type": "Polygon",
        "coordinates": [
          [
            [
              116.3407,
              39.939
            ],
            [
              116.3553,
              39.939
            ],
            [
              116.3553,
              39.965
            ],
            [
              116.3533,
              39.99
            ],
            [
              116.3553,
              40.0265
            ],
            [
              116.3427,
              40.0265
            ],
            [
              116.3417,
              40.006
            ],
            [
              116.3397,
              39.975
            ],
            [
              116.3407,
              39.939
            ]
          ]
        ]
      }
    }
  ]
}
