{
  "type": "FeatureCollection",
  "features": [
    {
      "type": "Feature",
      "id": "GREEN-001",
      "properties": {
        "id": "GREEN-001",
        "layer": "GREEN_SPACE",
        "source_type": "agent_generated_design",
        "confidence": "low",
        "geometry_role": "design_proposal",
        "label_zh": "共学绿脊",
        "label_en": "Learning green spine",
        "area_sqm_declared": 3737700.314
      },
      "geometry": {
        "type": "Polygon",
        "coordinates": [
          [
            [
              116.34070000000001,
              39.93899999999999
            ],
            [
              116.3397,
              39.97500000000001
            ],
            [
              116.34169999999999,
              40.006
            ],
            [
              116.34270000000001,
              40.0265
            ],
            [
              116.34493119718795,
              40.02650009982798
            ],
            [
              116.3457663133891,
              39.939000208309196
            ],
            [
              116.34070000000001,
              39.93899999999999
            ]
          ]
        ]
      }
    }
  ]
}
