{
  "type": "FeatureCollection",
  "features": [
    {
      "type": "Feature",
      "id": "LU-001",
      "properties": {
        "id": "LU-001",
        "layer": "LAND_USE",
        "source_type": "agent_generated_design",
        "confidence": "low",
        "geometry_role": "design_proposal",
        "land_use_code": "1401",
        "label_zh": "概念共学绿脊",
        "label_en": "Concept learning green spine",
        "area_sqm_declared": 3737700.314,
        "usage_note": "Topology-safe conceptual partition within provisional boundary; not statutory zoning."
      },
      "geometry": {
        "type": "Polygon",
        "coordinates": [
          [
            [
              116.34070000000001,
              39.93899999999999
            ],
            [
              116.3397,
              39.97500000000001
            ],
            [
              116.34169999999999,
              40.006
            ],
            [
              116.34270000000001,
              40.0265
            ],
            [
              116.34493119718795,
              40.02650009982798
            ],
            [
              116.3457663133891,
              39.939000208309196
            ],
            [
              116.34070000000001,
              39.93899999999999
            ]
          ]
        ]
      }
    },
    {
      "type": "Feature",
      "id": "LU-002",
      "properties": {
        "id": "LU-002",
        "layer": "LAND_USE",
        "source_type": "agent_generated_design",
        "confidence": "low",
        "geometry_role": "design_proposal",
        "land_use_code": "0802",
        "label_zh": "AI研发与公开评测",
        "label_en": "AI R&D and public evaluation",
        "area_sqm_declared": 2510821.585,
        "usage_note": "Topology-safe conceptual partition within provisional boundary; not statutory zoning."
      },
      "geometry": {
        "type": "Polygon",
        "coordinates": [
          [
            [
              116.3457663133891,
              39.939000208309196
            ],
            [
              116.34493119718795,
              40.02650009982798
            ],
            [
              116.34795852234258,
              40.02650016658384
            ],
            [
              116.34878977927079,
              39.93900022713698
            ],
            [
              116.3457663133891,
              39.939000208309196
            ]
          ]
        ]
      }
    },
    {
      "type": "Feature",
      "id": "LU-003",
      "properties": {
        "id": "LU-003",
        "layer": "LAND_USE",
        "source_type": "agent_generated_design",
        "confidence": "low",
        "geometry_role": "design_proposal",
        "land_use_code": "0902",
        "label_zh": "企业服务与国际协作",
        "label_en": "Enterprise services and international exchange",
        "area_sqm_declared": 1826052.062,
        "usage_note": "Topology-safe conceptual partition within provisional boundary; not statutory zoning."
      },
      "geometry": {
        "type": "Polygon",
        "coordinates": [
          [
            [
              116.34878977927079,
              39.93900022713698
            ],
            [
              116.34795852234258,
              40.02650016658384
            ],
            [
              116.35016021414508,
              40.02650016545577
            ],
            [
              116.35098866432571,
              39.93900019130497
            ],
            [
              116.34878977927079,
              39.93900022713698
            ]
          ]
        ]
      }
    },
    {
      "type": "Feature",
      "id": "LU-004",
      "properties": {
        "id": "LU-004",
        "layer": "LAND_USE",
        "source_type": "agent_generated_design",
        "confidence": "low",
        "geometry_role": "design_proposal",
        "land_use_code": "0701",
        "label_zh": "人才生活与社区服务",
        "label_en": "Talent living and community services",
        "area_sqm_declared": 1369539.046,
        "usage_note": "Topology-safe conceptual partition within provisional boundary; not statutory zoning."
      },
      "geometry": {
        "type": "Polygon",
        "coordinates": [
          [
            [
              116.35098866432571,
              39.93900019130497
            ],
            [
              116.35016021414508,
              40.02650016545577
            ],
            [
              116.35181148342538,
              40.026500137156205
            ],
            [
              116.35263782854337,
              39.9390001370619
            ],
            [
              116.35098866432571,
              39.93900019130497
            ]
          ]
        ]
      }
    },
    {
      "type": "Feature",
      "id": "LU-005",
      "properties": {
        "id": "LU-005",
        "layer": "LAND_USE",
        "source_type": "agent_generated_design",
        "confidence": "low",
        "geometry_role": "design_proposal",
        "land_use_code": "0803",
        "label_zh": "京张文化与公共课程",
        "label_en": "Jing-Zhang culture and public learning",
        "area_sqm_declared": 913026.031,
        "usage_note": "Topology-safe conceptual partition within provisional boundary; not statutory zoning."
      },
      "geometry": {
        "type": "Polygon",
        "coordinates": [
          [
            [
              116.35263782854337,
              39.9390001370619
            ],
            [
              116.35181148342538,
              40.026500137156205
            ],
            [
              116.3529123298152,
              40.02650010521671
            ],
            [
              116.35373727155714,
              39.93900008786696
            ],
            [
              116.35263782854337,
              39.9390001370619
            ]
          ]
        ]
      }
    },
    {
      "type": "Feature",
      "id": "LU-006",
      "properties": {
        "id": "LU-006",
        "layer": "LAND_USE",
        "source_type": "agent_generated_design",
        "confidence": "low",
        "geometry_role": "design_proposal",
        "land_use_code": "1207",
        "label_zh": "慢行交通与站点接驳",
        "label_en": "Slow mobility and station access",
        "area_sqm_declared": 1055686.348,
        "usage_note": "Topology-safe conceptual partition within provisional boundary; not statutory zoning."
      },
      "geometry": {
        "type": "Polygon",
        "coordinates": [
          [
            [
              116.3533,
              39.989999999999995
            ],
            [
              116.3553,
              39.965
            ],
            [
              116.3553,
              39.939
            ],
            [
              116.35373727155714,
              39.93900008786696
            ],
            [
              116.3529123298152,
              40.02650010521671
            ],
            [
              116.3553,
              40.0265
            ],
            [
              116.3533,
              39.989999999999995
            ]
          ]
        ]
      }
    }
  ]
}
