{
  "type": "FeatureCollection",
  "features": [
    {
      "type": "Feature",
      "id": "PHASE-001",
      "properties": {
        "id": "PHASE-001",
        "layer": "PHASE",
        "source_type": "agent_generated_design",
        "confidence": "low",
        "geometry_role": "design_proposal",
        "phase": 1,
        "label_zh": "近期：课程契约与轻量节点",
        "label_en": "Near term: contract and light nodes",
        "area_sqm_declared": 3423847.616
      },
      "geometry": {
        "type": "Polygon",
        "coordinates": [
          [
            [
              116.3553,
              39.939
            ],
            [
              116.34070000000001,
              39.93899999999999
            ],
            [
              116.340030265111,
              39.963115690161054
            ],
            [
              116.35530000425732,
              39.96320161864293
            ],
            [
              116.3553,
              39.939
            ]
          ]
        ]
      }
    },
    {
      "type": "Feature",
      "id": "PHASE-002",
      "properties": {
        "id": "PHASE-002",
        "layer": "PHASE",
        "source_type": "agent_generated_design",
        "confidence": "low",
        "geometry_role": "design_proposal",
        "phase": 2,
        "label_zh": "中期：三座学庭与空间缝合",
        "label_en": "Mid term: courts and spatial stitching",
        "area_sqm_declared": 4336873.647
      },
      "geometry": {
        "type": "Polygon",
        "coordinates": [
          [
            [
              116.3533,
              39.989999999999995
            ],
            [
              116.3553,
              39.965
            ],
            [
              116.35530000425732,
              39.96320161864293
            ],
            [
              116.340030265111,
              39.963115690161054
            ],
            [
              116.3397,
              39.97500000000001
            ],
            [
              116.34103738479008,
              39.99573226038334
            ],
            [
              116.35361785252854,
              39.9958031059813
            ],
            [
              116.3533,
              39.989999999999995
            ]
          ]
        ]
      }
    },
    {
      "type": "Feature",
      "id": "PHASE-003",
      "properties": {
        "id": "PHASE-003",
        "layer": "PHASE",
        "source_type": "agent_generated_design",
        "confidence": "low",
        "geometry_role": "design_proposal",
        "phase": 3,
        "label_zh": "远期：制度扩展与持续复盘",
        "label_en": "Long term: institutional scaling and review",
        "area_sqm_declared": 3652104.123
      },
      "geometry": {
        "type": "Polygon",
        "coordinates": [
          [
            [
              116.34169999999999,
              40.006
            ],
            [
              116.34270000000001,
              40.0265
            ],
            [
              116.3553,
              40.0265
            ],
            [
              116.35361785252854,
              39.9958031059813
            ],
            [
              116.34103738479008,
              39.99573226038334
            ],
            [
              116.34169999999999,
              40.006
            ]
          ]
        ]
      }
    }
  ]
}
