{
  "type": "FeatureCollection",
  "features": [
    {
      "type": "Feature",
      "id": "PUBLIC-001",
      "properties": {
        "id": "PUBLIC-001",
        "layer": "PUBLIC_SPACE",
        "source_type": "agent_generated_design",
        "confidence": "low",
        "geometry_role": "design_proposal",
        "label_zh": "课程公共空间",
        "label_en": "Public course space",
        "area_sqm_declared": 494175.339
      },
      "geometry": {
        "type": "Polygon",
        "coordinates": [
          [
            [
              116.3553,
              39.939
            ],
            [
              116.34070000000001,
              39.93899999999999
            ],
            [
              116.34060247082901,
              39.9425131335835
            ],
            [
              116.35530000787854,
              39.94259579540606
            ],
            [
              116.3553,
              39.939
            ]
          ]
        ]
      }
    }
  ]
}
