{
  "type": "FeatureCollection",
  "features": [
    {
      "type": "Feature",
      "id": "ROAD-001",
      "properties": {
        "id": "ROAD-001",
        "layer": "ROAD_CENTERLINE",
        "source_type": "agent_generated_design",
        "confidence": "low",
        "geometry_role": "design_proposal",
        "road_class": "greenway",
        "label_zh": "9.54公里教回线",
        "label_en": "9.54 km Teach-Back Line",
        "length_m_declared": 9540.0
      },
      "geometry": {
        "type": "LineString",
        "coordinates": [
          [
            116.34798932428816,
            39.93981077886066
          ],
          [
            116.34798671456414,
            39.93999882725848
          ],
          [
            116.34797666047123,
            39.940723278765226
          ],
          [
            116.34796660606247,
            39.94144773017917
          ],
          [
            116.34795655133777,
            39.94217218150033
          ],
          [
            116.3479464962972,
            39.942896632728704
          ],
          [
            116.34793644094067,
            39.94362108386428
          ],
          [
            116.34792638526821,
            39.94434553490706
          ],
          [
            116.34791632927977,
            39.945069985857046
          ],
          [
            116.34790627297538,
            39.94579443671424
          ],
          [
            116.34789621635498,
            39.946518887478625
          ],
          [
            116.34788615941861,
            39.94724333815022
          ],
          [
            116.34787610216623,
            39.947967788729045
          ],
          [
            116.34786604459781,
            39.94869223921505
          ],
          [
            116.34785598671336,
            39.94941668960825
          ],
          [
            116.34784592851285,
            39.95014113990868
          ],
          [
            116.34783586999629,
            39.950865590116294
          ],
          [
            116.34782581116364,
            39.9515900402311
          ],
          [
            116.34781575201488,
            39.95231449025314
          ],
          [
            116.34780569255004,
            39.95303894018236
          ],
          [
            116.34779563276906,
            39.95376339001877
          ],
          [
            116.34778557267195,
            39.95448783976239
          ],
          [
            116.3477755122587,
            39.95521228941321
          ],
          [
            116.34776545152928,
            39.95593673897123
          ],
          [
            116.34775539048368,
            39.95666118843644
          ],
          [
            116.34774532912189,
            39.95738563780886
          ],
          [
            116.34773526744391,
            39.958110087088464
          ],
          [
            116.3477252054497,
            39.95883453627527
          ],
          [
            116.34771514313927,
            39.959558985369284
          ],
          [
            116.34770508051258,
            39.960283434370474
          ],
          [
            116.34769501756965,
            39.96100788327887
          ],
          [
            116.34768495431044,
            39.96173233209446
          ],
          [
            116.34767489073495,
            39.962456780817256
          ],
          [
            116.34766482684317,
            39.96318122944724
          ],
          [
            116.34765476263506,
            39.96390567798441
          ],
          [
            116.34764469811061,
            39.96463012642877
          ],
          [
            116.34761853716458,
            39.96535448419502
          ],
          [
            116.34757951654883,
            39.966078769488206
          ],
          [
            116.34754049500582,
            39.96680305467145
          ],
          [
            116.34750147253547,
            39.96752733974475
          ],
          [
            116.34746244913774,
            39.9682516247081
          ],
          [
            116.34742342481259,
            39.96897590956151
          ],
          [
            116.34738439955999,
            39.969700194304956
          ],
          [
            116.34734537337984,
            39.97042447893844
          ],
          [
            116.34730634627212,
            39.97114876346199
          ],
          [
            116.34726731823683,
            39.971873047875576
          ],
          [
            116.34722828927386,
            39.972597332179205
          ],
          [
            116.34718925938319,
            39.973321616372886
          ],
          [
            116.34715022856477,
            39.9740459004566
          ],
          [
            116.34711119681856,
            39.97477018443035
          ],
          [
            116.34709328148972,
            39.97549458724431
          ],
          [
            116.34708768648329,
            39.9762190593635
          ],
          [
            116.34708209125469,
            39.97694353139123
          ],
          [
            116.34707649580395,
            39.977668003327516
          ],
          [
            116.34707090013107,
            39.978392475172335
          ],
          [
            116.347065304236,
            39.9791169469257
          ],
          [
            116.34705970811876,
            39.9798414185876
          ],
          [
            116.34705411177934,
            39.98056589015805
          ],
          [
            116.34704851521775,
            39.981290361637036
          ],
          [
            116.34704291843391,
            39.98201483302456
          ],
          [
            116.3470373214279,
            39.98273930432063
          ],
          [
            116.34703172419967,
            39.98346377552522
          ],
          [
            116.34702612674918,
            39.98418824663838
          ],
          [
            116.34702052907647,
            39.984912717660066
          ],
          [
            116.34701493118152,
            39.98563718859028
          ],
          [
            116.34700933306432,
            39.986361659429036
          ],
          [
            116.34700373472485,
            39.987086130176344
          ],
          [
            116.34699813616311,
            39.98781060083218
          ],
          [
            116.3469925373791,
            39.98853507139654
          ],
          [
            116.3469869383728,
            39.98925954186944
          ],
          [
            116.34698268626367,
            39.98998401984081
          ],
          [
            116.34702591204261,
            39.99070876521408
          ],
          [
            116.34706913863145,
            39.99143351048825
          ],
          [
            116.34711236603023,
            39.99215825566334
          ],
          [
            116.34715559423904,
            39.99288300073934
          ],
          [
            116.34719882325788,
            39.99360774571624
          ],
          [
            116.34724205308684,
            39.99433249059405
          ],
          [
            116.34728528372592,
            39.99505723537275
          ],
          [
            116.3473285151752,
            39.99578198005234
          ],
          [
            116.34737174743472,
            39.996506724632845
          ],
          [
            116.34741498050454,
            39.997231469114254
          ],
          [
            116.34745821438469,
            39.99795621349654
          ],
          [
            116.34750144907522,
            39.998680957779726
          ],
          [
            116.34754468457618,
            39.999405701963816
          ],
          [
            116.34758792088762,
            40.000130446048786
          ],
          [
            116.34763115800959,
            40.00085519003465
          ],
          [
            116.34767439594212,
            40.001579933921406
          ],
          [
            116.34771763468528,
            40.00230467770903
          ],
          [
            116.3477608742391,
            40.00302942139755
          ],
          [
            116.34780411460363,
            40.00375416498694
          ],
          [
            116.34784735577894,
            40.00447890847723
          ],
          [
            116.34789059776504,
            40.0052036518684
          ],
          [
            116.347933840562,
            40.005928395160424
          ],
          [
            116.3479721189251,
            40.00665311041796
          ],
          [
            116.34800964515698,
            40.00737782134365
          ],
          [
            116.34804717207882,
            40.00810253217321
          ],
          [
            116.3480846996907,
            40.00882724290668
          ],
          [
            116.3481222279926,
            40.00955195354405
          ],
          [
            116.34815975698461,
            40.01027666408529
          ],
          [
            116.34819728666676,
            40.011001374530444
          ],
          [
            116.34823481703908,
            40.01172608487949
          ],
          [
            116.34827234810162,
            40.01245079513241
          ],
          [
            116.3483098798544,
            40.01317550528922
          ],
          [
            116.34834741229746,
            40.01390021534993
          ],
          [
            116.34838494543088,
            40.01462492531449
          ],
          [
            116.3484224792547,
            40.015349635182965
          ],
          [
            116.34846001376891,
            40.01607434495531
          ],
          [
            116.34849754897358,
            40.01679905463153
          ],
          [
            116.34853508486874,
            40.01752376421164
          ],
          [
            116.34857262145448,
            40.018248473695614
          ],
          [
            116.34861015873079,
            40.018973183083475
          ],
          [
            116.34864769669771,
            40.01969789237521
          ],
          [
            116.3486852353553,
            40.020422601570814
          ],
          [
            116.3487227747036,
            40.02114731067028
          ],
          [
            116.34876031474265,
            40.02187201967362
          ],
          [
            116.34879785547248,
            40.02259672858085
          ],
          [
            116.34883539689316,
            40.023321437391935
          ],
          [
            116.34887293900468,
            40.024046146106876
          ],
          [
            116.34891048180714,
            40.0247708547257
          ],
          [
            116.34894802530053,
            40.025495563248384
          ],
          [
            116.34895780139689,
            40.025684270716376
          ]
        ]
      }
    },
    {
      "type": "Feature",
      "id": "ROAD-HC-01",
      "properties": {
        "id": "ROAD-HC-01",
        "layer": "ROAD_CENTERLINE",
        "source_type": "agent_generated_design",
        "confidence": "low",
        "geometry_role": "design_proposal",
        "road_class": "pedestrian",
        "label_zh": "交接学庭1",
        "label_en": "Handover Court 1",
        "length_m_declared": 1000.987
      },
      "geometry": {
        "type": "LineString",
        "coordinates": [
          [
            116.34263293366504,
            40.01671658839943
          ],
          [
            116.35435703592128,
            40.01678250170654
          ]
        ]
      }
    },
    {
      "type": "Feature",
      "id": "ROAD-HC-02",
      "properties": {
        "id": "ROAD-HC-02",
        "layer": "ROAD_CENTERLINE",
        "source_type": "agent_generated_design",
        "confidence": "low",
        "geometry_role": "design_proposal",
        "road_class": "pedestrian",
        "label_zh": "交接学庭2",
        "label_en": "Handover Court 2",
        "length_m_declared": 1027.386
      },
      "geometry": {
        "type": "LineString",
        "coordinates": [
          [
            116.34097867289287,
            39.9884631147963
          ],
          [
            116.35300701606215,
            39.98853088292822
          ]
        ]
      }
    },
    {
      "type": "Feature",
      "id": "ROAD-HC-03",
      "properties": {
        "id": "ROAD-HC-03",
        "layer": "ROAD_CENTERLINE",
        "source_type": "agent_generated_design",
        "confidence": "low",
        "geometry_role": "design_proposal",
        "road_class": "pedestrian",
        "label_zh": "交接学庭3",
        "label_en": "Handover Court 3",
        "length_m_declared": 1196.479
      },
      "geometry": {
        "type": "LineString",
        "coordinates": [
          [
            116.34089092898058,
            39.94687713184545
          ],
          [
            116.35489048052114,
            39.94695587746966
          ]
        ]
      }
    }
  ]
}
